City,CityCode,District,DistrictCode,Ward,WardCode,Level,English,FullAddress,JSON,name,formatted_address,place_id,reference,id,geometry_location_lng,geometry_location_lat,geometry_viewport_southwest_lng,geometry_viewport_southwest_lat,geometry_viewport_northeast_lng,geometry_viewport_northeast_lat,types,center_lat,center_lng,radius
Thành phố Hồ Chí Minh,79,Quận 1,760,Phường Tân Định,26734,Phường,,Phường Tân Định Quận 1 Thành phố Hồ Chí Minh,,Tân Định,"Tân Định, Quận 1, Hồ Chí Minh, Vietnam",ChIJaZTwB80odTERUe1OVa2_13g,CmRbAAAAo01tSblJZzp0t2rQkJBpNAYsT8SE0QHuQgtQcDjzhcvaAoFlGSXgnX4IyGrwsF39qcL3jtYUj0Ru_Wan8rhAVW_RJQ4gpiJ33NORuENObeM8DuNX3hHRuqToDo1m2J7nEhBEJ8k7UpUjBB8tc1HcN5TNGhSLdBodYkHlQWrFQ6cnD8QlOjK0fQ,a1cace7ba8673b2b21008951d58b8a9957e2ee7a,106.6902951,10.7930968,106.6847829,10.7878626,106.6959069,10.7968787,"sublocality_level_1,sublocality,political",10.79237065,106.6903449,787.1401379597454
Thành phố Hồ Chí Minh,79,Quận 1,760,Phường Đa Kao,26737,Phường,,Phường Đa Kao Quận 1 Thành phố Hồ Chí Minh,,Da Kao,"Da Kao, District 1, Ho Chi Minh, Vietnam",ChIJ-y_bRDUvdTERovF_y38Jfkw,CmRbAAAAAeTN49YXs1__vAOQjUkdl2GnDOzZ_cmHv_3G8bXlErcP9dGXXJTSNzy3PwD78XGK84sUiGN9iDlpq6ScrBVO2jDXF6uT6vhlHBYFUYY8SSCd8merFBfc5qTQ2J2YpPAsEhD1DFlyBEm0ASe_gFDkK_xpGhRleDy1oEi0rN3VJbSF4L0uUAJNzw,8b3791ed744a9f53cfa77c9c37f64c66f3f599f3,106.6984026,10.7878843,106.6918965,10.782905,106.7062112,10.7936824,"sublocality_level_1,sublocality,political",10.7882937,106.69905385,984.394090789609
Thành phố Hồ Chí Minh,79,Quận 1,760,Phường Bến Nghé,26740,Phường,,Phường Bến Nghé Quận 1 Thành phố Hồ Chí Minh,,Bến Nghé,"Bến Nghé, District 1, Ho Chi Minh, Vietnam",ChIJ483BI0kvdTERGk6ufQ_-3Nc,CmRbAAAAgRJc3uPRaiqE2whnBDUGS9FHCy-2qKcfOCuRpTm3ZvxnymDWlzCGX7OblFj89xqJSRe7PNfYr1NkfVS67ZlZ5cta5bdnX04xIKyyRB4q3I3UvzZlhxcTLvfPZTA2rdFFEhCGFMDfe5Dt28oYP-rnfqgfGhTbrQClETSNFAWC782Fbr_l8pISWg,8fa054c617620b9c9eb3f81acbf8727cb20755fb,106.702825,10.7808334,106.6949343,10.7705796,106.7150974,10.7915729,"sublocality_level_1,sublocality,political",10.78107625,106.70501585,1603.6874855544174
Thành phố Hồ Chí Minh,79,Quận 1,760,Phường Bến Thành,26743,Phường,,Phường Bến Thành Quận 1 Thành phố Hồ Chí Minh,,Bến Thành,"Bến Thành, Quận 1, Hồ Chí Minh, Vietnam",ChIJwXsDWTkvdTERaAR7UOHYu9Y,CmRbAAAADSRUiF9DCjjRfMEmwLsDymaYsOtRBMjLawmj0ZyliilJGNzDOgs5uPsXGFOfEk5ourWdaUnyEHTkojHfQsFAeqIrnTBeRKhssOZStRIzzTMmDWxfjuwYciVKj5Taya6XEhAd3muy2vMlCTFDYORI5yCNGhQphjZoFiz1gUKQ5o-qwxee13DzIQ,ded9e6917d14dbbe17383f6d646d11072dd2c7f5,106.6944173,10.7735994,106.6872401,10.7684438,106.7011217,10.7795272,"sublocality_level_1,sublocality,political",10.7739855,106.69418089999999,976.4005635415431
Thành phố Hồ Chí Minh,79,Quận 1,760,Phường Nguyễn Thái Bình,26746,Phường,,Phường Nguyễn Thái Bình Quận 1 Thành phố Hồ Chí Minh,,Nguyễn Thái Bình,"Nguyễn Thái Bình, Quận 1, Hồ Chí Minh, Vietnam",ChIJsRVCPEAvdTERGMtyy85Q6sk,CmRbAAAAcIgT7XBzVLlOWFjw9Wk9p5U0z3EC0aogHBI21gx2oB4rHs6cOyQZsJKIePteWBNRmTYELGjpuvzBMkKiwRMGl7lhQp-BIew6nZipZdxNFkn150Ec9GisIjQJ35kPcd-JEhBsog-3xyBlGSsKdvk19gUvGhRxPtiP0rWzUqS-9-K2RtMl5m0Yaw,11af92a348c2ae381e92e6ed9aa96a3ed8f66fae,106.7006138,10.7693846,106.6963576,10.7648247,106.7084026,10.7711487,"sublocality_level_1,sublocality,political",10.7679867,106.7023801,745.4751535349047
Thành phố Hồ Chí Minh,79,Quận 1,760,Phường Phạm Ngũ Lão,26749,Phường,,Phường Phạm Ngũ Lão Quận 1 Thành phố Hồ Chí Minh,,Phạm Ngũ Lão,"Phạm Ngũ Lão, Quận 1, Hồ Chí Minh, Vietnam",ChIJpw44hz0vdTERMDlE5GG5KLM,CmRbAAAA_rYnHlRBnquXBRFr0ploKPYKa6dXCctZ2HIeGA-m-gPBTiK7TCcqRgFG2GLea0iVwqoOEwokn18d0qksI2c0moNtnM8cKth4cKpICYayqLfDioAo3BucNGoE_0Ne0hz-EhDh77tfefqqzt-w8QPpVXy6GhQRnm__O9lGLGCuZfjFYZOzHlmDDw,b1943a7fa1d6fd382edf887e280adbb999b3d7ec,106.6908105,10.7658855,106.6844151,10.7642045,106.6983548,10.7715897,"sublocality_level_1,sublocality,political",10.767897099999999,106.69138495,864.486224683468
Thành phố Hồ Chí Minh,79,Quận 1,760,Phường Cầu Ông Lãnh,26752,Phường,,Phường Cầu Ông Lãnh Quận 1 Thành phố Hồ Chí Minh,,Cầu Ông Lãnh,"Cầu Ông Lãnh, Quận 1, Hồ Chí Minh, Vietnam",ChIJB-ITDxUvdTERLMz-D3EEaT4,CmRbAAAANq3LrQhKRYULp5Og8ovmNbKNpMMcOyKOJkHrFyTaFGmqP3QDmfn79kUmxnErEvXuGHVgT9xqhUFfYSudCtSX7qgBS8320usNQW-lz5znkB_oEm0kFNywsH9H0pFyJP55EhAR27znvbZNStwPPFblV_ZZGhRcmgqDuSKEnIdOaCBnu-1nqslGoA,a288276d53faffb2df72c6bf8e2ab0415b58a701,106.6961914,10.7655446,106.6942775,10.7618945,106.7003988,10.769167,"sublocality_level_1,sublocality,political",10.76553075,106.69733815000001,524.3311139198905
Thành phố Hồ Chí Minh,79,Quận 1,760,Phường Cô Giang,26755,Phường,,Phường Cô Giang Quận 1 Thành phố Hồ Chí Minh,,Cô Giang,"Cô Giang, Quận 1, Hồ Chí Minh, Vietnam",ChIJy8O_rRYvdTERNzhSfGVOhzg,CmRbAAAAz1EOon4AxsWdVx31aOyxP2P-aye4qoPuDruJ4M4Xu17QM-xap_UadVPp0Pu6OG0_HIt2vrfqM2b4fqnPHqzKc3tiKuoK-vnYzpa_EhnOELMeL4vITmMCATBY9QT6CvrIEhB8jMNm2tyGLYSV6EumSPB1GhReJcR-oWyblxhggGR73qxeQcwobw,ed2d7fdfb9e5ecb8cd14c1e1e202a261ae4d8cbd,106.6932433,10.7616235,106.6898632,10.7583109,106.6969012,10.7667851,"sublocality_level_1,sublocality,political",10.762547999999999,106.6933822,607.6899838329167
Thành phố Hồ Chí Minh,79,Quận 1,760,Phường Nguyễn Cư Trinh,26758,Phường,,Phường Nguyễn Cư Trinh Quận 1 Thành phố Hồ Chí Minh,,Nguyễn Cư Trinh,"Nguyễn Cư Trinh, Quận 1, Hồ Chí Minh, Vietnam",ChIJvxb_HBovdTER5HF2035D1l8,CmRbAAAAoE80PfYTcj2DJscZXFJQTOX5MKMB47iGiQFg4aMUmHzRQ-kN0rmmMhbwdhJUm09QYX18kBAIIkuK2csjpr-RS4Yn8YGpLbAX9R2DOsYqg07xMKtFK4vdFLiejHB2CxMKEhCcqwPKvEi16pKFZZihCETpGhQBYiskNlhxyBN9L3L17L2Gcb1hRw,7fa09f40f3a45e513efea414eb344268a76b33f8,106.68661,10.7640301,106.6815624,10.7564553,106.6926488,10.7684046,"sublocality_level_1,sublocality,political",10.762429950000001,106.6871056,898.3461675933866
Thành phố Hồ Chí Minh,79,Quận 1,760,Phường Cầu Kho,26761,Phường,,Phường Cầu Kho Quận 1 Thành phố Hồ Chí Minh,,Cau Kho,"Cau Kho, District 1, Ho Chi Minh, Vietnam",ChIJD7L8DxAvdTER0L1o58cM-Vc,CmRbAAAAqd9V2X0SSHQGPp24cLYECdT-BRga9-xxfEQc_1s78vIMjgd69Xem7FtXUH6Zm1fHCUQVI7F5vsG-MFPEQZEpuGG1C7z3gcLex1mQBdn34uDMvyd9K1WFlyedxd9r0lYLEhCdeJICaYNUfjt54s5XU9ifGhRB2tzTjO8X9Hs78oKO7kUpBXvU9g,a69e19438e5fbcfbb9998f6c54818947772b5ddf,106.6888211,10.7577834,106.6851426,10.7535677,106.6925239,10.7616205,"sublocality_level_1,sublocality,political",10.757594099999999,106.68883325,602.1137710385541
Thành phố Hồ Chí Minh,79,Quận 12,761,Phường Thạnh Xuân,26764,Phường,,Phường Thạnh Xuân Quận 12 Thành phố Hồ Chí Minh,,Thạnh Xuân,"Thạnh Xuân, Quận 12, Hồ Chí Minh, Vietnam",ChIJk6OiDyrWdDERJk54JH9FLVw,CmRbAAAAbYMRPH73AwMHOqIw3dNBLzoGNl5rj8wj-PGq2MfQFfvTGx-CilY--dlqsj2ixg5l-sFHocXbDONgKh4ysLv3Hzy63AeG7eZRRi95-T50VeqFA34NIMpIgczMGhDpCl_2EhBaz6EnBqggYKf41Q8mCBVvGhS0IqsMzEQ_4FiTSIbkvl9jfRMITQ,d32aa267ab6fc4af428fef51cda8545f77bafa8d,106.6703963,10.8834303,106.6535009,10.8532091,106.6889023,10.9037224,"sublocality_level_1,sublocality,political",10.87846575,106.67120159999999,3407.1749793380964
Thành phố Hồ Chí Minh,79,Quận 12,761,Phường Thạnh Lộc,26767,Phường,,Phường Thạnh Lộc Quận 12 Thành phố Hồ Chí Minh,,Thạnh Lộc,"Thạnh Lộc, Quận 12, Hồ Chí Minh, Vietnam",ChIJUeoG29fXdDERfZRg5A7iFKA,CmRbAAAAFMvJpzfGUC6q6Kuh4Cr76zigpaEKBWAlDEkpOgQkzNuDy31OFA8CgJNi3uL6Q1-HqVTiBZfDtTx4v5156QdN4WbmMRswi8QZtS8NlvQOY6KWgsN8fp50WwiSt3_DqJgmEhA7ZFnKwJJ-3wEbWvluut9GGhTh0YILNBC_xmLA0ZjdQ6djz_3YhQ,121cbd990688d434e4c0c656e269744e0a85e377,106.6859815,10.8712302,106.6756986,10.850946,106.6965941,10.9042892,"sublocality_level_1,sublocality,political",10.8776176,106.68614635,3175.635870633241
Thành phố Hồ Chí Minh,79,Quận 12,761,Phường Hiệp Thành,26770,Phường,,Phường Hiệp Thành Quận 12 Thành phố Hồ Chí Minh,,Hiệp Thành,"Hiệp Thành, Quận 12, Hồ Chí Minh, Vietnam",ChIJw3DCdwLWdDERkf-FFSQfyhk,CmRbAAAAomeaA_IHk_Dg_rVYYN6e7QEDEkqt9i_wCSkXFa9SdXp86yVWm8JQyie7gInCkb9qhphTPm9xkOSnbAaEoioO6RtWGSykzjsF8M3IX0t2rUhXTSU7es-wf0SrGI9huvsmEhAXWQAioZ0qTDHEuw4cS_6tGhTkrc0uPtl1WyXvcVfJw1waQLtN_g,5a032b81d7b5c69826873bcc3d540f2e842b857b,106.6379724,10.8825023,106.6248465,10.8649957,106.6513913,10.8947475,"sublocality_level_1,sublocality,political",10.8798716,106.6381189,2197.867069155147
Thành phố Hồ Chí Minh,79,Quận 12,761,Phường Thới An,26773,Phường,,Phường Thới An Quận 12 Thành phố Hồ Chí Minh,,Thới An,"Thới An, Quận 12, Hồ Chí Minh, Vietnam",ChIJVXSL-t4pdTERwgUrQT4M6NI,CmRbAAAAF0AEoHxFiY28I-PY35LDd4aP5RVAqL5OeXaP-PLxPZNz0Kb9aYg5NTFECOPbkkPVB7AcaJReMzO_6JR05LC1ff96IRyUqJZjSn4P4cPBsvimARchPiUbgWTFBLbB2evmEhDseiNRlLPAfA1NDCOSKa0DGhTz42-6Q7ynUEMa3qYF8qDLHRMrcA,bca8d63bc9f35a5254b693f648ac220c015605ef,106.6556575,10.8760697,106.6466377,10.8554624,106.6657852,10.8953875,"sublocality_level_1,sublocality,political",10.87542495,106.65621145,2452.0738029838244
Thành phố Hồ Chí Minh,79,Quận 12,761,Phường Tân Chánh Hiệp,26776,Phường,,Phường Tân Chánh Hiệp Quận 12 Thành phố Hồ Chí Minh,,Tân Chánh Hiệp,"Tân Chánh Hiệp, Quận 12, Hồ Chí Minh, Vietnam",ChIJFZyE1R0qdTERThdRCwdb2nQ,CmRbAAAAFt74SSEYdDcmbieGiKNBfQTxrgTW2UbCniSErinX5-R6AFaMeBRcZ2QAAAPArvus9ErtuxIL3tjfRUyUmFDqb82TcZqAXG18q-X0eHVCJX-qNVUpbL8ZSW9XLaA5vhJzEhDFajEcUpOdeq5mjm5ik-31GhQaM5TuGQdS92bPKqVPmyOCu4UTfQ,b592658fbe12cb255660bb39de8f5abd37a865c6,106.6261831,10.866797,106.6150619,10.8509172,106.6374956,10.8771604,"sublocality_level_1,sublocality,political",10.8640388,106.62627875,1903.8746509254377
Thành phố Hồ Chí Minh,79,Quận 12,761,Phường An Phú Đông,26779,Phường,,Phường An Phú Đông Quận 12 Thành phố Hồ Chí Minh,,An Phú Đông,"An Phú Đông, Quận 12, Hồ Chí Minh, Vietnam",ChIJ201U3EEodTERcCOrbt4DPJU,CmRbAAAAlkhnqMH9gB_OX6l7jdzZHx7UXWTUZYu_N6cV3ec9IIEWq6YRgGG0eGX4AO4qxtdgnAw3ujt2AMHsPi7pmkDMw1bLylhpvpvUy6VBkdRc3ANcrx5cnlEyY5UM0751Lw2CEhC2N38k-a6fnK8Z7N8Bx2G3GhRwCyyAjHLF8ZCKyfGNs4QpO64tPA,8723161b79e7b4136971910d6f9a7b61322a4efe,106.7057733,10.8596614,106.6804398,10.8299218,106.7182195,10.8713812,"sublocality_level_1,sublocality,political",10.8506515,106.69932965000001,3091.4470560041073
Thành phố Hồ Chí Minh,79,Quận 12,761,Phường Tân Thới Hiệp,26782,Phường,,Phường Tân Thới Hiệp Quận 12 Thành phố Hồ Chí Minh,,Tân Thới Hiệp,"Tân Thới Hiệp, Quận 12, Hồ Chí Minh, Vietnam",ChIJV8-Yn_IpdTERn8yGeLuyNSg,CmRbAAAAvcNmVqiXDaRO57XBU2lZTB3JH3HZI0VMTrjMTq9DljUWGIO5sqwFkQWD4VOQxmhA9zjRcdVZ4KE0KYNQRL0Gro9P8VOvjp84tGb_wMTLdD1wIcd0lGI0TKX7piMajnD4EhBBBZlhad7stLTuqyHlMvYEGhQ2Ko-mHonSxsNMX9tx4LVOqAM70w,6920a4e9ec871297db1d2b4d092c76f1a1f0c073,106.6379724,10.8606932,106.630673,10.849688,106.65085,10.8688209,"administrative_area_level_3,political",10.85925445,106.6407615,1530.4857032046145
Thành phố Hồ Chí Minh,79,Quận 12,761,Phường Trung Mỹ Tây,26785,Phường,,Phường Trung Mỹ Tây Quận 12 Thành phố Hồ Chí Minh,,Trung Mỹ Tây,"Trung Mỹ Tây, Quận 12, Hồ Chí Minh, Vietnam",ChIJFx_5SSMqdTERYGvse8YW0A8,CmRbAAAAEH9alJwIqaSCyCiZTR-oSuxrD5BSBUC3sEjuB8z6m7MiuyaKZOxBDzayVn_MzjpozXX3tkn_f91QqnLDj8Xc-k-k4k3adjI2jBPxkwfjr95Xm7jvQoJ0-U1OR9X58QL6EhBAOy5qgoFN68K7TNRplwoeGhSQ3Hvc-tjsjTgRfkf2umMZzsRgqQ,a583842ff9dbbffa2f51f72c02df499d34ab8609,106.6143944,10.856544,106.6072079,10.8426989,106.6284131,10.8674249,"sublocality_level_1,sublocality,political",10.855061899999999,106.6178105,1796.2315796270702
Thành phố Hồ Chí Minh,79,Quận 12,761,Phường Tân Hưng Thuận,26787,Phường,,Phường Tân Hưng Thuận Quận 12 Thành phố Hồ Chí Minh,,Tân Hưng Thuận,"Tân Hưng Thuận, Quận 12, Hồ Chí Minh, Vietnam",ChIJnwNhyiwqdTERZvDOkSaBeVM,CmRbAAAAXwcFb-Dtut66Ud0W0ZRXuFolIBLEtmvtSgf_XV8MC-Imc334IeR1DVVsk8f6Y0vQpTdAwCMfBGVc5bDPR1XaSKMkSThPyHtFKI0r2bs47WkUB050a4t0lH-XeC4bLMQuEhC8BA4mj7WJxcoQsBXN8ITrGhTvxjkV6Y1n0YPtbMum2TKPbJvikg,9867beb5e0323587aaf76c52492f86ff114f1236,106.6217623,10.8384209,106.6153596,10.8259375,106.6280061,10.8485535,"sublocality_level_1,sublocality,political",10.8372455,106.62168285,1433.653237605828
Thành phố Hồ Chí Minh,79,Quận 12,761,Phường Đông Hưng Thuận,26788,Phường,,Phường Đông Hưng Thuận Quận 12 Thành phố Hồ Chí Minh,,Đông Hưng Thuận,"Đông Hưng Thuận, Quận 12, Hồ Chí Minh, Vietnam",ChIJZaz3dyoqdTER5Y20xYOrhfk,CmRbAAAAmPrPKS_xfko0PL_d0_4BiCXHePdJuVoTQTIaRyBo9S225ioEUdp5Wf3Nxv7LjoTlTX9azd5SVjECL0h8tT82UxhZsL8LM8MwJIxK1bMZ-5NB0s4iYaNxw5TtV66exdrZEhCnUl4VSCyxk34L3Evl7nHnGhSQZkvB26UjIo5CIRcHJiYBmJpHDw,5450bb722d710b525a9bc366eaf1d14b3f9e4ffd,106.630604,10.8433839,106.623618,10.8246843,106.6429193,10.8566578,"sublocality_level_1,sublocality,political",10.840671050000001,106.63326864999999,2065.3178676258417
Thành phố Hồ Chí Minh,79,Quận 12,761,Phường Tân Thới Nhất,26791,Phường,,Phường Tân Thới Nhất Quận 12 Thành phố Hồ Chí Minh,,Tan Thoi Nhat,"Tan Thoi Nhat, District 12, Ho Chi Minh, Vietnam",ChIJKTLhQc4rdTERP-qxNi1P7uA,CmRbAAAAnxRxMOY2NWN9qMcAQc8QOvj0Y2nW1kHpCR8YVJKDpzj1Ygpobq6fpnuMqevrGQRjjZvP-ZKltTLpFi8BxjK8e992xQH7R2BDCiWa4mM2yqE20SBxHo3vV4Rv_5D_1AApEhAhA5wasC6g8uQuJm7ie7UtGhSKa3s69XDobohXdYUmKCkuyypTMw,a48bc25c087f31e499c331eaadb34cfca4e18d74,106.6143944,10.8292885,106.6032549,10.8185745,106.627939,10.8426988,"sublocality_level_1,sublocality,political",10.83063665,106.61559695,1900.366522684884
Thành phố Hồ Chí Minh,79,Quận Thủ Đức,762,Phường Linh Xuân,26794,Phường,,Phường Linh Xuân Quận Thủ Đức Thành phố Hồ Chí Minh,,Linh Xuân,"Linh Xuân, Thủ Đức, Hồ Chí Minh, Vietnam",ChIJLbfQd4fYdDERRsgyxFaPCkQ,CmRbAAAAUSu_IRzpypzG9xzsGZfU1nrPiwMbZuSacPLCLkQgCDuUp2ReRlMVZl-FrQ06C2Yiulqn9HQSC4J8GmdOWc8JbL715w1e-JmOtNLTTvr7PaHLYTYXrf5mLvz67uQvdf7PEhAfDuQxBL4wdLnxhdlyOOXAGhS4pbPH2X0-0Os-ZHeMGMETszKrZw,32e990fbaf59e05dceed0fc6c7d5db65832c2436,106.773595,10.8804079,106.7610834,10.8683882,106.7818737,10.8941779,"sublocality_level_1,sublocality,political",10.88128305,106.77147855000001,1827.6281746909353
Thành phố Hồ Chí Minh,79,Quận Thủ Đức,762,Phường Bình Chiểu,26797,Phường,,Phường Bình Chiểu Quận Thủ Đức Thành phố Hồ Chí Minh,,Bình Chiểu,"Bình Chiểu, Thủ Đức, Hồ Chí Minh, Vietnam",ChIJi9zE5ATYdDERHhIfYgOLnVU,CmRbAAAAlCZ2ZQ5MAqLsN90PveXe0xLBU1o9GjEvtO8n_hvrBU2xmQQE1AQWDMZUQNZ9OvD3Trnyp9lk-wah-NPAvt-lYaVYJn0mxw-2TBPEEsflBUmwoQTZZ4htRfXZoahomdM_EhChINsZq4OpjpokhoFRDtfBGhRs9SHQIu9jPWRnyAtln7iv5UuzUg,30c34e087aaf6eac5948cc7d3040cb16a153ece9,106.7264125,10.8830404,106.7123939,10.8702959,106.751172,10.896346,"sublocality_level_1,sublocality,political",10.88332095,106.73178295,2563.5995009333656
Thành phố Hồ Chí Minh,79,Quận Thủ Đức,762,Phường Linh Trung,26800,Phường,,Phường Linh Trung Quận Thủ Đức Thành phố Hồ Chí Minh,,Linh Trung,"Linh Trung, Thủ Đức, Hồ Chí Minh, Vietnam",ChIJYTNpFYLYdDERUX46gMGcAJU,CmRbAAAA-0SiDTVss3fzo4A97MfPwjJiDbDoHCBXT4501xkweyaYQp0cHAchMu2Nq12MG1LLdj-Y36XiW3QLFFb6cLJveYJMphdi6Qk_GIGZvC4BVxQ9_cQpUX7HT8qcQPBbnQHyEhA-gVfU1j_imAuaQraJVE8_GhRUas--HZIyOLupvMspQmf7hjFDOQ,44186d514b2d9a753f4ae808a8e296d75473a636,106.7794935,10.8637312,106.7601561,10.8491965,106.808319,10.8750216,"sublocality_level_1,sublocality,political",10.86210905,106.78423755,2994.3639387648755
Thành phố Hồ Chí Minh,79,Quận Thủ Đức,762,Phường Tam Bình,26803,Phường,,Phường Tam Bình Quận Thủ Đức Thành phố Hồ Chí Minh,,Tam Bình,"Tam Bình, Thủ Đức, Hồ Chí Minh, Vietnam",ChIJRx0kY_AndTER-WzI9Gai22c,CmRbAAAAseRoejQnuayoY1-tvVjps65KUQWzI26r0pW7wYVwPOzMEA8F74liN-qq7noQpCHxbpZPaka6e8BxIlKcIqPuqZOqcayItJVjjrWIu6KH8yrFf7Qy79oxyf63sSB2M__qEhDGKz414yBfq1j3Z-UzSeMaGhScCnnwcvCmHhJDl6LvyrNG9Yi9Dg,1f603ddcc67820b521b87b91085ff73734a883c5,106.7337841,10.8676413,106.7244738,10.8582302,106.7477553,10.8736278,"sublocality_level_1,sublocality,political",10.865929,106.73611455,1531.6189173587586
Thành phố Hồ Chí Minh,79,Quận Thủ Đức,762,Phường Tam Phú,26806,Phường,,Phường Tam Phú Quận Thủ Đức Thành phố Hồ Chí Minh,,Tam Phú,"Tam Phú, Thủ Đức, Hồ Chí Minh, Vietnam",ChIJzSk5k4wndTEREYm8nWO_K6Y,CmRbAAAAotWB1M94LVKcNshH2h97fqS3nKEdRxFr3nBJfWUxl7tk-usMKdMKIlReJwslLk0WXJFknlv59PsqdwT1xhuoSnDPayAqbR6-tnWwNDiGYw4e64Tsp7S3pk443uffdCpNEhCfGUadEGipJSy84XcScd7DGhTgHD6JppV3K7k9oF1JLv08WZOukQ,8c8cff529556f04c84cf054cdb003e971474001a,106.7382072,10.8551341,106.7302565,10.8452228,106.7517422,10.8694051,"sublocality_level_1,sublocality,political",10.85731395,106.74099935,1783.2531466664207
Thành phố Hồ Chí Minh,79,Quận Thủ Đức,762,Phường Hiệp Bình Phước,26809,Phường,,Phường Hiệp Bình Phước Quận Thủ Đức Thành phố Hồ Chí Minh,,Hiệp Bình Phước,"Hiệp Bình Phước, Thủ Đức, Hồ Chí Minh, Vietnam",ChIJmeaePG4odTERGloi1hKaIh8,CmRbAAAAcXiSrDXKhe4dD92r6ZewvHt_PROwhKu5UX_780v1IvCHgixYgYtCQhWwV9w-SkASwyuHos9qn72zhCBOsvLUXnrQnDUDrxcBLfxXY1brSOsw2XDpBSOBdhvCwXU_bTqLEhBfdL0DHC-c7Oy_2lcr_2y0GhSA70k8VS5I-7G5gkMZctKjZog8Ow,f4c239d94e1a841b8efa4005e592265249d2bc0a,106.7146184,10.8455467,106.6988185,10.8342807,106.7299347,10.8728215,"sublocality_level_1,sublocality,political",10.8535511,106.71437660000001,2732.9445413336275
Thành phố Hồ Chí Minh,79,Quận Thủ Đức,762,Phường Hiệp Bình Chánh,26812,Phường,,Phường Hiệp Bình Chánh Quận Thủ Đức Thành phố Hồ Chí Minh,,Hiệp Bình Chánh,"Hiệp Bình Chánh, Thủ Đức, Hồ Chí Minh, Vietnam",ChIJ6UInsyomdTERphYSbkxdgLM,CmRbAAAAGsJ8EBTqivAaSLfgynJ-NWW-pqmDL2OAQ_47u_E70kLNaRIyNngenX2KckuV2OpORC0llm0wXVQa_OEF7d9Q0y-xhVPCT-P46mX-qtt90LxooFwU5oo1KuOYkM9r-VrSEhAIy5TtKyOR0Hgu5QWYuf9EGhRvVqCwWiLbXsMVb76JmSkoD4tNfw,e3326699e2fdb317a36a1e6fe549830d7e5f39e3,106.7264125,10.8339953,106.7081451,10.8201969,106.7395593,10.8582618,"sublocality_level_1,sublocality,political",10.83922935,106.7238522,2722.5368264560047
Thành phố Hồ Chí Minh,79,Quận Thủ Đức,762,Phường Linh Chiểu,26815,Phường,,Phường Linh Chiểu Quận Thủ Đức Thành phố Hồ Chí Minh,,Linh Chiểu,"Linh Chiểu, Thủ Đức, Hồ Chí Minh, Vietnam",ChIJnS1OSpkndTERfC7O5d8lCqE,CmRbAAAAOi8Frq6-1uXi8lGaQOfud5kwL3e2LBR5Z8tLEa0qRXYsPsiWNucohYfHUyNSV3Wn8PcXtUG9E24i54L9NnLrVf8z2mIGDSalDIOOH2dCLk5J63n3YE_EmTuCsABVYXC0EhAWXn2b4RLjWQN7VHHqUkLbGhSChicrWHdgbRxDtE4wgNGoNPh7vQ,26eac424ccc2dc53fa682819e8abfe1ec0d7e545,106.7617984,10.8538209,106.7556838,10.8493121,106.7743524,10.8608828,"sublocality_level_1,sublocality,political",10.85509745,106.76501809999999,1204.6233016123488
Thành phố Hồ Chí Minh,79,Quận Thủ Đức,762,Phường Linh Tây,26818,Phường,,Phường Linh Tây Quận Thủ Đức Thành phố Hồ Chí Minh,,Linh Tây,"Linh Tây, Thủ Đức, Hồ Chí Minh, Vietnam",ChIJgTfm-ZAndTERwdgL3gUCU5s,CmRbAAAAiYeDc8nDcceQ855QQWJc8VNXYqZGkEw5u6puT45KTJrBQXepe3KVLN3ect8wjdMLelK5rBMJzuFqfPHgJl_D-7aGmdK56I2dmxCUsprxhGlR3uCFy87wMPLntJfmsUgiEhCauHoNkebuZ0aAnBzdeNEpGhRLKS4WRLR2cFbq8SZXAyA2Id1zyw,f99fcf3e61147e5742024339ea2f6444688152d8,106.7535475,10.8560516,106.7497798,10.8486756,106.7586637,10.8624501,"sublocality_level_1,sublocality,political",10.85556285,106.75422175,905.9642972931825
Thành phố Hồ Chí Minh,79,Quận Thủ Đức,762,Phường Linh Đông,26821,Phường,,Phường Linh Đông Quận Thủ Đức Thành phố Hồ Chí Minh,,Linh Đông,"Linh Đông, Thủ Đức, Hồ Chí Minh, Vietnam",ChIJQSzfsMAndTERWLIIlET612Y,CmRbAAAArRAtF3LPI24npsOq79971v1_6A5AoCTlLcKLFCxQso8D-Q9DVeiFYRnVJgTTwoerOCi1NiMuwmcKVQTUT26jMj3kgMG43NH2TtSUlW3TL16rpCawklW8SGXAbircfuRuEhAkN_q0wrtWHVOmQNfcgHTsGhQfgfYVgXzu8gnINY3yhd2QU-2tgA,0d4405d45e0f4a430935163e311aa5e4fba4be15,106.7441048,10.843909,106.7385631,10.8338212,106.7534463,10.8601989,"sublocality_level_1,sublocality,political",10.84701005,106.74600469999999,1675.611847274225
Thành phố Hồ Chí Minh,79,Quận Thủ Đức,762,Phường Bình Thọ,26824,Phường,,Phường Bình Thọ Quận Thủ Đức Thành phố Hồ Chí Minh,,Bình Thọ,"Bình Thọ, Thủ Đức, Hồ Chí Minh, Vietnam",ChIJyww3x6YndTERTvmhFMwCfX8,CmRbAAAAoFq5qXQ3lubOyX6xbdG_x9r3xfH7MlXFEyeedZ_3OfK5nzG4DPgafgfsNXcGqCvxij0T21Z8EZvfqE07AG4M1MLEEHw-cpHBkI8KMXNQGEwLHgYJixZAeEotjSXPr2ipEhD54Y2nToGR0Mr3pcE9kCFwGhSC6_Xh93iiGn5uSP81s8Z3ob5M1w,d160d20edf532ff0dd7cc5c63bf48d8e7d8d9446,106.7662221,10.8467644,106.7586114,10.8378956,106.7739679,10.8506556,"sublocality_level_1,sublocality,political",10.8442756,106.76628965,1097.6905863184586
Thành phố Hồ Chí Minh,79,Quận Thủ Đức,762,Phường Trường Thọ,26827,Phường,,Phường Trường Thọ Quận Thủ Đức Thành phố Hồ Chí Minh,,Trường Thọ,"Trường Thọ, Thủ Đức, Hồ Chí Minh, Vietnam",ChIJoWIo9rIndTEREVe6Vi3nY7c,CmRbAAAAmxDonf7UE-NN26TWsOzrrun3jorTTDJLBBxbF5k_XoajDKjPjv4iAdt8eQOwmiBcvq_vsj44sliCpjLXq6VoVjFYw9DS8Th0o3wfsOLrunLKNRNJHPXxewbzGEolzTAREhBhvd0B-o3kSzE6omjoxRZvGhT1VMrnn3oLj_ep1l-N_JBUu2WxKA,3586966178873319e9fdbc7708220450184ff66f,106.7559004,10.832358,106.7465424,10.8132883,106.7671375,10.8512452,"sublocality_level_1,sublocality,political",10.832266749999999,106.75683995,2389.790278347374
Thành phố Hồ Chí Minh,79,Quận 9,763,Phường Long Bình,26830,Phường,,Phường Long Bình Quận 9 Thành phố Hồ Chí Minh,,Long Bình,"Long Bình, Quận 9, Hồ Chí Minh, Vietnam",ChIJiTsjZqYgdTERB5h_A8XCjWc,CmRbAAAADOwNG5wET419Wb-0_IpCvk9jN1eSDC91By0O1slxEcPLHsnLWCmwzT2BYIEL4oQxiKrYMauLjlkIoTOd8AdtiMkIoKB_lBI9rJivTV-lGkRpu94rUpAhZ6VZ81hf7rjBEhCtkNjEGg5bjjUrJfWIhFGhGhQvVA2errjaqfj4y_q59iVXo7wESg,d4a4dd14dfadfa283fa3ef89e051194616e41cce,106.8283134,10.8909381,106.8140078,10.8306925,106.858306,10.8984635,"sublocality_level_1,sublocality,political",10.864578,106.83615689999999,4474.678749248623
Thành phố Hồ Chí Minh,79,Quận 9,763,Phường Long Thạnh Mỹ,26833,Phường,,Phường Long Thạnh Mỹ Quận 9 Thành phố Hồ Chí Minh,,Long Thạnh Mỹ,"Long Thạnh Mỹ, Quận 9, Hồ Chí Minh, Vietnam",ChIJz8GxfLUgdTER8DF8kWOQMP8,CmRbAAAAAQV4xPFRoLYCrtMtpmE4xFnekQzZgRYXhh6vJ1C51j3-_eglIDe6uKQ_L-fRr8I1T_jiVxSEs2VDgzVgsHefrbYNrKwmQTEoBLMdRdJFWLB2zrJnSStfgJWufznWXMnlEhBlmcsl5mTLBdU51vvHn0O-GhQvy5vJOFZsEZVUlopxRedfF2SUcQ,27426ba1b8f5ec094ffd27ee278570cca26c1dfb,106.8237374,10.8421949,106.8008673,10.8254529,106.8389809,10.8707412,"sublocality_level_1,sublocality,political",10.84809705,106.8199241,3264.662098753072
Thành phố Hồ Chí Minh,79,Quận 9,763,Phường Tân Phú,26836,Phường,,Phường Tân Phú Quận 9 Thành phố Hồ Chí Minh,,Tân Phú,"Tân Phú, Quận 9, Hồ Chí Minh, Vietnam",ChIJI56kVVsndTERzqYDx6XvkHw,CmRbAAAAD36pu8x9yLXFpQH38E_ZPHyjBZoRnTiLuK5ASs0Ozu1C_3BBP6Nga6liBivB6PAML9Blgy1keL4SUriecJA-nyT5kHNlQyEUSYbXGZh3tdgv7-JxNJA9QfsRveUavemtEhBjNBgmoxBe-OQCdz7i41mOGhQbetONAjWl8glHDks1cbF8dxENpw,4d257c621d0814646fbddc08374bbc274de00966,106.8030892,10.8569656,106.7864609,10.8481985,106.8138179,10.8718757,"sublocality_level_1,sublocality,political",10.8600371,106.8001394,1989.788614629405
Thành phố Hồ Chí Minh,79,Quận 9,763,Phường Hiệp Phú,26839,Phường,,Phường Hiệp Phú Quận 9 Thành phố Hồ Chí Minh,,Hiep Phu,"Hiep Phu, District 9, Ho Chi Minh, Vietnam",ChIJJ27-Dw0ndTERKeWm0v4K730,CmRbAAAAOMxacZn47gtpnqtfw4aGzseigPIZEuHqjRf76nelVbgrofIIUdRdio5xVaO5_DzKLbCqje98_Wc4FmlTbIq30ahKfs7XnPnDZ8rWg7IFZVzzJyjYWBUvbH25akAyLtPSEhA7J95wTjXOU9ZF-mWIMGZ6GhQQdWHVAXhqNlUoB2E6jL-BfVp3eg,8e6ac92a166d1a06a2db1d9a5c790e00591268fb,106.7809682,10.8486667,106.7685779,10.8387263,106.7917781,10.8572629,"sublocality_level_1,sublocality,political",10.8479946,106.780178,1632.0697873365439
Thành phố Hồ Chí Minh,79,Quận 9,763,Phường Tăng Nhơn Phú A,26842,Phường,,Phường Tăng Nhơn Phú A Quận 9 Thành phố Hồ Chí Minh,,Tăng Nhơn Phú A,"Tăng Nhơn Phú A, Quận 9, Hồ Chí Minh, Vietnam",ChIJCR3J3D0ndTER4obeLgMFhC8,CmRbAAAA5ffG5jklQimht8M003CR8wlZGozy-nx-sK_AlhWJM8Di9i2hj-KQNkQAjCYWv-b0kb0ZmoR7-RAULFesz5bxiKHdl_I5v29LjxYtcI9PA-CYQp07SNR8Ou_WsK4buNNmEhCiTWq2xi7dMO96is9yB6I4GhRq5hii8Pd3sOJaGpuRiU7GpcN9QQ,d0ff7b57b451450eaf5297b7119b2685b62fe8f2,106.79719,10.8409534,106.7857428,10.8321046,106.805984,10.854055,"sublocality_level_1,sublocality,political",10.8430798,106.7958634,1645.4789146406292
Thành phố Hồ Chí Minh,79,Quận 9,763,Phường Tăng Nhơn Phú B,26845,Phường,,Phường Tăng Nhơn Phú B Quận 9 Thành phố Hồ Chí Minh,,Tăng Nhơn Phú B,"Tăng Nhơn Phú B, Quận 9, Hồ Chí Minh, Vietnam",ChIJuckznR4ndTER5_FzfqWYxY4,CmRbAAAAcJP35Sp-EXJYE060aD9ACnUBD2IJY0XlNdn8_IlVCuvXThKDnywgGaiWPNh7urri2h59dVF7-SgJdgYXi1xkLfaV93dOhqHi1jOV_RikVtJYuYMUmX-Nmb2FJEtL2G5hEhDM7GBWZXXQc0QEDuO_jMMyGhTae9dca4QOr9ipiDYNznRhIai2ew,5c633ecdb742e657e613e83536e651c442a33dbd,106.7853922,10.8307175,106.7724679,10.817798,106.8044649,10.8446889,"administrative_area_level_3,political",10.831243449999999,106.7884664,2298.1813558791755
Thành phố Hồ Chí Minh,79,Quận 9,763,Phường Phước Long B,26848,Phường,,Phường Phước Long B Quận 9 Thành phố Hồ Chí Minh,,Phước Long B,"Phước Long B, Quận 9, Hồ Chí Minh, Vietnam",ChIJf3huf_AmdTERYgZGPDxNMSg,CmRbAAAAgEly-u0FLNujEVRWvBQwkLPqQOA5Tk3IYg7YXyDLkIvaXAgGwb82o_i6Do1wz2Emps8M9Qo87cfFF7pL1QcPPCMieAr2cZhdPiUHcTHoA9_r14WUikU-qdnk0JC8ysoZEhCVncd244qzMU789-jkckBwGhS31p0SxroC7TZVQNMuJU4j_mo-8A,a78d9a466904d2d559dcae904e48f6c6456fd534,106.7794935,10.8147076,106.7659272,10.7944148,106.7934143,10.8402398,"sublocality_level_1,sublocality,political",10.8173273,106.77967075,2955.235709747086
Thành phố Hồ Chí Minh,79,Quận 9,763,Phường Phước Long A,26851,Phường,,Phường Phước Long A Quận 9 Thành phố Hồ Chí Minh,,Phước Long A,"Phước Long A, Quận 9, Hồ Chí Minh, Vietnam",ChIJS6Qb6FMmdTER-PlxjhXh9KA,CmRbAAAA6y7gEWSB7IxS2DvvOFzch22pI_CNHTQcvWJaQQpYLrkOKWxiK2y7etk65xjbI0WOF_dBaUKbBINxB8n8evm-ntE3ei8E2SbtNMzNk6dA6RdWvVIbwlTFjv8SjA6B5bPlEhBBpLCF4y4Fm8AsjR2aNUEJGhRiE5u7dqxHxMv2ZJiD2AxoILxrKw,ebebbce6eba9187b80e60dcea2c01501c1cfd52a,106.7617984,10.8211367,106.7555599,10.8129,106.7710479,10.8361239,"administrative_area_level_3,political",10.824511950000002,106.7633039,1542.5753660104199
Thành phố Hồ Chí Minh,79,Quận 9,763,Phường Trường Thạnh,26854,Phường,,Phường Trường Thạnh Quận 9 Thành phố Hồ Chí Minh,,Trường Thạnh,"Trường Thạnh, Quận 9, Hồ Chí Minh, Vietnam",ChIJe7TJmjchdTER1A35qNTEEmw,CmRbAAAAx0J7J7Ox8F2w9AsSOtGpqKcgt_UJBHnuKXu9KtECNjhYYlZuKpBl76vteB0w-qn748_7ei-PpxGeOAwfOjG9d_YwASFlfZQ-NDIGSei_JcqrRwE7oP_BBsR1hU20vXIAEhAgaO4dNxomdF6zP0UPlZAAGhRTogzH43DgbfTp1BDZt2bX95Weuw,d183d625482409209551a45fedf3877369d0fa31,106.8325872,10.8117526,106.8062942,10.7812326,106.8513378,10.830716,"sublocality_level_1,sublocality,political",10.805974299999999,106.82881599999999,3688.272879354445
Thành phố Hồ Chí Minh,79,Quận 9,763,Phường Long Phước,26857,Phường,,Phường Long Phước Quận 9 Thành phố Hồ Chí Minh,,phường Long Phước,"phường Long Phước, Quận 9, Hồ Chí Minh, Vietnam",ChIJ0SoK7QwhdTERXeAQGsRw_Sw,CmRbAAAA4CTlWjz7bFWCGUXuD6gzW3FldtVVwyalHzHJ1tb1zDAm0Pp2525YeP3YcSNkSd2T0a6k0eqdzzOKj_sqRyWpBb8SQjYAYVEwDfCYwaZRaVvGJN80Cf2GtU8Aj-oirU_rEhBOYOMjJM6GpV--nrNHf6NBGhRwCR69FvRI1dRmEug5upA0-pV2ZQ,032c871f07a0d40b7e18658fda1a8024dc2f1a90,106.8591387,10.8075496,106.8331374,10.7653619,106.8819235,10.843047,"sublocality_level_1,sublocality,political",10.80420445,106.85753045,5071.653832476178
Thành phố Hồ Chí Minh,79,Quận 9,763,Phường Long Trường,26860,Phường,,Phường Long Trường Quận 9 Thành phố Hồ Chí Minh,,Long Trường,"Long Trường, Quận 9, Hồ Chí Minh, Vietnam",ChIJTRvRiE0hdTERtIxnUigpf6w,CmRbAAAAZFREyYBOQHr8h8FB3Vm_nfw4IGXXo9NVV1W5mCwgnEQKwZwHIg7Nv1XusFpWoRhOI_KIkUlcfGwNgIMK9r8-d8G_kGe_GbsBUViYflZ95xW4nmTu9iaJ3K4lNeTo5Gq3EhA98BLhGbZGo5vDAy9ff-hmGhRiLeLPSWR8xYSOo_FD09B_KSjzbQ,3ae686a50fb30047fa67cfb72d2f1fc53dbff4bc,106.8237374,10.7986358,106.7993209,10.7600643,106.8439502,10.8271817,"sublocality_level_1,sublocality,political",10.793623,106.82163555,4454.329639326488
Thành phố Hồ Chí Minh,79,Quận 9,763,Phường Phước Bình,26863,Phường,,Phường Phước Bình Quận 9 Thành phố Hồ Chí Minh,,Phước Bình,"Phước Bình, Quận 9, Hồ Chí Minh, Vietnam",ChIJZRWJK_YmdTERpfIqsCtwOEg,CmRbAAAAtYlRbiJJe8ACz02oIOVjiBv54VOQF5AT5g7OyozFbNhNrKCoUuG220FA3pv2n6Gt1DPHwMnzvXw7oDzKZV-X546pjGkJFQNJIP-3b_Iyb069_YCYjz9fketp2eNit-R_EhA_7xz1aNkyrpdLjjLVvTnUGhRqWfGqgQ7A9C4vlCjzcBTgcJTC9w,7f9c58927c6719d471f612fb6966ca54ceae263c,106.7721204,10.8137558,106.7656656,10.8076972,106.7762414,10.8221541,"sublocality_level_1,sublocality,political",10.81492565,106.7709535,989.1293207668092
Thành phố Hồ Chí Minh,79,Quận 9,763,Phường Phú Hữu,26866,Phường,,Phường Phú Hữu Quận 9 Thành phố Hồ Chí Minh,,Phú Hữu,"Phú Hữu, Quận 9, Hồ Chí Minh, Vietnam",ChIJC1vf3bomdTERkasxdvP6GQs,CmRbAAAAItkY43FTVpdA9t4dIXO7CdtUPVDFjBO4lfbnK7-nnjHVCxwD9L8fMpRMzWfGOTsS-hIpRHxXmc3UmmggD-3y3_xuWuyxRUVnQ2Mhg80haMHtuoUU3L1OyLHATJXSqTTbEhALRaMZM9S2mBqtO0VTlpUoGhRfS-MnSHXZhJKfC2gdtz1PcMBqhQ,15e1fae2288e6b0acf157cb544cd42ac92c66ac2,106.8001396,10.7890603,106.7810307,10.7691039,106.8258574,10.8213204,"sublocality_level_1,sublocality,political",10.79521215,106.80344405,3795.2404132495235
Thành phố Hồ Chí Minh,79,Quận Gò Vấp,764,Phường 15,26869,Phường,,Phường 15 Quận Gò Vấp Thành phố Hồ Chí Minh,,phường 15,"phường 15, Gò Vấp, Hồ Chí Minh, Vietnam",ChIJnRtWJLQpdTERn-4iHQlY41M,CmRbAAAAwTJ3geDK_jl6dfVFkB6wTWDjlWXnKp7EzaJpWFYF1qdIOJvsXTNiZOPmQ0wvFwWt95C_zW9ssZuVoyekDrF6rXMKm2cpit7waUPJXmFhF8-i-T22xJ0woE7CWvLCIIzkEhBTx7Sqe5HDDzyERfLyuh5JGhR9b-gJhBhtaMCNbcRfDliK-eKIAQ,5e3babc08e8c8c795e2a5e59a336cbfb5de5261a,106.6678466,10.8514643,106.661861,10.8443773,106.6769357,10.8607,"sublocality_level_1,sublocality,political",10.85253865,106.66939835,1224.4293105176766
Thành phố Hồ Chí Minh,79,Quận Gò Vấp,764,Phường 13,26872,Phường,,Phường 13 Quận Gò Vấp Thành phố Hồ Chí Minh,,Phường 13,"Phường 13, Gò Vấp, Hồ Chí Minh, Vietnam",ChIJ2coDN78pdTERC7gM08NCB4o,CmRbAAAAqwdP2EKfQHh2296SdsbQ3kNCAPFV0xDR2YdlHUbXMYb8Fn0Ur4iDg2lCsRVxOBjdCcRZskjYXUQafuYsL7vgFIj1J0PTyDrdlWYtCNI2fIxbq3d0QvUboOnAjTt9QfNSEhCvNFIGw-EP8XkWYDoaRDXlGhTXOsRSyz67r5l73oJYBVbMdBQF8w,24a6bdcf729034ff469da99d55ec426a868e7a63,106.6584938,10.8551871,106.6500505,10.8513419,106.6660637,10.8607836,"sublocality_level_1,sublocality,political",10.85606275,106.65805710000001,1019.1998690740452
Thành phố Hồ Chí Minh,79,Quận Gò Vấp,764,Phường 17,26875,Phường,,Phường 17 Quận Gò Vấp Thành phố Hồ Chí Minh,,Phường 17,"Phường 17, Gò Vấp, Hồ Chí Minh, Vietnam",ChIJM3eKpFModTERoUfK4QHefm8,CmRbAAAAjRyJcpNSUg0PzFx60ccc2yxtDVr_b1iNoc-Wy8m4Q2l10nVZLrGe8594-m9DP5l94sqTPtt2wT5fY0hLXjGvvJnoajZjZsO-oZvcb4q9EVx-Z_tlBwZLKe0zH4CiT5OJEhDX_B3hHyoXTVBGIxToXlpAGhQCHRypawIbQquWzhryTXTt6nh-cQ,f69f030c82c190e5848f9e6101d0302fb661b8bc,106.6748181,10.8409406,106.6705641,10.8341519,106.6839208,10.8519552,"sublocality_level_1,sublocality,political",10.84305355,106.67724245,1228.7375385510543
Thành phố Hồ Chí Minh,79,Quận Gò Vấp,764,Phường 6,26876,Phường,,Phường 6 Quận Gò Vấp Thành phố Hồ Chí Minh,,phường 6,"phường 6, Gò Vấp, Hồ Chí Minh, Vietnam",ChIJYZO7j1EodTERveMASbWPmaA,CmRbAAAAWNwIK7cWE5x8Ovd08Hxz8uSOgueSTIylo-XhmywFtsmk4_FW2kUxYA6cw3avW8abUSTU17CmwNGAbfRkdQ26B8I-3kuLxM8JlbRfy5d7MhJBfCSN7L_2qY6ygujUysH0EhDCXMOgh6YV-jaVdJleqRyiGhSPyzz5MZjBqmvtFc0eGp0oNlBcFQ,35402315daee87fe099f6b914709e973c29d1d3c,106.6816998,10.8384391,106.6766453,10.8321186,106.6891415,10.8518124,"sublocality_level_1,sublocality,political",10.8419655,106.68289340000001,1289.339479896492
Thành phố Hồ Chí Minh,79,Quận Gò Vấp,764,Phường 16,26878,Phường,,Phường 16 Quận Gò Vấp Thành phố Hồ Chí Minh,,phường 16,"phường 16, Gò Vấp, Hồ Chí Minh, Vietnam",ChIJI1Us_q8pdTERK9WgQAZH9wM,CmRbAAAAaNO87KHrNpDgfNcuhnZjT8Bc9LNrPc3LXgTRyVPcKHBAKKlAg8wqhQh93WevbKlOqG5iEVxaGQBZGoI5ku0FiOy1R7AzKiwXalIzLznCWLuFOtNPkm8rRtKjARzwn5x0EhDaxSIyVo8LGk3kNWYjY5SbGhRFZaVo6MMRxugVb7lvw543PGdgWw,b778d2c3f7749a4b52539ff6d237b2e1090ed731,106.6650311,10.846657,106.6561053,10.8387443,106.6733151,10.8524806,"sublocality_level_1,sublocality,political",10.84561245,106.6647102,1210.17166843717
Thành phố Hồ Chí Minh,79,Quận Gò Vấp,764,Phường 12,26881,Phường,,Phường 12 Quận Gò Vấp Thành phố Hồ Chí Minh,,phường 12,"phường 12, Gò Vấp, Hồ Chí Minh, Vietnam",ChIJN6Xng5spdTERONvEnlnAOIQ,CmRbAAAARrXGwvinleeuOfL4I7I_xsFTd4AWqWrJhiOyIoRJ6xUn_i2uYCEHcARE5oVgcpC4oVFYSvr8sonH3qjlZfzxtcyARNZFIkEyCRNdm4xUO1m8ywR4QEco2R7UWpsa2da0EhAa8zLfejZTihSKNDvBWXI_GhQ_X_bCFGPAlJYumo1jnmYlItzkZA,69970b0c83f3f61853054f76c30acd6b62a44b55,106.6394461,10.8347203,106.6339339,10.8233335,106.6471195,10.8442229,"sublocality_level_1,sublocality,political",10.833778200000001,106.64052670000001,1365.630676859706
Thành phố Hồ Chí Minh,79,Quận Gò Vấp,764,Phường 14,26882,Phường,,Phường 14 Quận Gò Vấp Thành phố Hồ Chí Minh,,phường 14,"phường 14, Gò Vấp, Hồ Chí Minh, Vietnam",ChIJ9TtHYpopdTERN8qV1NmyPgI,CmRbAAAAsdUD304hWvvAdszzOA2V4-ye7kyR5hnadIrgaYowG1q4EDq_Z3eK2g0qWr899KKkAZLu7POFPCWHtr6gb4lF7BrhS-eR5D2jiRVjn_Q-XgXPY5dHnFLrHQDiDxy4qDmrEhAPeXPjr57ZqXGO0O2yc0-AGhQU1Srtup3h_K73LJtwBfMmzwOJLg,ca0d50797f92d7fc3c3116cbe0af7bc63c4821b1,106.6367,10.8423134,106.6319704,10.8323365,106.6560031,10.8592695,"sublocality_level_1,sublocality,political",10.845803,106.64398675000001,1989.8319261090844
Thành phố Hồ Chí Minh,79,Quận Gò Vấp,764,Phường 10,26884,Phường,,Phường 10 Quận Gò Vấp Thành phố Hồ Chí Minh,,phường 10,"phường 10, Gò Vấp, Hồ Chí Minh, Vietnam",ChIJtVBewgApdTERUt6clN0hB8w,CmRbAAAA3g9MIZOhgtaDW-TxQ0n7Mv-7CbAFf9qwqrqveXsuAfs0nCsLR6g8BiVfXCCvzzLjVJhH9nw3KmTY57H6BhphwKRq2DTPSSkFSMqvYmGYmGIapjcgyBldJPxj2DYQ9-YsEhA5sg-26gr1LCXq9tbscqqOGhSqZMXxJ3vMeWx0jL4tDKQXgxPGyg,6e2a2899c16898d90a7774a8a95e7814057610ae,106.6718702,10.8329295,106.6635531,10.8261863,106.680012,10.8387633,"sublocality_level_1,sublocality,political",10.8324748,106.67178255,1138.0340029354227
Thành phố Hồ Chí Minh,79,Quận Gò Vấp,764,Phường 05,26887,Phường,,Phường 05 Quận Gò Vấp Thành phố Hồ Chí Minh,,UBND phường 5,"288 Đường Nguyễn Thái Sơn, phường 5, Gò Vấp, Hồ Chí Minh, Vietnam",ChIJa5yMgfoodTER1qFizMxHm3s,CmRRAAAACWO70vS4lC4BGmGIvOSLeSMigcm-gG7owlwnyeLZgs8fZP8uZ5ceTsT8JiH1ElQ_9-dAGq8FOwVCxWeCQvNl_PxSNKRxoeTPtcWnDUNBNFv9TE5HA2cmVD9TN5VMlAudEhBOfWx58s4ShUoG0r3PMv-9GhQPJdpCEbX19U6GT0hYQKfCkRaPCA,2323a5cd216092a32b454ad8e8e80d41b074de60,106.6879459,10.8249318,106.6865481197085,10.8236660197085,106.6892460802915,10.8263639802915,"local_government_office,point_of_interest,establishment",10.825015,106.6878971,210.1209941739836
Thành phố Hồ Chí Minh,79,Quận Gò Vấp,764,Phường 07,26890,Phường,,Phường 07 Quận Gò Vấp Thành phố Hồ Chí Minh,,Phường 7,"Phường 7, Gò Vấp, Hồ Chí Minh, Vietnam",ChIJmd1tZfkodTERJQaGvvpXOno,CmRbAAAAIo15NBwEkDvzEGc0LdABLZyWN2cDybUUPhYqUlfEiZu9_7R8YXa4zFsewq7WvkgaXyZJJPf6lnPYmUkdyStaAzLwVJ3ljsjQoVF9mb5X5HFM_DP7rHkPN67ZCAc-AW8bEhBzXPT7ROeoVCoTE5RYVWHGGhT1RRio2lQtKia1ofr2mIWHDn9q1Q,9ffbedd93151e8b4b1fc544879c6be262af26eba,106.683662,10.829553,106.6759533,10.8230412,106.6905739,10.8341571,"sublocality_level_1,sublocality,political",10.82859915,106.6832636,1009.013762082808
Thành phố Hồ Chí Minh,79,Quận Gò Vấp,764,Phường 04,26893,Phường,,Phường 04 Quận Gò Vấp Thành phố Hồ Chí Minh,,Điện Nước Nam Sài Gòn,"04, Đường Số 5, Phường 5, Quận Gò Vấp, Thành Phố Hồ Chí Minh, Hồ Chí Minh, Vietnam",ChIJFdqjSfIodTERo-_ZcQuspJk,CmRSAAAAH0AOg2iz5QHYWOXcuiQRB6h7t3PUkEBbw622HQ90tfTLM3EEjVpB2j1jeBZ1GvnDYRzhTFzjH21dl8qawsyIt--g5PYgGHY_iqWxSyK2STObjtCUzsYFyea8S5SM5HT8EhDbXx86fPJ80Jr9GkR7mJbSGhQ93cv3qQQdYHoH8ocEnYUoqwAB0g,164db6c9cbc08ea7c48a4ff9cab050ade2ade416,106.6956139,10.8243663,106.6942649197085,10.8230173197085,106.6969628802915,10.8257152802915,"store,point_of_interest,establishment",10.824366300000001,106.6956139,210.12121751613708
Thành phố Hồ Chí Minh,79,Quận Gò Vấp,764,Phường 01,26896,Phường,,Phường 01 Quận Gò Vấp Thành phố Hồ Chí Minh,,UBND phường 1,"489 Lê Quang Định, phường 1, Gò Vấp, Hồ Chí Minh, Vietnam",ChIJ81pPTe8odTERdcj4nMUXsa8,CmRSAAAA2B4EWa1Z5rFkdLojgjU2ac8u4TjRzqYIu_wSum1YeV4CF-ryxPbEVQAH0KvwC41IYKjlRWRgEU068ff5sRED1Lr2_b6F_KLQEBpxP07b27trvWoDv7ovNUWoIDl2CLfmEhBU9zjuI4xrIZlt2oCUx9PKGhRGYZ6ab_xsgxfkOTe8-ZudEMeaZg,ad183e20a2c0fc832bf95cca7ef33bcd1fbd7d4e,106.6888638,10.8173588,106.6875484197085,10.8159911197085,106.6902463802915,10.8186890802915,"point_of_interest,establishment",10.8173401,106.6888974,210.12363574574064
Thành phố Hồ Chí Minh,79,Quận Gò Vấp,764,Phường 9,26897,Phường,,Phường 9 Quận Gò Vấp Thành phố Hồ Chí Minh,,Phường 9,"Phường 9, Gò Vấp, Hồ Chí Minh, Vietnam",ChIJ49telpcpdTERQKrgaDul7kk,CmRbAAAAu1wg1pMxmB5JOOXB60LGnP0fqv5eMZ3kSLhdbmYn5DD8Eh_XE-CV-9YrVS42dBCxVkJM88UNxWCvWfx5hFz1qy_MgOMgRhjoZSOQxpcpVWglV8_f7y-KNtKiGshxSX4bEhD7FQYxjwUqAg1634zRbNmkGhQSPeBnOv9G0acNANGyAkjQ_6eO4A,b703192b2161cb67f655dc1c90f0ced3655caad2,106.6541837,10.8475319,106.6444159,10.8425559,106.6580386,10.851388,"sublocality_level_1,sublocality,political",10.84697195,106.65122725,890.7606703173508
Thành phố Hồ Chí Minh,79,Quận Gò Vấp,764,Phường 8,26898,Phường,,Phường 8 Quận Gò Vấp Thành phố Hồ Chí Minh,,phường 8,"phường 8, Gò Vấp, Hồ Chí Minh, Vietnam",ChIJTacM054pdTERuBbp7h6eRsU,CmRbAAAARpTO-iz4WS5q0UMkwv4SEiMNQ7dQ7kd1ImY7BCJkAMBa52PguP-sl46GiVYJij7laPQsgMW4lGQ3N855irfvbynTvUg2HsM-AlLFMDzUThdx3zzohaVkD6NJr1WxMgHtEhBpiMNnEqRhcS2UhlVqzyZWGhSPboZWNulrkuI7H7qyue2ye8Vvrg,7db45afcb2b6590c8c83bf6dc1b8ce9967fe9f9e,106.6512361,10.8422445,106.6402102,10.8353713,106.6583847,10.8463092,"sublocality_level_1,sublocality,political",10.84084025,106.64929745,1163.1981773320044
Thành phố Hồ Chí Minh,79,Quận Gò Vấp,764,Phường 11,26899,Phường,,Phường 11 Quận Gò Vấp Thành phố Hồ Chí Minh,,phường 11,"phường 11, Gò Vấp, Hồ Chí Minh, Vietnam",ChIJDT_UCqEpdTERnngb8a8kwoQ,CmRbAAAAYct_gDQ2NcAFkwP9xNHf1xBbPbvulDdktTsJYgUs1HRj_T8sODoK-v2NtxaOKgj8uT0cN55xg2hGVPFTEN6r6xokklU7ZaeBBDdaAJwRanIflsQnYZkCiJGCwbTEG4C_EhB3dHRow7wZw5JwwYIXCrMsGhR0nW_6wiJmhb5avkX87KtCpfL3wA,ac21cd56ab26630e181fe951015ead4c593aef41,106.6600791,10.8390308,106.6569899,10.8306849,106.6653183,10.8474943,"sublocality_level_1,sublocality,political",10.8390896,106.6611541,1038.6887197545361
Thành phố Hồ Chí Minh,79,Quận Gò Vấp,764,Phường 03,26902,Phường,,Phường 03 Quận Gò Vấp Thành phố Hồ Chí Minh,,3/8D Đường Cao Thắng,"3/8D Đường Cao Thắng, phường 5, Quận 3, Hồ Chí Minh, Vietnam",ChIJi3ZS4SIvdTERhhL0ZWMVhss,CmRbAAAAWoJ4vPUz_oQLFFwyzs6v4TMsmOxTgEYgoiCUQqoJXJvV59-OpLt5lvYX6a2vmx7zt2OoCrhfWT3MT4Rtoh3-Ec6Epzpfg3ZHCkc0AVK0GcIEm30SC0w-JjMsg1zftmgKEhBl-Ty4RBnQUybAsS9ToJz2GhTahB-Zv59My8EzRg1PxTGQfULEnw,ceb99694773e5611da94978c697e1779a061adab,106.6862868,10.770528,106.6849378197085,10.7691790197085,106.6876357802915,10.7718769802915,street_address,10.770527999999999,106.6862868,210.13970834951576
Thành phố Hồ Chí Minh,79,Quận Bình Thạnh,765,Phường 13,26905,Phường,,Phường 13 Quận Bình Thạnh Thành phố Hồ Chí Minh,,phường 13,"phường 13, Bình Thạnh, Hồ Chí Minh, Vietnam",ChIJwR51i4sodTER0px2Y2fRSgU,CmRbAAAAMyoI64c6qipIU2rYjRrbZRtwXqcjd7hS0hb6PE5UVXHLDJOJ5NF66Ry46kg92B8YNPreTnqWrB5XaPdSsocJYHvwmDuV0z64-cyf4gaMey6gS-aYoVfuY-ckls3MK7cTEhA7E7vHrU0udalHSE-mJASAGhTc3zas8NLAHVh_cX8UEntaf-o_Lw,05f7f697039365597e6d2086b5eaa2c51792972d,106.7042991,10.8256869,106.6952492,10.8165066,106.7129946,10.8393124,"sublocality_level_1,sublocality,political",10.8279095,106.7041219,1594.8506686919998
Thành phố Hồ Chí Minh,79,Quận Bình Thạnh,765,Phường 11,26908,Phường,,Phường 11 Quận Bình Thạnh Thành phố Hồ Chí Minh,,phường 11,"phường 11, Bình Thạnh, Hồ Chí Minh, Vietnam",ChIJV4mD4-sodTER-1veI45VAEc,CmRbAAAAZ4C4WgmtT6iN5LZarOC-FweeMQtkbmtzi2u5edOMzB8tQMKqCQBwW7gPEvWMHCZbkLd_J3MgC2eKHpa-of4-f6RP2ZFekfJ5NOGp3tM-nGcOLGqh-_htPiEhL4C9z4SAEhCYcdTOg2y4cP9EVh8JhE4LGhT1jGf2CfTC8J-aY-R7G9eSixBrlQ,e392774036c0811c3f534a31d5862f8886e0b3f5,106.6954544,10.8180045,106.6897101,10.808341,106.7009496,10.8233199,"sublocality_level_1,sublocality,political",10.81583045,106.69532985000001,1033.8942997759382
Thành phố Hồ Chí Minh,79,Quận Bình Thạnh,765,Phường 27,26911,Phường,,Phường 27 Quận Bình Thạnh Thành phố Hồ Chí Minh,,Phường 27,"Phường 27, Bình Thạnh, Hồ Chí Minh, Vietnam",ChIJ_bqmLZwodTERAL9mb6XR3iA,CmRbAAAAvi8r4XnesmrrWnqIL77IjEFAE1EQ-TWMziroAvqHpdkFhopMqb082_FbEuuQqDgKvYuG5Sf8Ke46muRUUxqOz1mwTwpne_IisFqogtQGk9NAdveCrGonJZys3JL8JqiXEhCKMIS5hgsJvR9sV8hphRhjGhQ1HKcm7Z5PCanNPpwfmLpGYXZVyw,de286d5d17d5b446adf629f4565818459d95afd2,106.7219896,10.8165361,106.7140298,10.8100331,106.7265931,10.821644,"administrative_area_level_3,political",10.815838549999999,106.72031145,941.4442991757979
Thành phố Hồ Chí Minh,79,Quận Bình Thạnh,765,Phường 26,26914,Phường,,Phường 26 Quận Bình Thạnh Thành phố Hồ Chí Minh,,phường 26,"phường 26, Bình Thạnh, Hồ Chí Minh, Vietnam",ChIJZZgxdpcodTERSJY2NMfZaqQ,CmRbAAAAzWOt-9iVh4dXrmFWHsGzEXHmhanb5keu_VPnO824U7TVnFsgJAGJN9hKlRdwTCkJb6eNc-vRag-00fh1Sp3PcoAml2_3-ZoTl9b6mJyHyxen4iBl60dwvN5qK56r2_YHEhAAo9l4brZm3Fv0AYakHpMQGhQw6XCqY_EIkVuZ-en0ua-CZsuMCw,1c8b2d2a0dab6edb0597a0513f0ac249c6b2e346,106.7087216,10.8131851,106.7039116,10.8056491,106.7175257,10.8205901,"sublocality_level_1,sublocality,political",10.8131196,106.71071864999999,1114.106543260196
Thành phố Hồ Chí Minh,79,Quận Bình Thạnh,765,Phường 12,26917,Phường,,Phường 12 Quận Bình Thạnh Thành phố Hồ Chí Minh,,phường 12,"phường 12, Bình Thạnh, Hồ Chí Minh, Vietnam",ChIJGVS8FZUodTERdiJXTCkssgY,CmRbAAAA2FVlAoEiogKvyHkiKmpNQDYaHzjrBIGYmLnR89Zl0Zj6dN3MqxLAydtys56nLtqv6o9hQ49NJaqk02hZZR-AaTsfqwVXhxtK8t5GDZViPVOECgDkmS3DLKEO9AI5ZOwrEhByCbYgxVNiISyLyYMIbUMOGhQkJ-4lTHwqnS_8M3-Yxe97CiiZKg,6ef0186a3a9a7a26705d49f7edcdc31f19611d27,106.7013508,10.8122309,106.6954876,10.806631,106.7076909,10.8182557,"sublocality_level_1,sublocality,political",10.812443349999999,106.70158925000001,927.7719031485701
Thành phố Hồ Chí Minh,79,Quận Bình Thạnh,765,Phường 25,26920,Phường,,Phường 25 Quận Bình Thạnh Thành phố Hồ Chí Minh,,Phường 25,"Phường 25, Bình Thạnh, Hồ Chí Minh, Vietnam",ChIJC7NAaaEodTERWbk6ekujJRs,CmRbAAAAZR31h9VYdPBvO16J1R5kMSiotfqIYyg-91TV0VEJAAKpMYZ8_SrjBxrMnYAb9tIp8yeslRjBSoVRSjoeEUX0X2g8YESHbkPyG31zKaSEc54un0ou182WvJ4GG-xt5ltOEhCh0Xaz5FaSm4_3xb488vbvGhQkD-ZJUBTwsVzX_452gfjbPXjC5g,a60c9c558e61411448f8ee11245b6596e8409214,106.7153875,10.8040973,106.7112808,10.7979059,106.7271565,10.8142307,"sublocality_level_1,sublocality,political",10.8060683,106.71921865,1254.3906904849769
Thành phố Hồ Chí Minh,79,Quận Bình Thạnh,765,Phường 05,26923,Phường,,Phường 05 Quận Bình Thạnh Thành phố Hồ Chí Minh,,21/5 Nguyễn Ngọc Phương,"21/5 Nguyễn Ngọc Phương, phường 19, Bình Thạnh, Hồ Chí Minh, Vietnam",ChIJy8J0GrModTERDPszbT-6Dr4,CmRbAAAA8FsMZhf4lHakghqjZePLEkfCnRD6kKxMBjsYq0rE5Z7UjvW9qNIfOVlU_ox2R_eLyShIzuLJon4Sh_3UMyO01KGuhFHY-CLe0XK7alK6UlULfIRO27dMuLcKZwV9AkEpEhA-iz5VxkvnU4MvL0HDFJXtGhRXgSbLtFHdFCM7KRD5B6B_O2XeOA,50bd26057e6a75e8e1a2d874a2b50b540b65ef54,106.707999,10.790508,106.7065851197085,10.7891189197085,106.7092830802915,10.7918168802915,street_address,10.7904679,106.7079341,210.13287039048257
Thành phố Hồ Chí Minh,79,Quận Bình Thạnh,765,Phường 07,26926,Phường,,Phường 07 Quận Bình Thạnh Thành phố Hồ Chí Minh,,UBND phường 7,"58 Hoàng Hoa Thám, phường 7, Bình Thạnh, Hồ Chí Minh, Vietnam",ChIJXal1fcModTER5erAS9XJzoY,CmRSAAAALcQwJlTOFOKbsHCmy5KS0jINgzdlbNu9LL8fbhXxXu17sUZGMPM8Q3ldtI3D2tqq-i1hPunXnSllliK1NKxtc3ZZ_wWzDhYtida8aZaYe7p9hWSz2jA4A3YDhOqH4uTGEhDS_UVoKlU2NaW9NGUrN0gtGhQlD4s-aWOme-LMtTd_fq0AGilZtQ,6d5e19d4208055e3b3bb7228e4c88be06c1076c8,106.6905656,10.8061529,106.6891882697085,10.8047790197085,106.6918862302915,10.8074769802915,"point_of_interest,establishment",10.806128000000001,106.69053725,210.12749149980266
Thành phố Hồ Chí Minh,79,Quận Bình Thạnh,765,Phường 24,26929,Phường,,Phường 24 Quận Bình Thạnh Thành phố Hồ Chí Minh,,Ward Number 24,"Ward Number 24, Bình Thạnh, Ho Chi Minh, Vietnam",ChIJ0fO9rb4odTERtbSSJRcsLIc,CmRbAAAAKk8uJKuo_2uI1E6JJzNcU_G9jqHYf-0RAUnevoyAboaJbFB6RbIphJyUXS8-kimQJ8MYALxxP7JD_9gZEg4nd31cmxbr_K-DB-VTp9ZPIRfGXQxAswmDFAVfcpzgiF0iEhAgWpff2KFqg5lZ_d0fDhcJGhQxTmi6xfUCbeYMYJQCuEXBRlPCNw,4fcc2701143ba58c5a4420ee3583931be026a1ef,106.7050362,10.8058993,106.6987595,10.802824,106.7115058,10.808831,"sublocality_level_1,sublocality,political",10.8058275,106.70513265,771.5859916503827
Thành phố Hồ Chí Minh,79,Quận Bình Thạnh,765,Phường 06,26932,Phường,,Phường 06 Quận Bình Thạnh Thành phố Hồ Chí Minh,,UBND phường 6,"44 Nguyễn Văn Đậu, phường 6, Bình Thạnh, Hồ Chí Minh, Vietnam",ChIJ5QHG18IodTERXMRw3HkCpyU,CmRRAAAAq0KrMUN0OuazVP-WNjPmh4oodIUgunW-f35mc24oJKcnz8DABRJRQV9ei2lqIjIljYRPrWwk8eaplTXr-BluWPY_789qtFCsSWn5FmVqlCupzDuCZVXWDDOIg_fum1vREhAh84UUpS7ERkBTs0XMT41qGhQOzFarfBRYvD7RkLX37VOSe2EowA,4de942b49bf7ba3f1babb7495bf02ea1ef48a298,106.6869453,10.806663,106.6856752697085,10.8052793197085,106.6883732302915,10.8079772802915,"local_government_office,point_of_interest,establishment",10.8066283,106.68702425000001,210.12731953301966
Thành phố Hồ Chí Minh,79,Quận Bình Thạnh,765,Phường 14,26935,Phường,,Phường 14 Quận Bình Thạnh Thành phố Hồ Chí Minh,,phường 14,"phường 14, Bình Thạnh, Hồ Chí Minh, Vietnam",ChIJZ1RJwMAodTERlfeKrQTfee0,CmRbAAAAItywZjlFihKb7fJaEf-H1a0xZHK51Cyvr9_sdN3-dbEUuazXpKyUc31qCdM4JfLNsNEK7pgxexQ6h_ZjQwbxU5kX6og1IzQbGSqQDN6IBVfvfc8JYvsYCF3Pb_eqLdIiEhClk54v0K0iypHpCwEjCyePGhSXhd3FR-1DS5aIvPx8ynLE86NvkA,809dee1ad45f229132976998f82f0f3c40eb8bf2,106.6976655,10.8049449,106.694888,10.8024662,106.7015953,10.8112317,"sublocality_level_1,sublocality,political",10.80684895,106.69824165,609.2679817499154
Thành phố Hồ Chí Minh,79,Quận Bình Thạnh,765,Phường 15,26938,Phường,,Phường 15 Quận Bình Thạnh Thành phố Hồ Chí Minh,,Phường 15,"Phường 15, Bình Thạnh, Hồ Chí Minh, Vietnam",ChIJHwu5QLcodTERLvgEK6-3id0,CmRbAAAAuRboVz7bzrxBl1s4QBJuG12dTE2a9UHvSVLqF3F2UMNEZPooMWmrXYFqiKyGbqiLK03py2x0uKMsjBXrEiP51mPery_tZpjlV912xYV7CwOvyuYnO_sAHzwQRIxV7zUCEhAZaJ4vHOPXL31vH-j-ymD1GhRf9zFpCRettBS0QejwgANqG6CkyQ,513890fe5958ff07602418158b20b9ae85186537,106.7050362,10.8004527,106.6977961,10.7933453,106.7113893,10.8036439,"sublocality_level_1,sublocality,political",10.798494600000001,106.7045927,936.9391106353228
Thành phố Hồ Chí Minh,79,Quận Bình Thạnh,765,Phường 02,26941,Phường,,Phường 02 Quận Bình Thạnh Thành phố Hồ Chí Minh,,2C Nguyễn Ngọc Phương,"2C Nguyễn Ngọc Phương, phường 19, Bình Thạnh, Hồ Chí Minh, Vietnam",ChIJq4irdLModTERzdTQ98hgZf8,CmRbAAAAQxFTRrZLzlhoE1HUJOC3t5Xo50jvBP1PXGXP9ZpytHfP4ufkZKqNo09H9hzKt3cjtzv9ipNYWOdksax4tGGFXnMCRRVXvZLxCSvBqR5ZavuHw6gNnhhbiR8jG2wC02awEhBW8ZzvUudRwO17ZVGfmJzlGhT8NkTpL69VhBGFCoEJHdisCiM4BA,1dfe8da2b7ac17a4d6157fffb0cc90dd39a58bf4,106.707233,10.791161,106.7059874197085,10.7897269197085,106.7086853802915,10.7924248802915,street_address,10.7910759,106.7073364,210.13266169815316
Thành phố Hồ Chí Minh,79,Quận Bình Thạnh,765,Phường 01,26944,Phường,,Phường 01 Quận Bình Thạnh Thành phố Hồ Chí Minh,,UBND phường 1,"98 Đinh Tiên Hoàng, phường 3, Bình Thạnh, Hồ Chí Minh, Vietnam",ChIJb3tvDckodTERSNAy5sxgZcc,CmRSAAAATtcsdDmZP_ZsdL8sTfx0WtKMOxKdY2d-d6AfoSkD3aqm7AhacckaphCKr-ZKwyByA-vLH9uDh87eDRLSgCaQsfF5V9JKs0-Fmdo2AbsG86ic809ccLB1ucodu3_B8P8iEhDCi0u8eZnUXtFVxQt_7SWlGhR6a3MeElyNs0lm6egb3nSKOE4aPA,d6121d6e9d5f4c991be2a9ad770dd19185a1b63c,106.6962392,10.7962876,106.6948306697085,10.7949420697085,106.6975286302915,10.7976400302915,"police,point_of_interest,establishment",10.79629105,106.69617965,210.13087115488318
Thành phố Hồ Chí Minh,79,Quận Bình Thạnh,765,Phường 03,26947,Phường,,Phường 03 Quận Bình Thạnh Thành phố Hồ Chí Minh,,21/3 Nguyễn Ngọc Phương,"21/3 Nguyễn Ngọc Phương, phường 19, Bình Thạnh, Hồ Chí Minh, Vietnam",ChIJofQJGrModTER_m8ugcAjUPk,CmRbAAAAJ-6CEQ7rWabE63OoUopzvJQQi-ZkX8YziJD-bBzwSAIrhPNfEumqoP4ESMhW1skbLmwgt2tkqNup3sTHJguICc98P3Nnoaab4DDg5fthLgLUmVYfn4-bns9Pz50inOf_EhBUkj_91gmVa3NkrkuSFEU5GhTm6MyJKYIh77Ue7CoyvgeX5wdkWw,128de5b34a890aef9571a292328b5a23f0fefa37,106.70799,10.790481,106.7065855197085,10.7890977197085,106.7092834802915,10.7917956802915,street_address,10.7904467,106.7079345,210.13287766695225
Thành phố Hồ Chí Minh,79,Quận Bình Thạnh,765,Phường 17,26950,Phường,,Phường 17 Quận Bình Thạnh Thành phố Hồ Chí Minh,,phường 17,"phường 17, Bình Thạnh, Hồ Chí Minh, Vietnam",ChIJgefCLLEodTERPGtuRH7M8Ec,CmRbAAAAe-nTqmJ11A1zKMxRh1sY93JjliGZVZibz3GgVfSbDVUCtW_3IBj_ICFHfNQWOCWnmv-m1nKBsANEd64ixvuR5isPPrUMByi3bRrAnh1oMZNT_fAWFqMLvktReCDLB1m4EhAZN_reuM7Zk48P-pP33OQzGhRIYpJTkrLOpl7EQJocxbg56LsTwg,af19076d0390d7c0c46e10fc4b211dda17424649,106.7065103,10.7962866,106.7003936,10.791594,106.7112835,10.8014745,"sublocality_level_1,sublocality,political",10.79653425,106.70583855,809.1076349517216
Thành phố Hồ Chí Minh,79,Quận Bình Thạnh,765,Phường 21,26953,Phường,,Phường 21 Quận Bình Thạnh Thành phố Hồ Chí Minh,,phường 21,"phường 21, Bình Thạnh, Hồ Chí Minh, Vietnam",ChIJD4fxy68odTER2k_PjH940RE,CmRbAAAA_dXDLX4CEh2BZj7KtcCL6wCHqzG5L8x5wZpw_GE61ZKgY_Pqjnu4SRbdqPe9NV5_naO3RwlS9Xqpe6xvKM6Hd7BPGDYArCtlgGmN1P6Wn0RFnRyTbBAKnWIk4BbqHuJ4EhCu7G2gKfx_PXGE8jxxHAU-GhTtq3FgVWvwxmcX9Txq9QHjRpdUnQ,fe1389fe0f4bcaff4930d6f18a1fcb17ae0f8ad6,106.7117589,10.7957882,106.7093326,10.7922222,106.716245,10.8015019,"sublocality_level_1,sublocality,political",10.79686205,106.7127888,638.8923264694523
Thành phố Hồ Chí Minh,79,Quận Bình Thạnh,765,Phường 22,26956,Phường,,Phường 22 Quận Bình Thạnh Thành phố Hồ Chí Minh,,Phường 22,"Phường 22, Bình Thạnh, Hồ Chí Minh, Vietnam",ChIJ_ZoyYKkodTER-REdin0UHqQ,CmRbAAAAIfr5na61jdiWARns1zHT9k73vC0rtqapiA_EAHYJCCtMS3GEzuqDfHbdLSwAdRPJ2vfkfLMYBx4t97BFc36Ia2cRSIC79AlXnPuwYVTy3-kqxECs6unae58iwFm-2ESjEhBgGFpntgQUUbgKcutxGNvEGhQJgw2Dh4IeCKzRiLpAB8mVb7Tbmg,404daef11ee7239bc53255cf7d9bac94b03fb97c,106.7190411,10.7921907,106.7123442,10.7852295,106.7272854,10.8004088,"sublocality_level_1,sublocality,political",10.79281915,106.7198148,1173.183367923321
Thành phố Hồ Chí Minh,79,Quận Bình Thạnh,765,Phường 19,26959,Phường,,Phường 19 Quận Bình Thạnh Thành phố Hồ Chí Minh,,phường 19,"phường 19, Bình Thạnh, Hồ Chí Minh, Vietnam",ChIJO0jhXrIodTERnibBC8thCTU,CmRbAAAA9z6CFXWO06-mrg51L_ccQFcKM6hQXVkIveNaFVg5mP_4QWwx370o9qXqhDx0TcuI8uR9vH1xWFZoSmQUiY589Hivz1zpfmSFv6ZW7DxCnyXc6QIxk-0Oe3kl3Q_PSz5BEhBKblUV2wMGgGg7GMgt6rufGhRpKRWuElUoF2A5AIaJKlXYWjK-cg,e3319064eebe44ca23a143ab8b2eb7e946f76ec8,106.7101958,10.7899564,106.7062754,10.7873796,106.713606,10.7955685,"sublocality_level_1,sublocality,political",10.79147405,106.7099407,605.8933216091253
Thành phố Hồ Chí Minh,79,Quận Bình Thạnh,765,Phường 28,26962,Phường,,Phường 28 Quận Bình Thạnh Thành phố Hồ Chí Minh,,phường 28,"phường 28, Bình Thạnh, Hồ Chí Minh, Vietnam",ChIJ52ZBNjAmdTERzPZueF8n9Fg,CmRbAAAA9MFWjbyY6QoZanedC9l0J6Y2qcTAHO7IbLvTAG9-Scs1qMuakAba8RHkqD985DYnawFcXF9SKjgCLfj_H83eNm2mHRdPoeFgfTbBZxyJZMhzoPnV07CQke_V9CODjeeVEhDweQj6DI9ApF1wJ5EpIV4nGhSJ1WQTAbiB4F8xoMwYso8u8-0JEw,9a60f15272a54bf63d540d2219682a5f324401f7,106.7411559,10.825006,106.7229489,10.8083518,106.7512321,10.8356244,"sublocality_level_1,sublocality,political",10.8219881,106.7370905,2163.0673973073062
Thành phố Hồ Chí Minh,79,Quận Tân Bình,766,Phường 02,26965,Phường,,Phường 02 Quận Tân Bình Thành phố Hồ Chí Minh,,2a Nguyễn Tri Phương,"2a Nguyễn Tri Phương, phường 4, Quận 10, Hồ Chí Minh, Vietnam",ChIJYdCcFeQudTERF3BeM7dFTtM,CmRbAAAA6hxIsO84JsJNDLEJ0cYS0p-wPErLXATVmW6xrrAy4P0sb9KiDmWkHGcnG_KssFM5zwiXUgR_jACciTPN2_TgGosRhonYVZPAXYbgJplb3VVmmV9nSRtlYrhdTriRyM7hEhAkbWAgWd7xrZHJ4A86847jGhSPUBZQXsT9ApkAT7h13cRuk5J2Aw,460f934333cade03c2f90310eba06e231e0bacea,106.668971,10.76246,106.6672991697085,10.7610390697085,106.6699971302915,10.7637370302915,street_address,10.76238805,106.66864815,210.14249624057177
Thành phố Hồ Chí Minh,79,Quận Tân Bình,766,Phường 04,26968,Phường,,Phường 04 Quận Tân Bình Thành phố Hồ Chí Minh,,Tan Binh District Committee,"387A Trường Chinh, phường 14, Tân Bình, Hồ Chí Minh, Vietnam",ChIJv3zAc04pdTERPDpTMObRdi4,CmRRAAAAziuyiiHYszBGhBpWnJfrVgpier-m7EahouOYniq0goiWjCSWOWBiYgWWCo_EH61y8iXYsLs1lbrWhN9hWO9_CyeGIrHdhkJ4YRWP0OlDFS5jb4r4gcFq32y52tcMVeL7EhCeVQeDKGV3kLQ8zxhBRKbgGhTMGFXgaFcF9WDn1SItqe_Gm_VY4g,72b92ad40110ff7d4aa8135cd05643c75a9725fe,106.6426724,10.7981978,106.6414128697085,10.7970126197085,106.6441108302915,10.7997105802915,"local_government_office,point_of_interest,establishment",10.7983616,106.64276185,210.13016002743433
Thành phố Hồ Chí Minh,79,Quận Tân Bình,766,Phường 12,26971,Phường,,Phường 12 Quận Tân Bình Thành phố Hồ Chí Minh,,Phường 12,"Phường 12, Tân Bình, Hồ Chí Minh, Vietnam",ChIJ0bbB90gpdTERCdDO00QxRII,CmRbAAAADAqxMdn-Avf6IaofJdibgwL1hT3-KQlaV9u_XFoybSaL9wjh7DGVX4SZaQdRi0gDmonkrJPMFw4nN7kRtR-WoCbBNqeI3jXeDH4s5jUocbmv4MC5Yv88lsDM9CXUfVCXEhDgQCwBJR31MW8soxmzMjWMGhSPTTlRPDX7CByEhHAfD5ahvj7QYw,100738c0970c0977f75ef001998d1356695ec1cf,106.6500753,10.7931859,106.643976,10.7903252,106.6553916,10.8114212,"sublocality_level_1,sublocality,political",10.8008732,106.64968379999999,1327.4512303197412
Thành phố Hồ Chí Minh,79,Quận Tân Bình,766,Phường 13,26974,Phường,,Phường 13 Quận Tân Bình Thành phố Hồ Chí Minh,,phường 13,"phường 13, Tân Bình, Hồ Chí Minh, Vietnam",ChIJ7cjeWEUpdTERPSJQgeAZKjQ,CmRbAAAAXv1X8Bi6tUBbrsp9bPnA-Q3FhwvUFQk5MUPomhGDgfPGIXC9MFTlcgeGprksxu14jAa30ThyDbjC2powdCPW0CYpgYDMtRal3DBvdsZ99r3ocHoi1bXHAzg80Z8K_5w6EhDa7YiotTBGOXYYGxHIys6EGhT3jViaGx86ps4t0nKC4BZH3fteUA,59d652d174a9bd1f84d651ce54c2bf6a6918b5f8,106.6438673,10.8058688,106.6357898,10.7963245,106.6481174,10.8104858,"sublocality_level_1,sublocality,political",10.80340515,106.6419536,1035.278718352808
Thành phố Hồ Chí Minh,79,Quận Tân Bình,766,Phường 01,26977,Phường,,Phường 01 Quận Tân Bình Thành phố Hồ Chí Minh,,Công An Phường 1 Quận Tân Bình,"291 Lê Văn Sỹ, 1, Tân Bình, Hồ Chí Minh, Vietnam",ChIJzyxstS0pdTERFzJDt1A3gTg,CmRRAAAAthhW3Soen7qfhd6KdsXapQJlKM60aQTt9NvrUQhcX_UQwvR_K7jnBi8Jsebx6mxalleNyI68Jw0Co6LxDCLK8FkRhIrSdVx3mZNKEZU4aTznsQcGZH4WWkcEl4PqthOzEhCXA9hcuWzu4CMxtwPjC89sGhSQD7xeQrs4wRWe7qwy0gWx9HTE3w,548d1269768974a507e83458e6d2454228967fe5,106.6675593,10.7947121,106.6662341697085,10.7933944197085,106.6689321302915,10.7960923802915,"police,point_of_interest,establishment",10.7947434,106.66758315,210.13140260307023
Thành phố Hồ Chí Minh,79,Quận Tân Bình,766,Phường 03,26980,Phường,,Phường 03 Quận Tân Bình Thành phố Hồ Chí Minh,,Nhà Thầu Cung Cấp DV TV Gói Thầu NBWW-03 DA XD HT Thoát Nước Gom Và Xử Lý Nước Thải Thành Phố Ninh B,"74, Thích Minh Nguyệt, Phường 2, Quận Tân Bình, Thành Phố Hồ Chí Minh, Hồ Chí Minh, Vietnam",ChIJR5ATgSQpdTER8rvJremMsEQ,CmRRAAAAJpc6sXfswH-sFVVRAUdOuSzMGF4zu0ltkOKgOGqBshtm2TGv05nVo8t6J6Oy2zoqcrGooEOVPa_JSrxt8H48P7T9rfkSxX2DZKRx0gZWvOmJOYxyqa9KJumJKrkYMvEvEhB-mFFA_niEfJ13y6v-oM9XGhTNw2AuL539W8m0yb0dv2c0WNqRkQ,53053e63d6886fd4f1a1cd731d9359a434c0821d,106.667187,10.8070768,106.6658380197085,10.8057278197085,106.6685359802915,10.8084257802915,"general_contractor,point_of_interest,establishment",10.8070768,106.667187,210.12716536315457
Thành phố Hồ Chí Minh,79,Quận Tân Bình,766,Phường 11,26983,Phường,,Phường 11 Quận Tân Bình Thành phố Hồ Chí Minh,,phường 11,"phường 11, Tân Bình, Hồ Chí Minh, Vietnam",ChIJzdX9YLQudTERZCWxOes4c10,CmRbAAAACg9YE8ZhO65iBsA-2y8GAA_T43WkYcAg1GMDLnWQwv26sCGdcPHHc3YErChqyzG4DZ8V9JfiniZHNT7vuCHXYVcXQhmmRV48N_zCUPEdQz-LUTLz6X14cigSEVudUWIHEhDE09vu7r53bh9SDxg0FWwJGhRj3_w1DFc789sFDDtPCNONulGAxw,9b10e8f7fc663cd74b6c31eeb22bbf8158393038,106.6495246,10.790694,106.6428225,10.7846578,106.6546465,10.7935422,"sublocality_level_1,sublocality,political",10.7891,106.64873449999999,812.5108751557639
Thành phố Hồ Chí Minh,79,Quận Tân Bình,766,Phường 07,26986,Phường,,Phường 07 Quận Tân Bình Thành phố Hồ Chí Minh,,phường 7,"phường 7, Tân Bình, Hồ Chí Minh, Vietnam",ChIJ5boEp8sudTER-s9oCjVk3d0,CmRbAAAAkswTDzdVlEQlFY93aEI8W-p70IyPyepk9ywu1qO1r_-QW5kz06Cz7vO9m-CGFYs5mBgWvLYwabGgmWFffuuL46o6qC8G2oly5pRl6K4l12OR4O3NGM2LyXImxr6UksAyEhC7cW2OhwvT5jr4cYMJh_1wGhR65pmkKAwyVmWeQ4M9bisgVz7uTw,add2213eb7d5685568cd3b573c3858d002bd7cbe,106.6563945,10.7881559,106.6524437,10.7844839,106.6607907,10.7922009,"sublocality_level_1,sublocality,political",10.7883424,106.6566172,625.6261375796751
Thành phố Hồ Chí Minh,79,Quận Tân Bình,766,Phường 05,26989,Phường,,Phường 05 Quận Tân Bình Thành phố Hồ Chí Minh,,5a Nguyễn Tri Phương,"5a Nguyễn Tri Phương, phường 4, Quận 10, Hồ Chí Minh, Vietnam",ChIJ94qvFeQudTERN2SayISzzKw,CmRbAAAA1OgRzO5ERKaTFVB-iLGjzsWmUBi7yzQ13wgTJYg3ozImC1g7YOD-7X4t9my7buZYHTiQrL3FIts8_TyMalhEG5USzMAiTIx--l3HoeKvLAJIjZoJ9q9TkA_-uqMsXi4CEhCYHdnWAq48BKt4Ei6AVTFZGhTqTlSY-p1_xDphRd1PgtjJJkMSnA,b44f8df215ad957ef7cd87338a55448429d01b94,106.669061,10.762479,106.6673443197085,10.7610480697085,106.6700422802915,10.7637460302915,street_address,10.76239705,106.6686933,210.1424931593709
Thành phố Hồ Chí Minh,79,Quận Tân Bình,766,Phường 10,26992,Phường,,Phường 10 Quận Tân Bình Thành phố Hồ Chí Minh,,phường 10,"phường 10, Tân Bình, Hồ Chí Minh, Vietnam",ChIJD9EJqbAudTERjuiNMgDs1JQ,CmRbAAAAiA9PBaNZKPWbNCMlvC8MEVfQ474wlUcRrByRODWJmD4Ysv9219U6xtVa7sCgn1SjuYvULAplNaezMSn3d848X6rRb4qGrnWNOIE6ldYqVjHuKsSQY3Qe8VM7e3dL3jwDEhDILEXAfvmYVGx9nbVTIJucGhQXdR1UtFJ5t09TnqtU8ncFGD5t3A,52dda071ed9f6ec13c08e949e841316f0618458d,106.645341,10.7826359,106.6416399,10.7747861,106.6510034,10.7879987,"sublocality_level_1,sublocality,political",10.7813924,106.64632165,894.5085597771199
Thành phố Hồ Chí Minh,79,Quận Tân Bình,766,Phường 06,26995,Phường,,Phường 06 Quận Tân Bình Thành phố Hồ Chí Minh,,phường 6,"phường 6, Tân Bình, Hồ Chí Minh, Vietnam",ChIJT_Q52M4udTERLEO4Z4VRSds,CmRbAAAA7C5Z7e9B6eEZi5Ggnq_aBfCRPV1tL5MDAHOLs1WDAeyQsPXRxhvQSZ2xI1sQNmjQbBn_nSYEoDYJHQJktJurrVqR8RXN62m4S9Me07oyWVFefXmsqa5gQoIhdTaNcq2QEhDoNBlqqwLqfeTnwXPYz3suGhSX56Os_DSmMPVEgq37B3IUB24quA,0b3fd117811a4a7fdf07a49d93f9c5d138428852,106.6582557,10.7837883,106.6541845,10.7777517,106.6646396,10.7889428,"sublocality_level_1,sublocality,political",10.783347249999998,106.65941205,843.975756018291
Thành phố Hồ Chí Minh,79,Quận Tân Bình,766,Phường 08,26998,Phường,,Phường 08 Quận Tân Bình Thành phố Hồ Chí Minh,,phường 8,"phường 8, Tân Bình, Hồ Chí Minh, Vietnam",ChIJw3ExJ7YudTERqfvIeyPh8AQ,CmRbAAAAoaOb-ngvfChrVJx1nLmYTeO_LJS76Tr3GylW61JJIOYmIsIUlqh8a5EqIy9nQKHlau4njL7Gy4W1q8iVQrbDHxyRLJ2vDKWbMlphkRHhbDQX6tSG2NcTl4JB0o4RJVL2EhA2U1U9ST_lEuzFUL128YCeGhR8mlLJAO5P4WUmxEYIyIZHJKjblA,61c49f611de2261fc6453e9073d98b76d7cb91dc,106.651973,10.7829523,106.6498714,10.7790006,106.6553003,10.7901908,"sublocality_level_1,sublocality,political",10.7845957,106.65258585,688.7563936472002
Thành phố Hồ Chí Minh,79,Quận Tân Bình,766,Phường 09,27001,Phường,,Phường 09 Quận Tân Bình Thành phố Hồ Chí Minh,,Tan Binh District Committee,"387A Trường Chinh, phường 14, Tân Bình, Hồ Chí Minh, Vietnam",ChIJv3zAc04pdTERPDpTMObRdi4,CmRRAAAAC5-4KKuwpcYOSSPuV_3G5mPgf-Nph5K2upJ6bFdGiKp3xVBAXWLNeRsEY1mCOWYDfgPKiBsAhS9-XntITVlMssiFzF1rcNWhzQewtlx-yGyK3Tn0uVeuiMKpTFn_rIceEhDhXgBj4kxzBns0DQdg18ODGhRrEhYXlV-1FOfmGMe5cvWe6UNGeg,72b92ad40110ff7d4aa8135cd05643c75a9725fe,106.6426724,10.7981978,106.6414128697085,10.7970126197085,106.6441108302915,10.7997105802915,"local_government_office,point_of_interest,establishment",10.7983616,106.64276185,210.13016002743433
Thành phố Hồ Chí Minh,79,Quận Tân Bình,766,Phường 14,27004,Phường,,Phường 14 Quận Tân Bình Thành phố Hồ Chí Minh,,phường 14,"phường 14, Tân Bình, Hồ Chí Minh, Vietnam",ChIJL4rTYE0pdTERZzMiQmwat64,CmRbAAAA4FTT4_6EQ2OyCGBmtRHqsg8QigGXNJNV0SuKQSfmmML4xKrURb2LQqz6iUwCdBJ7C93x1D7XvQkqz6sRgvootKAbqPlpU4xesRzjK_doielzJTIT3IuBLgyM-DG_WWrKEhAip1N-DcvFKXF1nO9Lc_Y_GhQIGNAXsXoEV8lVfRSUaTzyXavIIQ,ffdc1dda70e65e3521fe6fc44efff9e4571a70c3,106.6423935,10.7936922,106.6366911,10.7859621,106.6458535,10.8018424,"sublocality_level_1,sublocality,political",10.79390225,106.6412723,1014.212727982537
Thành phố Hồ Chí Minh,79,Quận Tân Bình,766,Phường 15,27007,Phường,,Phường 15 Quận Tân Bình Thành phố Hồ Chí Minh,,Phường 15,"Phường 15, Tân Bình, Hồ Chí Minh, Vietnam",ChIJ6RTZNhMpdTERgudXp9g60aQ,CmRbAAAA80sEPYBWQY8no0U_l60XtzlADo79YDj6Ra5Vc91cuGg8H5oxdacveae8f7ZmWbE2AWTdiJqCddBP5DIqpdf5BP1tZ5XXZoYe_uFfmRtTbyV1BY7ixbYr6PzW71l4gCoREhBz0ylXQKsOkvkPF08etWjSGhSe1-OtvNPJjFq4AYhF0la_xXQ33w,69177d6ef35434116be5d457d3987256275d9b4a,106.6379724,10.8225398,106.6278881,10.8037921,106.6485464,10.8374447,"sublocality_level_1,sublocality,political",10.8206184,106.63821725,2183.435194347691
Thành phố Hồ Chí Minh,79,Quận Tân Phú,767,Phường Tân Sơn Nhì,27010,Phường,,Phường Tân Sơn Nhì Quận Tân Phú Thành phố Hồ Chí Minh,,Tân Sơn Nhì,"Tân Sơn Nhì, Tân Phú, Hồ Chí Minh, Vietnam",ChIJheFicVYpdTERKl2_c5q2JSQ,CmRbAAAA-jGd0PbgDJiFSKQZLHoIyCk6iW8CJ6B-ojGNV657Zw0fwN5sRP3UKT22aKLoUV7uYVrN_a1rvd1evBrrn6QiZlXGlaSXbn2OucXlPiaQkt0NUXbf3mhKVLnAGxIpXmMaEhDJtHl0JwHccQ6GRDIOJq49GhS5CoIYaj0PpkB5J5Ugb_tpwam3-Q,82f10cebb393947ccf958d00da36e55ec287b4ae,106.630604,10.7997882,106.6238594,10.794272,106.6381072,10.8037991,"sublocality_level_1,sublocality,political",10.79903555,106.6309833,940.702347255142
Thành phố Hồ Chí Minh,79,Quận Tân Phú,767,Phường Tây Thạnh,27013,Phường,,Phường Tây Thạnh Quận Tân Phú Thành phố Hồ Chí Minh,,Tây Thạnh,"Tây Thạnh, Tân Phú, Hồ Chí Minh, Vietnam",ChIJLWwGZucrdTERdU89vU2k9LQ,CmRbAAAAcreq4dUxDngw6dhKwdtfFaUCWEg6YNIs9p4AQTi0q31Vp_85Q3pC-24za3vPykTBbwsn9DbD-9jqAjKgGGtEq51iD-_Ra0WDwYPsWmSDp58CsUnACZUAVgQ4EOWiMPqFEhDs2bPCg39zBHtzYX50YOMNGhSeWCxhITartH1YNgEFaICrMkYneg,38b8ba7183227d6db712ece2df59814871198ef3,106.6261831,10.8122907,106.6075516,10.8036307,106.635747,10.8248758,"sublocality_level_1,sublocality,political",10.81425325,106.6216493,1939.4245505081194
Thành phố Hồ Chí Minh,79,Quận Tân Phú,767,Phường Sơn Kỳ,27016,Phường,,Phường Sơn Kỳ Quận Tân Phú Thành phố Hồ Chí Minh,,Sơn Kỳ,"Sơn Kỳ, Tân Phú, Hồ Chí Minh, Vietnam",ChIJX_oKLOUrdTERwC9TPZNGCNE,CmRbAAAABUzYITUbKfUNbyJz9lL7rAMPFAkb-OBNExfBfNW9UuWAbfcszOOuITWCwc76rI6exVF9rZLvXQJ4dC9EUBARoIVy3Za49SBaVpfmMiIgcQhMz0VKgFi-9TrYxy9qzRR5EhA5H2CJ7AOKjDjdwKq828FaGhSWDt2vo24tUjrY6DfFXOc0jm32KA,90da39ff883a89d0f52fe07020e92c9c0bdc2bc3,106.615868,10.8033223,106.6071224,10.7968014,106.6327,10.8126515,"sublocality_level_1,sublocality,political",10.80472645,106.61991119999999,1650.559129494838
Thành phố Hồ Chí Minh,79,Quận Tân Phú,767,Phường Tân Quý,27019,Phường,,Phường Tân Quý Quận Tân Phú Thành phố Hồ Chí Minh,,Tân Quý,"Tân Quý, Tân Phú, Hồ Chí Minh, Vietnam",ChIJN3HblPgrdTERAZgXviHYSIs,CmRbAAAAe-A60uOayT6koknhUU_O30UUHoffLJQwFkbdVGoVkuqpx_1Ie27ltioY_XIly5vlB2R7o-ceU135h2McOT54w5TX20aJ0icuqjbzbk-USzBg-919VYaK6msc1fjhkR5DEhDBtOI-EZM63gd-6T4yCfTnGhTBmI6HcLJR8tfOx85vFAYktdlioA,b922edb25664f05878484698e563f4f758697c27,106.6217623,10.794826,106.6135597,10.7882014,106.6295242,10.8013542,"sublocality_level_1,sublocality,political",10.7947778,106.62154195,1137.2375090527437
Thành phố Hồ Chí Minh,79,Quận Tân Phú,767,Phường Tân Thành,27022,Phường,,Phường Tân Thành Quận Tân Phú Thành phố Hồ Chí Minh,,Phường Tân Thành,"Phường Tân Thành, Tân Phú, Hồ Chí Minh, Vietnam",ChIJM-sDbKsudTEREdGo0npQms8,CmRbAAAABhHODxt7bQPYwa-OujGpea9NPetrOlQ19Kx9u64Ny97xspL-8OKpqz2vlNoT63nSdmmOoXvEy45waWTuwa2UtptQG7GqFw0qQeFN3G8ke7wWkilix2mUIkFqttxuosJ9EhDcPPQl8TaIDaGdEjgs0rncGhQbCvO1uon0-7eXroFGY432D2wp7Q,b851a3786ab80f8ca8221ed032437214c474dce2,106.6335513,10.7914545,106.6269774,10.7865363,106.6411005,10.7959807,"sublocality_level_1,sublocality,political",10.7912585,106.63403894999999,932.5069155280254
Thành phố Hồ Chí Minh,79,Quận Tân Phú,767,Phường Phú Thọ Hòa,27025,Phường,,Phường Phú Thọ Hòa Quận Tân Phú Thành phố Hồ Chí Minh,,Phú Thọ Hoà,"Phú Thọ Hoà, Tân Phú, Hồ Chí Minh, Vietnam",ChIJ5wT5VwIsdTER0j612k8AWok,CmRbAAAAmuBC4C7VtPLzsut4WV-XfXQMPZzElquJ1tMUni5eTyHWxzFG7nvuJj7Brq8S1i5r4i-aFTyZu312nc_7h8wPCCX4ZGXTivNy0XkVg9xDUgC7btfQqHCzD9TjZ3Z0sSPOEhDXy654R9WWPn-3YqZ6K_MWGhSzyQztpEy8oZlBqiV0ECnjVACwiQ,6fc9c5b42828d8163dc04db64b8fef160ee1e4ea,106.6276567,10.7863307,106.6174436,10.7806342,106.6367127,10.7895927,"sublocality_level_1,sublocality,political",10.78511345,106.62707815,1163.577087865563
Thành phố Hồ Chí Minh,79,Quận Tân Phú,767,Phường Phú Thạnh,27028,Phường,,Phường Phú Thạnh Quận Tân Phú Thành phố Hồ Chí Minh,,Phú Thạnh,"Phú Thạnh, Tân Phú, Hồ Chí Minh, Vietnam",ChIJ68Woph0sdTER5lvydfeM6Wg,CmRbAAAAyza7xiMrBQ_ngq6w_vbqdd1Rv4IFs1HdBBxOq7qw7OMl16ZRELxUfYL4RTkOhJOhn9j5a5Ne824SAgxjMewY7ZaQjynvUth370duGdnCGT-pJRaQCVsQhgaOXM980ZnBEhDz2hFIVqj5ffJVyXHrYiAbGhTpUkEH3vnSLH6rDQZU6VjgwKZZ3g,e4b268ed77215b93e88e264d973d839fb5f985a4,106.6317792,10.7785654,106.6187738,10.7739521,106.635983,10.7848289,"sublocality_level_1,sublocality,political",10.779390500000002,106.6273784,1116.9416025685878
Thành phố Hồ Chí Minh,79,Quận Tân Phú,767,Phường Phú Trung,27031,Phường,,Phường Phú Trung Quận Tân Phú Thành phố Hồ Chí Minh,,Phú Trung,"Phú Trung, Tân Phú, Hồ Chí Minh, Vietnam",ChIJGdPwR7sudTER6ibGfgBxINU,CmRbAAAAv8TBYeAQvNhjIJ9iw-dJDh5qXBrDexujgUVLfkL_9QeIA7CiHnVs8SPKeGfadsCp8y5eicxMN_YpDIcn39FDZxGNB_DblqMrNawBGqGXqJO8eR8HAgNtjM2_qI-Tma-XEhBgM23ygPH9PeslsxCJwfs3GhQv4GH0tRNVlRhrRU5OdNK-_ySTtg,54a9e03046f51c0555d374da9512b9c57ef2ec69,106.6423935,10.7773512,106.6356177,10.7690621,106.647806,10.7848709,"sublocality_level_1,sublocality,political",10.7769665,106.64171185000001,1101.8806249797292
Thành phố Hồ Chí Minh,79,Quận Tân Phú,767,Phường Hòa Thạnh,27034,Phường,,Phường Hòa Thạnh Quận Tân Phú Thành phố Hồ Chí Minh,,Hoà Thạnh,"Hoà Thạnh, Tân Phú, Hồ Chí Minh, Vietnam",ChIJb_EfRqQudTERM8IvIGRgjWs,CmRbAAAAfZ1Wyfk7ONS2Q6hNozqT6nzrH_EOLazEXMz3owK8go56LiCrE38FPyO4odFU1NCeBeMCnxar2ZGa-1rrzSmlC502duxelXch1gS4NDBr-vgOOsYXUmbj7j490PNhlCEuEhDR2iMm5Shpr62qMR03eWm2GhRUPDKy4rhyN3OuP1dpQ3ycEJBgpg,7c14e396a2d16d896a2b1de5af91b75f12a520ac,106.6372355,10.7783152,106.6317987,10.7694834,106.641884,10.7871898,"sublocality_level_1,sublocality,political",10.7783366,106.63684135,1127.3526041130917
Thành phố Hồ Chí Minh,79,Quận Tân Phú,767,Phường Hiệp Tân,27037,Phường,,Phường Hiệp Tân Quận Tân Phú Thành phố Hồ Chí Minh,,Hiệp Tân,"Hiệp Tân, Tân Phú, Hồ Chí Minh, Vietnam",ChIJ24GSjh8sdTER5BoatH1FU2I,CmRbAAAACK1K_6t9rxInS2cTw3NuyOivxTv8nxr55OaE2ZoNpD8zWS39qFCPg6DrNmB7rDnfCpod29bx9oMzOR3Go9LtTuUt0hvHPnTC1gyTv-WvxyXI1_peCpx8VUZeDFy07vwHEhBHmdD70RXzmMZpGg4tqm0mGhQZptRUrLf2tI6Oo2BPfq0z0Xr5DQ,2794e61608678480c48a21af905ea2ec5adaca15,106.6276567,10.7727133,106.6214348,10.7662791,106.6335583,10.7774936,"sublocality_level_1,sublocality,political",10.771886349999999,106.62749655,908.9407979288766
Thành phố Hồ Chí Minh,79,Quận Tân Phú,767,Phường Tân Thới Hòa,27040,Phường,,Phường Tân Thới Hòa Quận Tân Phú Thành phố Hồ Chí Minh,,Tân Thới Hoà,"Tân Thới Hoà, Tân Phú, Hồ Chí Minh, Vietnam",ChIJcynDip0udTERIFmp7tFLeKc,CmRbAAAAuPB-se5S81CJf-H8plvYF8PVG44AWc8AO9xDHDLnnlZufL_Yp1_fhhDkbQte5CFNysyhYHxTVx61vPECbl1IJABmO_x_DhTyeLLpGYiL7zeamRjti-p2kt6bLTkVQ9-PEhBDCsR05X3De_zPsodxwIJnGhTtOCbKcwzbcMKAIep1t7GOd0X-2w,a8fc45054e6463e0969438e97f4c3fe71b5b6590,106.6320777,10.76294,106.6232692,10.7582792,106.6356932,10.7701789,"sublocality_level_1,sublocality,political",10.76422905,106.6294812,947.1375586608583
Thành phố Hồ Chí Minh,79,Quận Phú Nhuận,768,Phường 04,27043,Phường,,Phường 04 Quận Phú Nhuận Thành phố Hồ Chí Minh,,4 Hoa Phượng,"4 Hoa Phượng, phường 2, Phú Nhuận, Hồ Chí Minh, Vietnam",EkY0IEhvYSBQaMaw4bujbmcsIHBoxrDhu51uZyAyLCBQaMO6IE5odeG6rW4sIEjhu5MgQ2jDrSBNaW5oLCBWaeG7h3QgTmFt,CrQBoQAAAI_JZM1_5dlm6uCfnEKo4Y90RXu4oXRLqMEWhXenD-fsMUSE7HTVUIycDDVfNx1oZ0s2RG-zbPXYIVPMsGu3jp2mTSEERQLA2vsXMCmjINIpyyLKjC1qTe4Kr6TFcCIRwdK0lQp2aY4Ir-N6lp0sJRpP0v0pKTKgqf1MpSdnnFL7DZV6c0NC97zchHmxE2z_jwq-RH-2ks31yeQLtvfDhHAfuAob2TrH3dlL8-O0ZGymEhDeRW4eWSOSItiJ2ukh8oPKGhRYg1bT0NQmdBsu1CReFka31JFf2g,7f5c30efb97e60d0688cbcc72bdd47313be6277d,106.6885456,10.7959603,106.6871930197085,10.7946027697085,106.6898909802915,10.7973007302915,street_address,10.79595175,106.688542,210.13098767183388
Thành phố Hồ Chí Minh,79,Quận Phú Nhuận,768,Phường 05,27046,Phường,,Phường 05 Quận Phú Nhuận Thành phố Hồ Chí Minh,,5 Hoa Phượng,"5 Hoa Phượng, phường 2, Phú Nhuận, Hồ Chí Minh, Vietnam",EkY1IEhvYSBQaMaw4bujbmcsIHBoxrDhu51uZyAyLCBQaMO6IE5odeG6rW4sIEjhu5MgQ2jDrSBNaW5oLCBWaeG7h3QgTmFt,CrQBoQAAAHiHzacGa5-ZjBfnBAJCtUNYCsk2L-LnBOnYMibi-SIRUj40IZoGCkfZ4X8SsCRhBWeAddl7t2M604HID-t6W3LwiMf52UOVaV_KRYO_5ySpQRpKUEtj-ucpiS-Tk1qM0IIrYisM5jJJJmydUPtlGkE3RJUqWjOFNxDO-F-me5LQCR75UygiUR3bY-8L2nQpJ6DFSGZKRXhQH1sL3F1q_IDiHvLJzhm3_PlpkfS7AwH_EhABy3ZWHQ1jdOXT1b1vnjOAGhR0JdzoGOo1jrH88at8nC6-m-JuhQ,e35170bf65baee4804a211607e093e2200f941cc,106.6868333,10.796863,106.6854756197085,10.7955175197085,106.6881735802915,10.7982154802915,street_address,10.7968665,106.6868246,210.1306735291754
Thành phố Hồ Chí Minh,79,Quận Phú Nhuận,768,Phường 09,27049,Phường,,Phường 09 Quận Phú Nhuận Thành phố Hồ Chí Minh,,9 Hoa Phượng,"9 Hoa Phượng, phường 2, Phú Nhuận, Hồ Chí Minh, Vietnam",EkY5IEhvYSBQaMaw4bujbmcsIHBoxrDhu51uZyAyLCBQaMO6IE5odeG6rW4sIEjhu5MgQ2jDrSBNaW5oLCBWaeG7h3QgTmFt,CrQBoQAAAIej4ioaUP1Tp0d5XfoPZ3oirB0709AGSPR3yfU0rvootcj6arhGJrB8n-XqYeEp5vLG2gY77IU1z0ZJcFksEYTX00NsG2--QKi8UQgxRPI3uBGOXHSlSRO8Z530COTJIt3UjbKik-EtDROVBCO7IgM6oiAlmdUdi-vg7Ghoe-sDjKKrBBnVYVGOF85w45ixX3jUO-QuRUaqE44geCzP_fApMiJjdM0QyWdh3lL8-PvuEhAAdPcnRWPVqVJ4y9UFuTnuGhS1vWNLDPcXzbBbCwObsQ9L_pk5DA,584f6e0a800926dea17ece10918a75904d70c767,106.688477,10.7959882,106.6871316197085,10.7946477197085,106.6898295802915,10.7973456802915,street_address,10.7959967,106.68848059999999,210.13097223671363
Thành phố Hồ Chí Minh,79,Quận Phú Nhuận,768,Phường 07,27052,Phường,,Phường 07 Quận Phú Nhuận Thành phố Hồ Chí Minh,,7 Hoa Phượng,"7 Hoa Phượng, phường 2, Phú Nhuận, Hồ Chí Minh, Vietnam",EkY3IEhvYSBQaMaw4bujbmcsIHBoxrDhu51uZyAyLCBQaMO6IE5odeG6rW4sIEjhu5MgQ2jDrSBNaW5oLCBWaeG7h3QgTmFt,CrQBoQAAAEpy5pTN_-AOhRdMxTvzmynz1dRvrKPeFVWafrj0m8E_tkoyIfVbu8uKLCPU91Gs0umA3sFa_KeTJeDtkCtGgfjR-0e_P1w7iN7zOoKrliZLx-C81HyEZOUtnk6uUnSgO3eUnBTmn6qA02ymFYO6t9O1OPfXgfiT0g446CAhTqgl7yq2v9wRCZuRXi95-0LU4Z7LWnNr-7IgAqXInE3RB-TrG-HkapCp-oJkCcTFKrVyEhCHt8pZjyd0k79lcKKgpCAuGhQU5mVDdwRKiRdhAqCcDk0ECGCaSQ,157eeca7e26f21b2dd5a4d4de92319e1ae1a0a70,106.6885373,10.7959636,106.6871919197085,10.7946231697085,106.6898898802915,10.7973211302915,street_address,10.79597215,106.68854089999999,210.13098066648814
Thành phố Hồ Chí Minh,79,Quận Phú Nhuận,768,Phường 03,27055,Phường,,Phường 03 Quận Phú Nhuận Thành phố Hồ Chí Minh,,3 Hoa Phượng,"3 Hoa Phượng, phường 2, Phú Nhuận, Hồ Chí Minh, Vietnam",ChIJn6Vp5tEodTERzdfzWYrFvJs,CmRbAAAAlRG0edGj6RO4IQlBvhjeS4EifDAG2bOhYZWfPFfHCeHwMjkgadxHZYdS3xb3P-ls8YNX3sT49qqtlgvHtIfGmDuSTvnOjaZDIaRcDSLXhu5OpZQ2TIY9eBiNi4bLhPmcEhAhNU57JmNMHG_6NGs033wrGhSnnl0HFx_J3l-U16Xcf6LHDGveMg,6184701d399f10b23fc0b2a860fb34d8f579536a,106.6866886,10.7967751,106.6853843697085,10.7954067697085,106.6880823302915,10.7981047302915,street_address,10.796755749999999,106.68673335,210.1307115650811
Thành phố Hồ Chí Minh,79,Quận Phú Nhuận,768,Phường 01,27058,Phường,,Phường 01 Quận Phú Nhuận Thành phố Hồ Chí Minh,,UBND phường 1,"18 Đoàn Thị Điểm, phường 1, Phú Nhuận, Hồ Chí Minh, Vietnam",ChIJ14MsLNcodTER2EdDPMBmY1c,CmRRAAAAsSteKylm1yjr-rDoTje_P45pe57Sn0wplihKPwFK2cDhrL0-86zMK_wPSqqSE7C9OByWaBEsENHw0CxYp76iHIi76xrvlUVHDH5Lie-2l9DAPVHDIkv9ztTcx7hYMxBpEhA5ApAhr9IxIsNHe8L0hbB2GhT3G07Gjbpp_gwmxWe1w_ovdY0GmA,5a45ad998aa2500c3a4fc1fa8d3a2d32eba2d861,106.6818434,10.7988301,106.6804924697085,10.7974792697085,106.6831904302915,10.8001772302915,"point_of_interest,establishment",10.79882825,106.68184145000001,210.12999974033292
Thành phố Hồ Chí Minh,79,Quận Phú Nhuận,768,Phường 02,27061,Phường,,Phường 02 Quận Phú Nhuận Thành phố Hồ Chí Minh,,2 Hoa Phượng,"2 Hoa Phượng, phường 2, Phú Nhuận, Hồ Chí Minh, Vietnam",EkYyIEhvYSBQaMaw4bujbmcsIHBoxrDhu51uZyAyLCBQaMO6IE5odeG6rW4sIEjhu5MgQ2jDrSBNaW5oLCBWaeG7h3QgTmFt,CrQBoQAAAHQhANiYtuOwWrGLrMSiK_mDTyqdcE9CL2TctHD_fGT9uN81QqXoWuFT8vZDnVIPhxL1lTH99WVAPUsBp30lcnHdZbZbnve4z9XaSIT_Bl3ev-sTQCzpZsGIyww5UiRHjNx4X9LGqS-pv0m-sYEbxQfr4Yl_9eWvFoivfNW3LCZn_JuRHsHargeF7Ft3nkViM1NADQOsoiG5Z_lPEYbKADNH76nOGAONY03h3LFNxyfGEhBvcHGEi1xf3asgpSUX9u-RGhSQxUol3-gh8-JHXsnHVjKbyOfodA,9e90b68fbf81084ea1e88d12b2975e5360603f5a,106.6885673,10.7959515,106.6872147697085,10.7945939697085,106.6899127302915,10.7972919302915,street_address,10.79594295,106.68856375,210.1309906948974
Thành phố Hồ Chí Minh,79,Quận Phú Nhuận,768,Phường 08,27064,Phường,,Phường 08 Quận Phú Nhuận Thành phố Hồ Chí Minh,,phường 8,"phường 8, Phú Nhuận, Hồ Chí Minh, Vietnam",ChIJrxg3cikpdTERF0x0IMOu14U,CmRbAAAA6rOItG3DT5NJ798J4MzJ5tjgh4ATbNsrOksjXpO4FYeWfWiqzr1CfkoIAp51ODLJi7DdVFJmDZvbPzsezTofN7xH7xUu9B4Fv9tZvXZOf89N5Ix3YW8qK9SkB7QsF-uKEhCRlanJxg5dOJqOelL9v6oCGhR3KBKIodI-t-blzqH6bHKQbhNn6A,e62a089e3268b3173320a1dbaaece159cf270003,106.6740811,10.7980758,106.6676177,10.7941949,106.6802398,10.8001859,"sublocality_level_1,sublocality,political",10.797190400000002,106.67392874999999,765.1106971438575
Thành phố Hồ Chí Minh,79,Quận Phú Nhuận,768,Phường 15,27067,Phường,,Phường 15 Quận Phú Nhuận Thành phố Hồ Chí Minh,,phường 15,"phường 15, Phú Nhuận, Hồ Chí Minh, Vietnam",ChIJ0XhChNYodTERxswUQvIVET0,CmRbAAAAx38fc4h3d3rrV4txmxw4HrJ2ibBbh0khmeH5ILDTjnevELeZjL4baKANSneiDUnRvjTsMqLb2W-5pg8sJzBZYUui1Q4WA5P6jzgspFCeVAWErSgqAoNtK9-aV-r1nz7NEhDxhTzbUXDFqU75E5zrCXpsGhT51ZWM13D7VkdYVZdEafjtTTJ0_Q,098d73e7e6649ebca6dc9def7c124c132045f1ba,106.679977,10.7950274,106.6778516,10.7930159,106.6819066,10.7993264,"sublocality_level_1,sublocality,political",10.79617115,106.6798791,414.63467327855454
Thành phố Hồ Chí Minh,79,Quận Phú Nhuận,768,Phường 10,27070,Phường,,Phường 10 Quận Phú Nhuận Thành phố Hồ Chí Minh,,phường 10,"phường 10, Phú Nhuận, Hồ Chí Minh, Vietnam",ChIJB6LC8CspdTERs51vMD1Oh_0,CmRbAAAA4ErZtiOvXmMxWWGSmfkfUwS1XbqNxqGQPeTByrav087W-tGsY7WP3XSXsZSEb8k-wtm_UC1iKAMr6AQqxyC4De2KDODBpprQt5iRUfE8J0M8KGRRO37IxT4qV8kDiKYVEhA0fne45YbNjfM80NNdugEtGhS0wSE0L1AI0LQ-WPtLbf6qZVAvRg,d5377c7b973f8aa78284b41f3b59b641938d70e4,106.6711332,10.7955148,106.6672854,10.7911803,106.6749713,10.799311,"sublocality_level_1,sublocality,political",10.79524565,106.67112835,616.4934402228165
Thành phố Hồ Chí Minh,79,Quận Phú Nhuận,768,Phường 11,27073,Phường,,Phường 11 Quận Phú Nhuận Thành phố Hồ Chí Minh,,Phường 11,"Phường 11, Phú Nhuận, Hồ Chí Minh, Vietnam",ChIJuX7S9SopdTERgUJxfW-yXJg,CmRbAAAAXm07t0WdxfU7wuwAbLlCj50cgef6CDI1lmVWIi3A8EislhB2m9vm9iikQiCiyUmxTamTNaqoG8fpBggMFCNudG0ZjNcUm_4eZIUkqguWjsfQHx9Vfe1dEDn5B64hGMg4EhCBYBbJ0BT0e54A88ChzEQ8GhTbFGgYh25le-Wv2dyyvq0s7RHuPA,3bdd09138fd2a1c7ef2acb5b737f7fd4de14fcee,106.6740811,10.7926289,106.671971,10.789915,106.677018,10.7963419,"administrative_area_level_3,political",10.793128450000001,106.67449450000001,450.9964013178829
Thành phố Hồ Chí Minh,79,Quận Phú Nhuận,768,Phường 17,27076,Phường,,Phường 17 Quận Phú Nhuận Thành phố Hồ Chí Minh,,phường 17,"phường 17, Phú Nhuận, Hồ Chí Minh, Vietnam",ChIJbZ-bkdModTERc8TJ7B5af8Y,CmRbAAAAzmWHotpI3xSChxkW_nIYl2c2oNNGvnblDhyEy_aqMs_fZDaDVPv0Vt4LHpFd714LjbcOF_CH-pfoaV0uDk5FB22qxffL-SZ0UI-xC5AXf4sobAXRcrmRo7WgXlBQqhlBEhBdF0rmffP1fVFy_Vm34CGPGhT8GjBJ7M8IG71Jg_7qqT2B3NyIOA,2fdbc578c7bcf51dcd3fba94bdca92950c824ce6,106.682925,10.7935032,106.6800024,10.7916689,106.6861198,10.7958771,"sublocality_level_1,sublocality,political",10.793773,106.6830611,407.6160464184676
Thành phố Hồ Chí Minh,79,Quận Phú Nhuận,768,Phường 14,27079,Phường,,Phường 14 Quận Phú Nhuận Thành phố Hồ Chí Minh,,phường 14,"phường 14, Phú Nhuận, Hồ Chí Minh, Vietnam",ChIJG4lyxywpdTERlOpY2SFdTgc,CmRbAAAArV-rpS2d-rLObFShSeLettSxlpey14f5-rh0HktCxgLXMxMTq6tHLKsS5vndmGwrsN-gC79EAoJp5tYtrHRFEmj8vE-c889s1Fus4d9XdccwQznrd-jWQzUO2o8w6vZtEhBCuQrAnjMyCupreCacKSNpGhTPF3wlJCBpIkjCF323bENWoYAY5A,130d605ac72a19a29dfcef96116bd05a3513808c,106.6681854,10.791592,106.6660376,10.7893816,106.6715619,10.794107,"sublocality_level_1,sublocality,political",10.791744300000001,106.66879975,399.809597776863
Thành phố Hồ Chí Minh,79,Quận Phú Nhuận,768,Phường 12,27082,Phường,,Phường 12 Quận Phú Nhuận Thành phố Hồ Chí Minh,,Phuong 12,"Phuong 12, Phú Nhuận, Ho Chi Minh, Vietnam",ChIJOduoA9UodTEROGNY_cCSPm8,CmRbAAAAiZIQssUHD11v2pnIDbtD-Xf1_PIdSzPvuBSKS_V1cm2-KT0SiOhs1DD4tI3q2wTOZwsZ-85RiJzUbMWYoLqskdGJXPs5vPVTUk5bAbPm---CWjyd2vOT1I2ZXbD9ahGTEhCJUdXOS2yHfPXOo0iw7WeDGhTS-pEsxO5EZpfLCcS0aM2QYnvaAA,2a6613e2dca8cf90312fab2ea4a6207f9ea720c6,106.678503,10.7923853,106.6740727,10.7904301,106.6819138,10.7946382,"sublocality_level_1,sublocality,political",10.79253415,106.67799325,487.6719858956352
Thành phố Hồ Chí Minh,79,Quận Phú Nhuận,768,Phường 13,27085,Phường,,Phường 13 Quận Phú Nhuận Thành phố Hồ Chí Minh,,phường 13,"phường 13, Phú Nhuận, Hồ Chí Minh, Vietnam",ChIJv-lup9QudTER7d6qGke5s30,CmRbAAAAYA1y1ByluqTuW2EwIJCK9aRtKbTa590fS92qc7tt53MvfjWXEGd8NffYtR8vcgDrYSfx113cA_Xxo-hzLs2sjVl_SIMXKObsZflLbtB6BJz-TP6PJv6_Q_da9H53V_uGEhDDuXQsTgr12dvV2YhOrymzGhRpyAX-9SUcuWnaEmR9aLEGFOhdIw,70072ea1b8791489d012ee46f61a475a3e928571,106.6711332,10.790068,106.66691,10.7878515,106.674078,10.7918451,"sublocality_level_1,sublocality,political",10.7898483,106.67049399999999,449.7777609675598
Thành phố Hồ Chí Minh,79,Quận 2,769,Phường Thảo Điền,27088,Phường,,Phường Thảo Điền Quận 2 Thành phố Hồ Chí Minh,,Thảo Điền,"Thảo Điền, Quận 2, Hồ Chí Minh, Vietnam",ChIJg0UOWD0mdTERY9Cuw0LgJW0,CmRbAAAAa2fk4_SYWtDgI-H17MnACfltNGD0RCOMeQCvAuLdgoQ5jxQRpkGvUnN0RUUw54NFHwBigTAJuegNZIxKGME3iH8RrzJFCX-x81UxJo3yT37g2AI-SqN7mHF6gqo7Lv0WEhAta4s47PTfzA6VFX7zfdybGhSG5Kp5brJKCDCMPTizrC9KZl2gUA,3bcfed096437a97114fe8bde224a3f8d93609241,106.7323097,10.8064331,106.7223072,10.7989092,106.7485292,10.8196068,"sublocality_level_1,sublocality,political",10.809258,106.7354182,1835.9396279706134
Thành phố Hồ Chí Minh,79,Quận 2,769,Phường An Phú,27091,Phường,,Phường An Phú Quận 2 Thành phố Hồ Chí Minh,,An Phú,"An Phú, Quận 2, Hồ Chí Minh, Vietnam",ChIJ3YQxCmomdTERZ6GMYY6A5Vo,CmRbAAAAaJN7dKOwWz44_WjcFzwveC4EcpuUopwWRiL24v8QymUWlZ4-Xl5FQH_SgVRHDlOBiL0LZlUq4v6giEVzYW4YdIUFls4tgL3me9FurCBkI-NfkX7odQIP1fgvzwSeFKriEhDsIeD_da9X78HsEPzNhEtxGhSS-fXNvMEa8xNQIvhH3Z13OmKyBw,8765606783195f23e11c3bfcc42e5c1017463e25,106.7647475,10.8019128,106.7322958,10.7808683,106.7809881,10.8146539,"sublocality_level_1,sublocality,political",10.797761099999999,106.75664195,3253.7661178266553
Thành phố Hồ Chí Minh,79,Quận 2,769,Phường Bình An,27094,Phường,,Phường Bình An Quận 2 Thành phố Hồ Chí Minh,,Bình An,"Bình An, Quận 2, Hồ Chí Minh, Vietnam",ChIJkQP9jQYmdTERKr2r1FLv3HA,CmRbAAAAoyaCLm0AbfOJJVvJIcXUIwlW5YDjPvjj6Ry0iv0z6dR_ncwOp0REUr3Vqhms0QNZ-1v5hSJ9lUK3WzwiIrgKuIebwchK2t6tBMYeeGOiNaptlHbufp0Fh_V7Ff9XkL4HEhBBp7OAUGPPXpp9k8avvxc_GhTgl-_hMIOh4ip0eOH0yndBQIHOdg,b5ee1cf42f4d7395dd2c643f161fa938e4711db8,106.7308354,10.7915388,106.7209983,10.7824683,106.7380357,10.7998788,"sublocality_level_1,sublocality,political",10.79117355,106.729517,1341.8456130706613
Thành phố Hồ Chí Minh,79,Quận 2,769,Phường Bình Trưng Đông,27097,Phường,,Phường Bình Trưng Đông Quận 2 Thành phố Hồ Chí Minh,,Bình Trưng Đông,"Bình Trưng Đông, Quận 2, Hồ Chí Minh, Vietnam",ChIJRz_kVJsmdTERY174s462MN8,CmRbAAAAAVtckRJsbEnA8Ze5TI6JRSzcrkiB0P3ZlTOWqQ3fxj1tZmb0VsQlO76x35aN6ojHNlxNfz8Dksqly6NFo6VOzkfA1ynD3SPkY4q6NGj_q7rpA26wR_Rv-lY938eeHD-xEhD30FEyD5dsVjZAwMqnoaliGhRmY7YN23qTcAr8BLk7zw3feNVCRQ,d382cd5bfc5811283a4464dc54df30a7c6e529c5,106.7794935,10.7874838,106.771587,10.774693,106.79354,10.805774,"administrative_area_level_3,political",10.7902335,106.7825635,2101.921658069432
Thành phố Hồ Chí Minh,79,Quận 2,769,Phường Bình Trưng Tây,27100,Phường,,Phường Bình Trưng Tây Quận 2 Thành phố Hồ Chí Minh,,Binh Trung Tay,"Binh Trung Tay, District 2, Ho Chi Minh, Vietnam",ChIJ6aZ3TtgldTERG4wxB_kbjxA,CmRbAAAAKbSnHZVcDkxWEP0shK0tdMnya88p-l-ixMwGyZLe94sFCzNe2bQN1UTwfW3xgc_frDG4wlneRVzYRS3L2YOUgMxwFA8OzBhgHcm2r7__ZVl4MvJ-sQMC-Wh-gqHjxWEsEhCjpC5vuygUS9bpgNC_PwCPGhSon_xmLAtrBK4vvEaFtdWBeu515A,28368d430b0b1bf6fb05bc658ce50fedc37476ed,106.7603239,10.7844627,106.7434645,10.7729825,106.7691107,10.7925904,"sublocality_level_1,sublocality,political",10.78278645,106.75628760000001,1773.8268667270327
Thành phố Hồ Chí Minh,79,Quận 2,769,Phường Bình Khánh,27103,Phường,,Phường Bình Khánh Quận 2 Thành phố Hồ Chí Minh,,Phường Bình Khánh,"Phường Bình Khánh, Quận 2, Hồ Chí Minh, Vietnam",ChIJITpQbuMldTERuqW_nuB7iQQ,CmRbAAAAiRyupbzHrk6SPbGvnLqDFd3bGpO29RfeCQuPQKffXo4M4OIJ109_99plFPtDbROke1Ra1eHmnMk2pXuhySBng9RHaBw1X1UT189n3af_VVxsV9cid19U0_9DBbWl0R5nEhDDbyAZhm1uIRGSeiZQtUQRGhTVoes8g4XH33D61TV_0_8t9lSzqA,f038a3e6ed777bfca289ba023a5726aeda462cec,106.7367328,10.7830453,106.7266429,10.7765359,106.7480119,10.788538,"administrative_area_level_3,political",10.78253695,106.7373274,1343.5473382843745
Thành phố Hồ Chí Minh,79,Quận 2,769,Phường An Khánh,27106,Phường,,Phường An Khánh Quận 2 Thành phố Hồ Chí Minh,,An Khánh,"An Khánh, Quận 2, Hồ Chí Minh, Vietnam",ChIJG5SRJlcvdTERr9UtcdjJn8w,CmRbAAAAHYdnASAxnYS-keSFTtl7K6x4cVj_dE9AZEhWdUPu1DBndkOj-gef5U5PbThmUCaC5wWrLpXA7L4Iia7US2F_1TdqsJLE0xUdAdG69h984d5vzRr5QMD1PrgBLlvUCjqAEhDIX3wogTNZ1kw22F1o0jY2GhSF9OrXvkLc08BCMpnTYGZaB5W-xg,8b66116484c24c76890aa82191027671cb152888,106.7160926,10.7814628,106.7083168,10.7746267,106.7276219,10.7869159,"sublocality_level_1,sublocality,political",10.780771300000001,106.71796935,1255.6141815146298
Thành phố Hồ Chí Minh,79,Quận 2,769,Phường Cát Lái,27109,Phường,,Phường Cát Lái Quận 2 Thành phố Hồ Chí Minh,,Cát Lái,"Cát Lái, Quận 2, Hồ Chí Minh, Vietnam",ChIJbdQNMzokdTERXfIVOC7FJcI,CmRbAAAAuif0w36w2cup05UwqOOCE_ReUc09qIy3O1386KVhCznSZx6DMBLl4YKu6IrG7ag56Dg2W0xFSa98MiWgvS9pVP1Ac7r2KXpXJ7HIbIGbXgnaLYwJARcyLU0jUMQ-8xRoEhBH7PuX2qE5x0Rla5yBnffkGhSt8l5PAAZrOzf2rjBQpA-lEcObhQ,237f2673d42e019663b260118d2dc6c0d28e61b1,106.791291,10.7705001,106.760904,10.755617,106.809583,10.7824409,"administrative_area_level_3,political",10.76902895,106.7852435,3046.6003815840695
Thành phố Hồ Chí Minh,79,Quận 2,769,Phường Thạnh Mỹ Lợi,27112,Phường,,Phường Thạnh Mỹ Lợi Quận 2 Thành phố Hồ Chí Minh,,Thạnh Mỹ Lợi,"Thạnh Mỹ Lợi, Quận 2, Hồ Chí Minh, Vietnam",ChIJGTJGh8oldTERk7CY3BswwdM,CmRbAAAAs2e_-3gHEXpKfNxupneSdQ4iehs5Ao_VZvRN41tD-EyeqjkL4lCyf6fjP0Sh6M3OO1-A0j61Df9hAk2xMN6xYHGV96-HvaMhLZu96gjhskPebZC5mtskKbje59pjticCEhD_s9ZOowuAAxiRT8rqYnO1GhSwdy4hNA5TrmBW1vEjyQtJmT4d0w,0b0cc8ede3c2f6875dfc63ccadee82bfc7385fed,106.7647475,10.7583621,106.7444087,10.7404762,106.7909718,10.7837856,"sublocality_level_1,sublocality,political",10.762130899999999,106.76769024999999,3500.166201465559
Thành phố Hồ Chí Minh,79,Quận 2,769,Phường An Lợi Đông,27115,Phường,,Phường An Lợi Đông Quận 2 Thành phố Hồ Chí Minh,,An Lợi Đông,"An Lợi Đông, Quận 2, Hồ Chí Minh, Vietnam",ChIJvWff6fUldTERzBotzVlKaqQ,CmRbAAAAuzVFt_62wsYR2WR8z20QvlzYfXB4BDHTs2dXl0uyL_tuB7-vJYu1sJ-Gx_bb9KBWsbe5pPTvBGeKfy_azbWT5DFesAY2olmF1e71NAv5Y-4VahHfAVIRGDuQlDK3nZO5EhA9xHOWQZKME0q_xQWk96vzGhTiOuc4z7uvbFIQeND5jMgka1Cpzg,b71f9c23bbf77db6ae9a6290ed550b260dfdbb97,106.7264125,10.7631993,106.7135096,10.7589432,106.7366409,10.7803697,"sublocality_level_1,sublocality,political",10.76965645,106.72507525,1735.3741207550263
Thành phố Hồ Chí Minh,79,Quận 2,769,Phường Thủ Thiêm,27118,Phường,,Phường Thủ Thiêm Quận 2 Thành phố Hồ Chí Minh,,Thu Thiem,"Thu Thiem, District 2, Ho Chi Minh, Vietnam",ChIJ92gRql4vdTERi1jaXvhMVCI,CmRbAAAA-v7jLWYQa75mehXRDHoumM_cGFdSxhp94OieF4ectof1Brx-84_4ORDDsYk6C2hJtIFpH3TkVoPSiWZoBj_2IXQbmQCuojNqxIjLHHK_xT_6SrTWP3D_y5Z9FNXAgIWmEhCput_qPZb_t2bCFKPe-clDGhSp4RX-d4da5yDfgUe-2drrgFZmqQ,194063a7922fb32e3e1b9a10f1a5c97c2bc539a8,106.7160926,10.7732956,106.7080487,10.7631805,106.7258262,10.7788426,"sublocality_level_1,sublocality,political",10.77101155,106.71693745,1303.4256934941025
Thành phố Hồ Chí Minh,79,Quận 3,770,Phường 08,27121,Phường,,Phường 08 Quận 3 Thành phố Hồ Chí Minh,,8/59Bis Đường Cao Thắng,"8/59Bis Đường Cao Thắng, phường 5, Quận 3, Hồ Chí Minh, Vietnam",ChIJJQZhAyMvdTERpLf3nRLYXuA,CmRbAAAA8XgxCnKI3OcHMfalF8eMHSzrCOP2Tt1-zNKIRSjJm4eP29vUENlUwGSh-uggbaazbLyIYU7Wnaf4g6o1Few2rbxAaxRx4BLwD5K9eSBEjK4Ius4QyhvF1ed83KPZs2HdEhBV-mjuTGkhHThDOew6pFPPGhSkPRIJ_-kXESol6CXLAudIDIrBGA,cbef44da8d61fbc629853f217f76bb520649e44b,106.6857666,10.7712114,106.6844176197085,10.7698624197085,106.6871155802915,10.7725603802915,street_address,10.7712114,106.6857666,210.1394741932414
Thành phố Hồ Chí Minh,79,Quận 3,770,Phường 07,27124,Phường,,Phường 07 Quận 3 Thành phố Hồ Chí Minh,,80A/7 Đường Cao Thắng,"80A/7 Đường Cao Thắng, phường 4, Quận 3, Hồ Chí Minh, Vietnam",ChIJcQ8LhCEvdTERulEBEcfXi50,CmRbAAAAH3SyiEUugyhNQSKcrVSbFHcbdzX8z0YT0a7inv3hCzxDxnxA-fEKRodI_YMJzpt6SoqhW3sMk91csNYXQswqnS0zexJ2-BJln51VSF7yeEoMgXVp1m3wB-sWBu1UhW-yEhDWYgRGVRL_9OFIFzBnhMf3GhQmIseha0eAc7QHewfsUtisEfBq5A,5688b5a1c0041688f623608a673d273163f4d3c5,106.6817368,10.7707505,106.6802868197085,10.7692930197085,106.6829847802915,10.7719909802915,street_address,10.770642,106.68163580000001,210.13966929042783
Thành phố Hồ Chí Minh,79,Quận 3,770,Phường 14,27127,Phường,,Phường 14 Quận 3 Thành phố Hồ Chí Minh,,phường 14,"phường 14, Quận 3, Hồ Chí Minh, Vietnam",ChIJGVYj5CovdTERHwJtqNjaT30,CmRbAAAA1QNqkUr9AKWfYld5Vy75nmjOnwMM8ORXe9H6c2wQNjgH7trRNQpYfb348O0RlNmZPUXEx9rgRDrC0Se3iheJt2GgHKcg6K51MiQeEKt-L0TtazCIYvyULBMQaVb6DQiWEhCSdfeR4Sf7oMc-ctPgUOF8GhRhVfrzdX7GOCdveTy9KozpeH8jZw,4893cac6c1d1571c198f168a73ec778ff8b5d70a,106.679977,10.7895808,106.6737447,10.7860305,106.683383,10.7914054,"sublocality_level_1,sublocality,political",10.78871795,106.67856385,604.9232548048047
Thành phố Hồ Chí Minh,79,Quận 3,770,Phường 12,27130,Phường,,Phường 12 Quận 3 Thành phố Hồ Chí Minh,,phường 12,"phường 12, Quận 3, Hồ Chí Minh, Vietnam",ChIJn4s7qdUudTERuFP45axKsKE,CmRbAAAAxO42zLIaY8ryOikJyLrfkHnXsnb8dSLCD5U2OLWJ7zYRyPg2VEuUeI-cd3LUuERkz4Ze2be1GX9Ce_5dXesk4v8cO3jaf64OX0K1kMzSitdfUWvhBTEKI0ddee3N5xQgEhA5AbXIsYJrFM-RTRkENNY9GhSpHn9URVXLXSeB3gGgNObdCPkr-A,9f2bfeb43f2517d2fc5d2dfc76c0d06dd4851d58,106.6740811,10.788544,106.6712701,10.7855246,106.6763879,10.7901351,"sublocality_level_1,sublocality,political",10.787829850000001,106.673829,379.01314970628624
Thành phố Hồ Chí Minh,79,Quận 3,770,Phường 11,27133,Phường,,Phường 11 Quận 3 Thành phố Hồ Chí Minh,,phường 11,"phường 11, Quận 3, Hồ Chí Minh, Vietnam",ChIJpRLp9NMudTERDVBZOk4r85c,CmRbAAAAfq5F0dubkWA6dN57RX9QFJZShMcQEFLA_Rrq-NLOPe0MLALvmgsvrQJ41s4G3E1wGmx4i6vRm-2idN0loTYSJMUngqlevoCv-dJtwDD6Y-VBDDa4gcw9QVDlVeTxNp0fEhB5xvnTv6I3YjD1XwLO8KfpGhS-QAnykyeKYYLmwQ8O9VZC9ckAAQ,84c6b240999188439338bb06a9466cbf91471a31,106.6696593,10.7860642,106.6646504,10.7828624,106.6761581,10.7899511,"sublocality_level_1,sublocality,political",10.786406750000001,106.67040424999999,741.3805480261833
Thành phố Hồ Chí Minh,79,Quận 3,770,Phường 13,27136,Phường,,Phường 13 Quận 3 Thành phố Hồ Chí Minh,,phường 13,"phường 13, Quận 3, Hồ Chí Minh, Vietnam",ChIJOajWSiovdTER5cp_eiWkIiY,CmRbAAAAGzGxHAv_1d98wbLDXKE-Nv2hzI4jlrajtFvufwYxvvI4DHJLYzvvR-eRC3mq21zP6nXCXJgEd88d8ZOZaEgtQ4GyZ0W1vw4cGyEZWSRTTW41Chy1ktVi7EEQlTlAqHhVEhCu9JHuxeW0S7jfdssSGZOvGhSA7BJ9B1guTWAosJszuoGbGaZYNw,b41dfbb083ce216d0f4f5d7654e0769e5fa791d9,106.678503,10.7855773,106.6758943,10.784302,106.6811515,10.7887917,"sublocality_level_1,sublocality,political",10.78654685,106.67852289999999,380.2189255857122
Thành phố Hồ Chí Minh,79,Quận 3,770,Phường 06,27139,Phường,,Phường 06 Quận 3 Thành phố Hồ Chí Minh,,"3 Khu V, Đường số 57, Phường 10, Quận 6, Tp.HCM","3 Khu V, Đường số 57, Phường 10, Quận 6, Tp.HCM, Khu V, phường 10, Quận 6, Hồ Chí Minh, Vietnam",ChIJfRUel9ktdTERiOVmgAS9ADg,CmRbAAAAIq5nT2Bux-UatPuLGWGpgRw457w9LycH5f2TOya_I0rLVbRxqprqLwS04AlgEmB719XT5o-dgzgoNbXQiOKACzszrYaOooqPuiqWkFOeuSDMDJkSmCX63OC3w3g9iTB8EhC8uRj0i3CLhlsoNPY6GzMVGhRlJGBQWoNf_MoL9zxf0199u7UH5A,d6df5a85b5e8bd5b6358e19bb6c2a6cb4a077a8f,106.6244505,10.7369775,106.6231015197085,10.7356285197085,106.6257994802915,10.7383264802915,street_address,10.7369775,106.6244505,210.1511860742731
Thành phố Hồ Chí Minh,79,Quận 3,770,Phường 09,27142,Phường,,Phường 09 Quận 3 Thành phố Hồ Chí Minh,,09 Đường Cao Thắng,"09 Đường Cao Thắng, phường 2, Quận 3, Hồ Chí Minh, Vietnam",ChIJt7-HCyIvdTERX59jyjlE9bY,CmRbAAAArC6SRGIcThC_k-xFKTqeStlF4u4nKXypFVgJtsH8VOlKotI8RfnPNIaHvhd_4PXTGV9YVN0ef7POYvvvylELZQWAxi46RUY2Zx3kN1a6c13Rd6KhK93X8dQk_shiSy_4EhCCHeyNt_QsK7lQtuxwP5Z3GhSl7Fm_YDSJ--5-Q-KHzriAOoh9wQ,103123371e826672a95d8e666023335644a66a04,106.683438,10.7686228,106.6821543197085,10.7673437197085,106.6848522802915,10.7700416802915,street_address,10.768692699999999,106.6835033,210.14033710726758
Thành phố Hồ Chí Minh,79,Quận 3,770,Phường 10,27145,Phường,,Phường 10 Quận 3 Thành phố Hồ Chí Minh,,phường 10,"phường 10, Quận 3, Hồ Chí Minh, Vietnam",ChIJ-aVK4dcudTERKaTDgccR8EA,CmRbAAAAo16q6PWPlIZqt51aurFUkiFOdIl8oujjWAu3W52CYK2sG-KPkwOEpzDyYpvWrcnLTNNQb2VprIRcfzkkS2GoEIR93EZs-1DQcEaA6CZdHqGT3V9E2GQn7sqoBqaJ-b8jEhC6hAedlfz_g8a-K2I5WKFpGhSWxBFKh84it_krHNuyYl4CDj4QJQ,d05c376a3e9a98ac3894d409caa5eee706c451d5,106.6766605,10.7812538,106.6714721,10.7785469,106.6810012,10.7841966,"sublocality_level_1,sublocality,political",10.78137175,106.67623664999999,607.5055049212262
Thành phố Hồ Chí Minh,79,Quận 3,770,Phường 04,27148,Phường,,Phường 04 Quận 3 Thành phố Hồ Chí Minh,,4A Đường Cao Thắng,"4A Đường Cao Thắng, phường 5, Quận 3, Hồ Chí Minh, Vietnam",ChIJ5bKrcyIvdTERXw4WFpZvwyk,CmRbAAAAO4aRAPsTD55GC65fE8PVoAZSS-koH31liCoZ0FC3U3kEBRepFu0SXCEhC2JcxFDW27bIAEFdrtZyviFgBiMd7YVVthxZoY4a7dgQ11Rfemow1vXLvu0RagbAT70a-0FREhBV8ySzVHaQKwEHJTbafugPGhRi7rFEZ1bj_E0lLwhGm_mSBE0T5g,edff222e142b16b0a30da11659ebaad536460b29,106.6839393,10.7687584,106.6825108697085,10.7673201697085,106.6852088302915,10.7700181302915,street_address,10.768669150000001,106.68385985,210.14034517574248
Thành phố Hồ Chí Minh,79,Quận 3,770,Phường 05,27151,Phường,,Phường 05 Quận 3 Thành phố Hồ Chí Minh,,32/5A Đường Cao Thắng,"32/5A Đường Cao Thắng, phường 5, Quận 3, Hồ Chí Minh, Vietnam",ChIJX0uAFiIvdTERbY-EaZm342E,CmRbAAAAxDVgp-4M8996QYKwWzI7yqe04wU9b9WWo8Susti1_VV6WP6ZpoZ5PnAjo4UNNRtsKieOFScxn_g1fMxU9waSbdjkrLpTghIX7LYT1tKa3oHJSs512Moz_vMqIfOLx8viEhALylymcR5lOKo3tNzBpx5hGhR85hBWPEdhhm1BHJswmmByJEIldg,d7a5831a6bd48bed8e44ca7f3a35b35421410e24,106.6832863,10.7694773,106.6818223697085,10.7679943697085,106.6845203302915,10.7706923302915,street_address,10.76934335,106.68317135000001,210.14011421336457
Thành phố Hồ Chí Minh,79,Quận 3,770,Phường 03,27154,Phường,,Phường 03 Quận 3 Thành phố Hồ Chí Minh,,3/8D Đường Cao Thắng,"3/8D Đường Cao Thắng, phường 5, Quận 3, Hồ Chí Minh, Vietnam",ChIJi3ZS4SIvdTERhhL0ZWMVhss,CmRbAAAA1-TJaZMqt3EKNBY9DkyQU8iDagkwjzlYg8jdi_0N7WT3xfb5_lXyROwUoZ4WJSoyJ8PemLmcPpQpFct5Q99slZDElaSKT2CV3-rgX2APDzaQ7o3kyy04jCQ1n5kd6bkwEhCSJ39vdoJYyOKnUsn1W3S4GhSsTafSaeEM7k2mHxbUO3eshe1l1w,ceb99694773e5611da94978c697e1779a061adab,106.6862868,10.770528,106.6849378197085,10.7691790197085,106.6876357802915,10.7718769802915,street_address,10.770527999999999,106.6862868,210.13970834951576
Thành phố Hồ Chí Minh,79,Quận 3,770,Phường 02,27157,Phường,,Phường 02 Quận 3 Thành phố Hồ Chí Minh,,2 Đường Cao Thắng,"2 Đường Cao Thắng, Quận 3, Hồ Chí Minh, Vietnam",Ej0yIMSQxrDhu51uZyBDYW8gVGjhuq9uZywgUXXhuq1uIDMsIEjhu5MgQ2jDrSBNaW5oLCBWaeG7h3QgTmFt,CqQBmAAAAFCkrauezPmzB2bfn2T4SXuGg_hR6CM5byG8SOlayzUI2r0GGbWJ-6Q3kqSznv8tM6bnfIZLFjm8y_lndJGh4k5Jf6sRW2ywNCzcf6uWGzlyjmqkvoqfwDjymZRHQXY0IkDuhGrUuJ-pJjsbSuTFtsrA9E7nnWWvAaZwUElG6GPhW06cWKgGs47uQ7DZICi_0_r51tiA_sicV4cM1NsPn2kSEKWQtt1ucEQy191bbi0x4HIaFEioypbDX949tlTQ0GfBigHcXKTt,c39c82aaede26470ee7a067c3e2ab46a9eb1d954,106.6846702,10.7690205,106.6833212197085,10.7676715197085,106.6860191802915,10.7703694802915,street_address,10.7690205,106.6846702,210.14022481420415
Thành phố Hồ Chí Minh,79,Quận 3,770,Phường 01,27160,Phường,,Phường 01 Quận 3 Thành phố Hồ Chí Minh,,01 Đường Cao Thắng,"01 Đường Cao Thắng, phường 2, Quận 3, Hồ Chí Minh, Vietnam",ChIJ-1r1dSIvdTER4ZR50j-lqkI,CmRbAAAA-vacI4CK4eCgIWujwd7-rX3WrdboPAy97lRaXkJTQJ5hLmBhwGcMUjNQDQv0iDSpWFKQlLEaBHWnMsm9zwgN3DBSgpjMyhcB1wla7lVCUSBNdm5s9BHI872HBBe8HK73EhAydiGWkIy0PX5GwpdZO_ljGhSytn-HxDdp0e1PRdJncUBqTkwBmQ,f0906b2a51a3a81df36f32373e4eb856d1bd34f9,106.6839418,10.7682626,106.6826378197085,10.7669679697085,106.6853357802915,10.7696659302915,street_address,10.768316949999999,106.6839868,210.1404658236677
Thành phố Hồ Chí Minh,79,Quận 10,771,Phường 15,27163,Phường,,Phường 15 Quận 10 Thành phố Hồ Chí Minh,,Phường 15,"Phường 15, Quận 10, Hồ Chí Minh, Vietnam",ChIJD1_kF84udTERG5D5eUFXBvY,CmRbAAAAQ_DhOE_HLlQWeXRBtz2RBtMZLB9whIo1cKdyUHq_G8kpqO0ePqc22QziEw_0zqNubzgQrW_wF4vifCL42Fzo8KbxS2FQAg2OD0LBPYeqtTdFtKSADlI4k9a0TWh3uceXEhDPMYNV7g-ww1vdXoDAeMPAGhRDdD8aPhgOCjatrFdW5BlDrr0jPg,532269205285672305d36c078627e339945d4eeb,106.6659746,10.7815015,106.6599424,10.7764221,106.672022,10.786996,"sublocality_level_1,sublocality,political",10.78170905,106.6659822,883.1131583071325
Thành phố Hồ Chí Minh,79,Quận 10,771,Phường 13,27166,Phường,,Phường 13 Quận 10 Thành phố Hồ Chí Minh,,Phường 13,"Phường 13, Quận 10, Hồ Chí Minh, Vietnam",ChIJi7qX-9kudTERKSVl9lNYRPk,CmRbAAAAlnCJaH6I1tsMs4UrlEC0sVCW9GbLg6eY7yoJZ7i6nZfQwi7xImTmIIL5t0J4dVaOBB-bi9tWm6Wfb5r81vRGuOUltaFeONGpBO7IAQnwf-ZPNEnE6_V8YrVC94UzErAKEhAXztCFWNlLqNxM4KzG76iBGhQpyiEzZSBfKO2ozPRFhbSFZQHEIQ,111ff966d4674e20b5e097ae70c5519e9f8d7869,106.6696593,10.7792565,106.6645875,10.7751933,106.6770773,10.7829263,"sublocality_level_1,sublocality,political",10.779059799999999,106.6708324,805.8295528698497
Thành phố Hồ Chí Minh,79,Quận 10,771,Phường 14,27169,Phường,,Phường 14 Quận 10 Thành phố Hồ Chí Minh,,phường 14,"phường 14, Quận 10, Hồ Chí Minh, Vietnam",ChIJQXLZCcMudTERMPo31J-3ty0,CmRbAAAAMPqn7fbwEEmNOaBh6Da9S3Y97EkxPBTuU7jotY7Up7PufOXm-Sn-6FEidetY-zBnH-6fIlXiTqtJfOt6P2iVfIrCj1940RTFmxLM2Ce3X_Lx3lq-avIPKK6MOLArNJ4gEhBW8tchMlr0Wz2i7tuU0uUNGhQiYXd3r51prL1QI9CgS1xk0uueDw,c775eeadf49b9f6319752046164035c04231020d,106.6600791,10.7709337,106.6559957,10.7638591,106.6677477,10.7823213,"sublocality_level_1,sublocality,political",10.773090199999999,106.6618717,1209.8623934411705
Thành phố Hồ Chí Minh,79,Quận 10,771,Phường 12,27172,Phường,,Phường 12 Quận 10 Thành phố Hồ Chí Minh,,Phường 12,"Phường 12, Quận 10, Hồ Chí Minh, Vietnam",ChIJPSW41d4udTER6YDRDXqqStQ,CmRbAAAAAhrqGw9CeacDjbnRd5iJA-P7TGUI-LV1f1h6nqWPM4G3jcnNqBL9cDjb4O3OLT5Slv_APXibZd_UO3S7bAnUIfNpB2iAyD1FhponH42CsfuT2KTulKvyx5sklpiFTnflEhBWk0YA4zbHnlaxHvgDV-cdGhRz1eOd_Ti7w6IIvDfuElJ9HC8pDA,0d373315aceebc364e501dfbccc0f6dee06e79d4,106.6718702,10.7730084,106.6682979,10.7700563,106.6813681,10.7802164,"sublocality_level_1,sublocality,political",10.77513635,106.674833,909.7503891201582
Thành phố Hồ Chí Minh,79,Quận 10,771,Phường 11,27175,Phường,,Phường 11 Quận 10 Thành phố Hồ Chí Minh,,phường 11,"phường 11, Quận 10, Hồ Chí Minh, Vietnam",ChIJ5QeSzCAvdTERpmnUFBHT7Gw,CmRbAAAADBKu8l9a0xZcMAs1e_BEaKCcCr81NLYbRW-w768Z0DkpTCo4yGMorQq8v50XbmT7QFZSWoSa1RQzGgg7Tn58nIoQNyF_3MqEKR7E7Zmu7tyO5uKfwMqMHTRVadVXVBijEhAr0X13qqou9RbM9Td98FknGhR18ngHbSsrE--lY3IEx8ZHnHGdqg,0982a2c4545c4daf98cfcf48ddcd13e3377dd5c7,106.6788715,10.7736443,106.6736472,10.7696274,106.6826456,10.7777388,"sublocality_level_1,sublocality,political",10.7736831,106.6781464,666.6064315615404
Thành phố Hồ Chí Minh,79,Quận 10,771,Phường 10,27178,Phường,,Phường 10 Quận 10 Thành phố Hồ Chí Minh,,Phường 10,"Phường 10, Quận 10, Hồ Chí Minh, Vietnam",ChIJoZKlT94udTERj0CKXD-hxEk,CmRbAAAAXwhQzFwIFWX8XwD8Q_GeiQjmNtCQvkpBZ-H39fv2_T_5QxKkSyJHPLIXIPmUgt0y9JVrTUHNA8Q_DYHNsQKpnmdKuNT2nhi_dbU8dWXZkFqiSfcYMdWvZ3hPkqADR4D8EhDGZcpucacHhdlM1o_qc793GhS5Tk0Tw47Xkn1Il9tx5vhrPIcTQQ,3a7aa4d4c1442d97c27ab98e0c3a1752e45be41a,106.6676482,10.7713857,106.6635441,10.7676769,106.6757075,10.7772302,"sublocality_level_1,sublocality,political",10.77245355,106.6696258,850.0300043193889
Thành phố Hồ Chí Minh,79,Quận 10,771,Phường 09,27181,Phường,,Phường 09 Quận 10 Thành phố Hồ Chí Minh,,282/9c Nguyễn Tri Phương,"282/9c Nguyễn Tri Phương, phường 4, Quận 10, Hồ Chí Minh, Vietnam",ChIJMbX1FuQudTERwDYw8NzB2-I,CmRbAAAAbo1_-7XK8K-sAUEn-mmzpR1x5A5hkTNJPMZjXH4IF0aVvMT5Hh1w9SE8eDUs9Uu7hbQC-Es2u3bKiWTxlvAzXF--orfrgHjMi4eaNF5PJ832cVBWEf1pqCR0H7K5GyMOEhC-AdzIMft_pyuwe5eFGBgJGhRZYWDn4KaA3wC0GAa3mcTGoHNfMw,86999685d9d07e2610f1027e24dd7c8489a84915,106.669118,10.76271,106.6673488197085,10.7612674197085,106.6700467802915,10.7639653802915,street_address,10.762616399999999,106.66869779999999,210.14241805968777
Thành phố Hồ Chí Minh,79,Quận 10,771,Phường 01,27184,Phường,,Phường 01 Quận 10 Thành phố Hồ Chí Minh,,1a Nguyễn Tri Phương,"1a Nguyễn Tri Phương, phường 4, Quận 10, Hồ Chí Minh, Vietnam",ChIJqfSBFeQudTERNwTfjsraRik,CmRbAAAA3hF-u_uPPXKhI3A6_olnmoXMkJEidY4l60XrQq_C_AOG9ZF-mHhCoA7zyAK8JZ8PztR2--15vwTIsRqwoG99w1Ney9LtrMXV-OKePYD5z_dzDl3gfW4YZ1AwIkV_0JPhEhCxjblN2ie-NxScpn5HD_hEGhTVuB4KAtvIJmW7GDqolP7vuxYrzg,8b4590d01185b5cb1e356a3a561d17fda3cbbcc7,106.668944,10.762454,106.6672856697085,10.7610361197085,106.6699836302915,10.7637340802915,street_address,10.7623851,106.66863465,210.14249725056172
Thành phố Hồ Chí Minh,79,Quận 10,771,Phường 08,27187,Phường,,Phường 08 Quận 10 Thành phố Hồ Chí Minh,,phường 8,"phường 8, Quận 10, Hồ Chí Minh, Vietnam",ChIJoXqiQ-YudTERtZ2lz9B6Mw8,CmRbAAAA5gGr_ImIyKYy2AcFS0U1EUqEl-446PKx_0ze7zph3CaMeoI4ogBYJAfk-0KRaOU0adF_Lh6Pv5vEJ25LR8Yc9Y40dDkrYQZAFBavjw9bIwVCG1mcDIezBGkYPWnyauC4EhDoD1mkRZ18nWWz7rG_5WlsGhSIkZROec5gzdvla4ebzToX4iT0Kg,080afe3e19eb1919ac2bf4cc5c77a6f96ab479bf,106.6652376,10.7645241,106.663932,10.7630248,106.6679126,10.7668482,"sublocality_level_1,sublocality,political",10.764936500000001,106.6659223,303.8762558342054
Thành phố Hồ Chí Minh,79,Quận 10,771,Phường 02,27190,Phường,,Phường 02 Quận 10 Thành phố Hồ Chí Minh,,2a Nguyễn Tri Phương,"2a Nguyễn Tri Phương, phường 4, Quận 10, Hồ Chí Minh, Vietnam",ChIJYdCcFeQudTERF3BeM7dFTtM,CmRbAAAAWpUYddEmQ7P9iitqC-KIMY7CIifAaJKeK5vXH8r-Zp3I7zoBP-9NAkSPS7GOLQCbAQ_bkVaEpNJHBO8ZoE4Mr74Ds6OUdWNkVBqydFWY7kSLt1E5pcDE_xo_roFAxGCnEhBtvFxP8_nU7G4bl6B8tjCmGhTsJDEiGXc_vjt0FQyIVZKZWo5neA,460f934333cade03c2f90310eba06e231e0bacea,106.668971,10.76246,106.6672991697085,10.7610390697085,106.6699971302915,10.7637370302915,street_address,10.76238805,106.66864815,210.14249624057177
Thành phố Hồ Chí Minh,79,Quận 10,771,Phường 04,27193,Phường,,Phường 04 Quận 10 Thành phố Hồ Chí Minh,,4a Nguyễn Tri Phương,"4a Nguyễn Tri Phương, phường 4, Quận 10, Hồ Chí Minh, Vietnam",ChIJK7yjFeQudTERRxUL--Rt2sU,CmRbAAAAOfVm50fzSYXJQEwBAM82l2z1HQ0uwvIhLjTEb5tOz_dCSVpBqEjpA49mJkFZx1jGKsXP2O2AUJgFPeaeN5JFBPvjQJ6Pg9k69WHKwJ1QAvG7YguEXgkRKbIiwnIbCTV_EhC39_c-ZXqgZnp2xmDmcuCOGhSLKyEYw6oFg74pydLADZHiO4GM2g,2c0711bfd9d66689b12083d813c7ddde35dc2473,106.669031,10.762472,106.6673293197085,10.7610444197085,106.6700272802915,10.7637423802915,street_address,10.7623934,106.66867830000001,210.14249441011987
Thành phố Hồ Chí Minh,79,Quận 10,771,Phường 07,27196,Phường,,Phường 07 Quận 10 Thành phố Hồ Chí Minh,,phường 7,"phường 7, Quận 11, Hồ Chí Minh, Vietnam",ChIJt6GQeu4udTER8cKWkx9V_Mk,CmRbAAAAA6hHcEtxcau8SREObT3magNFShFScEhQPBD13LZ7dmm4qXX7mJHd7iwyU6lc6HaVdx2QFZNBtxRClJ0hGf5-JTziJzWeSS0WMhuSAu4Zdu3jeWyacr0RLP6ON4t4wdGLEhDjy7LcN3AA_7_caMSyHJFYGhTLQOtzE-fs3avCYXBKHisbDFJX9A,f5c8837868f9829b3fdee90ca6a478189c1d13ff,106.6596036,10.7605453,106.6568985,10.7578197,106.6615113,10.7638381,"sublocality_level_1,sublocality,political",10.7608289,106.65920489999999,418.59485011007644
Thành phố Hồ Chí Minh,79,Quận 10,771,Phường 05,27199,Phường,,Phường 05 Quận 10 Thành phố Hồ Chí Minh,,5a Nguyễn Tri Phương,"5a Nguyễn Tri Phương, phường 4, Quận 10, Hồ Chí Minh, Vietnam",ChIJ94qvFeQudTERN2SayISzzKw,CmRbAAAAXIgf93tK7763MmDoQYFICbw_0q9Lj5_rxnjshZZX144RrIvG6JcFFSJw06QtPQIC3IPvdFH-V__aLjK5GteS5BlYuiovQrcgLpmfudclOajeAveIqB2ljJH3KoFUGdCNEhBGHP4YIeqjynHpp3fkJ4zaGhTbytPY4sdGc8b-pffgvfjSGV9isQ,b44f8df215ad957ef7cd87338a55448429d01b94,106.669061,10.762479,106.6673443197085,10.7610480697085,106.6700422802915,10.7637460302915,street_address,10.76239705,106.6686933,210.1424931593709
Thành phố Hồ Chí Minh,79,Quận 10,771,Phường 06,27202,Phường,,Phường 06 Quận 10 Thành phố Hồ Chí Minh,,"10 Khu V, Đường số 57, Phường 10, Quận 6, Tp.HCM","10 Khu V, Đường số 57, Phường 10, Quận 6, Tp.HCM, Khu V, phường 10, Quận 6, Hồ Chí Minh, Vietnam",ChIJsVKoldktdTEREvlqFjf1XBQ,CmRbAAAAXlT0GoEe_Rry9cgAh1iabMTwVv1sx-63TGEnpQb9R8tP4QHbE9t4gaVMJioyUaiHf2APbFO_Z1dLmDjtcxXfhdkrdBI5HhLMTwNiVDhBKU2_SmY_5jsnHQrvlVW4tfXnEhBv3hyOZE-ql9dMUyB3U6c8GhSMHqxRz1fuLQh5w37laXwhuv2DNg,07432270ed99f6d06415d1336d35f133ad761bf8,106.6245599,10.7373084,106.6232109197085,10.7359594197085,106.6259088802915,10.7386573802915,street_address,10.7373084,106.62455990000001,210.1510730440989
Thành phố Hồ Chí Minh,79,Quận 10,771,Phường 03,27205,Phường,,Phường 03 Quận 10 Thành phố Hồ Chí Minh,,3a Nguyễn Tri Phương,"3a Nguyễn Tri Phương, phường 4, Quận 10, Hồ Chí Minh, Vietnam",ChIJudOeFeQudTER802CR-TsTKk,CmRbAAAA8War2B3r4KWuKBhl6bOJ9FqbWHvRDQzFb2LGSf-y7A3FIYTc0JJWX2XDbk1DzEY5KIkbUq9-YcPymg6OhgGS6RoIrrx9MrVlGei046YKrZFuuK8xuf2QZjJ_t9ru0X1-EhDE8rPOSIfRtFCh_FfeTH-2GhTYKE-CvTlLEElJf3BkdL9YjlKsrw,59d50339bb8df12433d817cd6701470d1a8aa4fe,106.669001,10.762466,106.6673142697085,10.7610417697085,106.6700122302915,10.7637397302915,street_address,10.76239075,106.66866325000001,210.1424953172734
Thành phố Hồ Chí Minh,79,Quận 11,772,Phường 15,27208,Phường,,Phường 15 Quận 11 Thành phố Hồ Chí Minh,,phường 15,"phường 15, Quận 11, Hồ Chí Minh, Vietnam",ChIJgzIyscEudTER5ThRjh7C0lo,CmRbAAAA8rLwxPZs_SoHMDu4oyi1N_kJ5gcXxvl9AhxDLaVT400DAoXRXzjol1zM9kJwWiutNjhRedSQtERRntdH-VqbAXDjYYKg-c6u6a2y7-oslWZnaeRYCSOGG1f9EeBcI1xQEhDA7wPYkAk3Zq6Z0icDWHj8GhSKliO-qQQOizHrVBV6co_3w00m8A,7404db9a4bd3a64734ffaa631ee2a7c99fe5bb38,106.6548706,10.7761932,106.6522815,10.7622555,106.6599239,10.778337,"sublocality_level_1,sublocality,political",10.770296250000001,106.65610269999999,986.1106469833564
Thành phố Hồ Chí Minh,79,Quận 11,772,Phường 05,27211,Phường,,Phường 05 Quận 11 Thành phố Hồ Chí Minh,,5a Nguyễn Tri Phương,"5a Nguyễn Tri Phương, phường 4, Quận 10, Hồ Chí Minh, Vietnam",ChIJ94qvFeQudTERN2SayISzzKw,CmRbAAAAai7I6Xvrdjp3de7LXMg6hT9e_6zJZ2H6pGoDIzk4ZKmuaLYvJL2M30pDI4w36qZZrJhzQ4FnSGjtTL4aE_8oAY3bd4KbRqHx9MmKKuZNumv4JuglQNOT2roXzFOwB9iiEhCerX_C_FCpC8dr0K4boDq7GhTlKh9d6KNV7F1oK6wDjlmOWzfWxA,b44f8df215ad957ef7cd87338a55448429d01b94,106.669061,10.762479,106.6673443197085,10.7610480697085,106.6700422802915,10.7637460302915,street_address,10.76239705,106.6686933,210.1424931593709
Thành phố Hồ Chí Minh,79,Quận 11,772,Phường 14,27214,Phường,,Phường 14 Quận 11 Thành phố Hồ Chí Minh,,phường 14,"phường 14, Quận 11, Hồ Chí Minh, Vietnam",ChIJF-gakpUudTERnO1KNesxALM,CmRbAAAA3rkC0DGrxomNJZjt2l-a81cKDNGSF4AW4kDCUeVQn48KHc4ySN67Azs-4wYfgFvOwnLyxNqnmDsVfOiiRy8e9-aTX2Au2ClDDg2qnAEr2Y4VEwBshsBSeduWVuMAUajKEhCeiF9pWHKrLjm9Wi9QPR97GhS50mFkU0ejJ5Df2NMPxF1lOqRpRQ,8bb818427d4f954249b2ccba5aebebc7b0d222a8,106.6490254,10.7694985,106.6447048,10.7653439,106.6520026,10.7735423,"sublocality_level_1,sublocality,political",10.7694431,106.6483537,605.1290753778022
Thành phố Hồ Chí Minh,79,Quận 11,772,Phường 11,27217,Phường,,Phường 11 Quận 11 Thành phố Hồ Chí Minh,,phường 11,"phường 11, Quận 11, Hồ Chí Minh, Vietnam",ChIJL6Pg85QudTER0rNGUecIXVA,CmRbAAAA45gVxu6IJaYOcM8FsE2eHuC3XM4tN7jfxPXTqPwrEWV_vhbrQRv2F2azERHgjaRZsVULfusBmhmdBHsamwb4OqsCraBRIrUYBOFw4oTXxcpuWKVBPuZ6N7KrEI7NJJhOEhAL8Qf4fis--wsIz25cGXVJGhR206BpeOt4dJSvNuPLevQA9lGlzQ,bd39f577ecea32c488f203b9b2b6a991cfd11879,106.6504992,10.7666947,106.6464651,10.7627562,106.6540503,10.7689773,"sublocality_level_1,sublocality,political",10.76586675,106.6502577,539.3586261030403
Thành phố Hồ Chí Minh,79,Quận 11,772,Phường 03,27220,Phường,,Phường 03 Quận 11 Thành phố Hồ Chí Minh,,Công Ty TNHH Một Thành Viên Cao Cafe 03,"3, Tuệ Tĩnh, Phường 12, Quận 11, Thành Phố Hồ Chí Minh, Hồ Chí Minh, Vietnam",ChIJUc3k5uwudTERFCPqgQTTEss,CmRSAAAA4JRjRVszbFyh5mGxv1slq-htA7UbrIfa6lvIo9NOdg0eUzkwTn_t8H5tULk_IPQebtnIsdwW-A-RHXCibr3gTkD8FXehm-wPV-05pru7U4V8OR9rcwQJ0WS-Od1tXDQSEhC_UybuN6egr1TCxzWc-E3cGhT4VUDZvaiG00j-Q-Zma9fYqgJPxg,a8b3c62eaaaa773c97384ff078b772968d8a8853,106.6543995,10.7621837,106.6530505197085,10.7608347197085,106.6557484802915,10.7635326802915,"grocery_or_supermarket,food,store,point_of_interest,establishment",10.7621837,106.65439950000001,210.14256620411172
Thành phố Hồ Chí Minh,79,Quận 11,772,Phường 10,27223,Phường,,Phường 10 Quận 11 Thành phố Hồ Chí Minh,,phường 10,"phường 10, Quận 11, Hồ Chí Minh, Vietnam",ChIJA2SOAZEudTERb4QKVOpew6Q,CmRbAAAA4vK0CwDBbFz2gkuzqo-wpmr48_1k04wmeWxvWaiEAGzOyNk9Axend_ZjW7s8E1PHiD04VnwCWESzvMqzpgUoqOS2z_tEf2eNlfh1CUd-u33XwllEvr4hVUuphUL8FzhQEhBqbnH8GKTGLslcbeEenb0nGhQwQrYozMVKHlJ7HRztPSRjYX7aZg,62a02f506476351ea81d26a8ce602ea2c3f5e679,106.6431304,10.7630148,106.6414677,10.7584324,106.6464007,10.766818,"sublocality_level_1,sublocality,political",10.7626252,106.6439342,538.1385223475447
Thành phố Hồ Chí Minh,79,Quận 11,772,Phường 13,27226,Phường,,Phường 13 Quận 11 Thành phố Hồ Chí Minh,,phường 13,"phường 13, Quận 11, Hồ Chí Minh, Vietnam",ChIJX51BoOwudTERXSGHpIXPjag,CmRbAAAA96tH-N2fPI4c0Rndc4qYxb1ESNDTykCTTX5NdxfF0Jfs-Xbq9tfC8M0reYvFCxHjskH4wUiyQrX1SVG8RwGxAFva8WP1xNiOqmJxT1ty0FokebWXh-3e2M13ulUpKHtHEhD8z4BTbNmdFbJ34aCmpCKFGhQisDTPIX6VY5DECGVZTMTv5pD8OA,b796d08ee53dbed1104def09049fa7398562839a,106.6534468,10.7638102,106.6510651,10.7621738,106.6570008,10.7664479,"sublocality_level_1,sublocality,political",10.76431085,106.65403295,401.7126603482606
Thành phố Hồ Chí Minh,79,Quận 11,772,Phường 08,27229,Phường,,Phường 08 Quận 11 Thành phố Hồ Chí Minh,,phường 8,"phường 8, Quận 11, Hồ Chí Minh, Vietnam",ChIJBc8YSZIudTERgHySNjX-MP0,CmRbAAAAZqpUxpdAtJnizMKXVL0E0tMLGl7tPo3UDY2lvOwNXubn-Cc2vmdMETPl38zYGvHs26DPppMXCt4E3mtqoteQuWDcF2iN5clc0OyZ5Y-Tc26ofaKgzGvD_QsvqfUbvCRDEhD4iYpm0HQ7NKb_LPwC-2JGGhSuqxbqXzVF3uZXtXfLFXe9KTEiGg,64b3e8738a9d3ec422295daee4b3c5fb1e557aba,106.6482886,10.7606898,106.6457972,10.7580235,106.6512474,10.7648614,"sublocality_level_1,sublocality,political",10.76144245,106.6485223,482.5512707205067
Thành phố Hồ Chí Minh,79,Quận 11,772,Phường 09,27232,Phường,,Phường 09 Quận 11 Thành phố Hồ Chí Minh,,09 Đường Cao Thắng,"09 Đường Cao Thắng, phường 2, Quận 3, Hồ Chí Minh, Vietnam",ChIJt7-HCyIvdTERX59jyjlE9bY,CmRbAAAAfq8Na6jUZ9TfFkj-hOhAFzkpN4a8ZiyYvPvK7hQyEOVu7S-B1WTXedTdTvBcn_DErRUZMgCS5qs3LxEHp60T9ma_ooLz05GcrmQ2XprSvETf94YUQ3aXMyCV6VxZT3vFEhBFMvy9njBCaq-rMmldvf_OGhS5ct3VWo3CRFdtU2ToiKiuQiJhrQ,103123371e826672a95d8e666023335644a66a04,106.683438,10.7686228,106.6821543197085,10.7673437197085,106.6848522802915,10.7700416802915,street_address,10.768692699999999,106.6835033,210.14033710726758
Thành phố Hồ Chí Minh,79,Quận 11,772,Phường 12,27235,Phường,,Phường 12 Quận 11 Thành phố Hồ Chí Minh,,phường 12,"phường 12, Quận 11, Hồ Chí Minh, Vietnam",ChIJaU54PO0udTER0bYmtYnXXKE,CmRbAAAAL5VN8COEhF0s2wn5yINUZ-1VkzYssN_fu1Lq3wLUmtItReq--uvVfbKi7XoQlmdDMo3F3hSPjppAqdeN8ZtAbgmpfoofdc8rscDAaZ12eaI5mBuyIvYR51Nu8Ycbi_AsEhAmJVbiUbdpvcmEnwCQAqamGhQZCWh2G2t-gfmIKJkgEte7CMv_CA,2f181e2191b72678c8219fa0cbaf4b6e2fba1c75,106.651973,10.7611684,106.6508451,10.7588906,106.6568533,10.7627614,"sublocality_level_1,sublocality,political",10.760826000000002,106.6538492,392.1920484820378
Thành phố Hồ Chí Minh,79,Quận 11,772,Phường 07,27238,Phường,,Phường 07 Quận 11 Thành phố Hồ Chí Minh,,phường 7,"phường 7, Quận 11, Hồ Chí Minh, Vietnam",ChIJt6GQeu4udTER8cKWkx9V_Mk,CmRbAAAAls7iw3t684F6hA_R-eIpwV6KDBT1ViBozEZYadeVHhE6p_t3ITUH58UQMI0RYRm4pOsU__KrckI7dSo99Ixv1HbyT4bnLcAY-LMLDIvAV8AGXAA9-eG5c9O_wkz6a2fwEhC119G10DNuiE_elI8lD00tGhTC165sm8wfpDAl2tmyG2s_NtG0-A,f5c8837868f9829b3fdee90ca6a478189c1d13ff,106.6596036,10.7605453,106.6568985,10.7578197,106.6615113,10.7638381,"sublocality_level_1,sublocality,political",10.7608289,106.65920489999999,418.59485011007644
Thành phố Hồ Chí Minh,79,Quận 11,772,Phường 06,27241,Phường,,Phường 06 Quận 11 Thành phố Hồ Chí Minh,,"11 Khu V, Đường số 57, Phường 10, Quận 6, Tp.HCM","11 Khu V, Đường số 57, Phường 10, Quận 6, Tp.HCM, Khu V, phường 10, Quận 6, Hồ Chí Minh, Vietnam",ChIJYeKWltktdTERJ4bz3DDMaOM,CmRbAAAAxTdTozKNE9-RxxARRnurf2mFYTz1x7sgAeOP1Rk2ynm0psRf-tGFjP32sNjP5Ih4whHElp6kUqLk7_bWMq2z6zsreVXhlZtlemubIlvq5sUrA_YsKeswCoUhmIhzX5NhEhAn0fCZoZT7yBy9ZTmJSTrlGhRYS9UdZ9wjyyVh_GC1ICDS_bxxiQ,ad4600b11ecf61b2a9240171e52d70c0c85e42b5,106.6244483,10.7370991,106.6230993197085,10.7357501197085,106.6257972802915,10.7384480802915,street_address,10.7370991,106.6244483,210.15114453727924
Thành phố Hồ Chí Minh,79,Quận 11,772,Phường 04,27244,Phường,,Phường 04 Quận 11 Thành phố Hồ Chí Minh,,4A Đường Cao Thắng,"4A Đường Cao Thắng, phường 5, Quận 3, Hồ Chí Minh, Vietnam",ChIJ5bKrcyIvdTERXw4WFpZvwyk,CmRbAAAA2cXagzK3e9-rCwATppaNisyvxV9osHtbJ8zpoi8VwuDIgMt8GEVd69SoLMmXH5GG-nyeGycEFsz62gFnxTqzveUb1sSEshfx8HNTVokNmqih3L48dDffyU54JnQkDLe3EhBZhgPUAiJipiZfgxG2Rb02GhQ1oPyWrAA5tqPic3xw22WxLVfQ1g,edff222e142b16b0a30da11659ebaad536460b29,106.6839393,10.7687584,106.6825108697085,10.7673201697085,106.6852088302915,10.7700181302915,street_address,10.768669150000001,106.68385985,210.14034517574248
Thành phố Hồ Chí Minh,79,Quận 11,772,Phường 01,27247,Phường,,Phường 01 Quận 11 Thành phố Hồ Chí Minh,,Quán Mì Ý Mẹ Ri,"36A/11, Đường 762 Hồng Bàng, Phường 1, Quận 11, Thành Phố Hồ Chí Minh, Thành Phố Hồ Chí Minh, Thành Phố Hồ Chí Minh, Vietnam",ChIJf5uCCoUudTERO6LnKSk4lvo,CmRSAAAAJoMwj9xlI4aJEnb44FOrbfmDEj1pglogIsPe0T50HfSScIb3yoFoj_YedVmMtG1-avYmhBlzcirX33GXl6HOsw7XEhPBJUBPLSKIiAPOkgy_NJsWXpHoqzM1-rcwOkNoEhBPkzomTSFBoZ6_9zvenoJUGhT61BLSc0SgfEAfev-b7MS27ihADQ,ee555edecb550a4b850056fb4399b2f00915ce1d,106.6393,10.7571,106.6379510197085,10.7557510197085,106.6406489802915,10.7584489802915,"food,store,point_of_interest,establishment",10.757100000000001,106.63929999999999,210.14430627633323
Thành phố Hồ Chí Minh,79,Quận 11,772,Phường 02,27250,Phường,,Phường 02 Quận 11 Thành phố Hồ Chí Minh,,CA Phường 02,"phường 2, District 11, Ho Chi Minh, Vietnam",ChIJjZ4rO48udTERw7fkpcwR8Ew,CmRbAAAA3AgtV7jzByPavPz25lljL1DD-NNk0VkikPrvx-3t3HPboegBGwxdNuHiIDx3tG5cYylavK_p3dGKzwHQ4QwFwPHVxZ05dRtcvEE6q-DeK0gxEyKvgQkl_x2qYFZMe7uxEhBm9LGSNB-mj4nBup4T4fPbGhSOhx_cPK8Maf45cbVI8AQ0iyreJA,c2219c352bb550c8830c7a669c447a03e3967827,106.6431074,10.7550394,106.6417691197085,10.7536856197085,106.6444670802915,10.7563835802915,"premise,point_of_interest,establishment",10.7550346,106.64311810000001,210.14501300428864
Thành phố Hồ Chí Minh,79,Quận 11,772,Phường 16,27253,Phường,,Phường 16 Quận 11 Thành phố Hồ Chí Minh,,phường 16,"phường 16, Quận 11, Hồ Chí Minh, Vietnam",ChIJAU2rLowudTERjxvYk88PCKo,CmRbAAAAq6E6fUac5pWGDsUM5lutc-vLTJidM6yAHP2XHg1zIiuEn5tVjbfzbLbYe74o_MKAJ8DMlHs9E_n8sO49ZoG-0Tk2rxml1XgDrXIKC10xIiYCsvMHQgHwMmXZvQVY7y65EhDgsuOC6ZV8ZF-OnHkburtYGhQP37cIk3Gb7N1kByxzbKhNId_5ZQ,cb89fce2a34329223aaa2e26ed7129d4bd53943d,106.6482886,10.7552446,106.6429675,10.7533863,106.6512938,10.7591677,"sublocality_level_1,sublocality,political",10.756277,106.64713065000001,556.5630459265509
Thành phố Hồ Chí Minh,79,Quận 4,773,Phường 12,27256,Phường,,Phường 12 Quận 4 Thành phố Hồ Chí Minh,,phường 12,"phường 12, Quận 4, Hồ Chí Minh, Vietnam",ChIJO8NUImovdTERXdlmfY6x_og,CmRbAAAA18o3UZHJwIWjBaHQJEsd8Z5siYYTnoYPn__I5NcahakUv_5cBUn5BGd-VT-UT3r5HfeU7Y-mR9Mf3sGbndm-wf31vAD0LDWx0cYhFtlapbUj00FG75ACjCO5LxYyXFDiEhAXKph0FkCUbyWcflL7_aOYGhS6tpTFYkQtsswlBILQ3aeicgDPTA,3bcef40207ff0bafd7ea84379ee3de165cb3c605,106.7050362,10.7664188,106.7013068,10.7619802,106.7098189,10.7694202,"sublocality_level_1,sublocality,political",10.765700200000001,106.70556285,621.9090960460941
Thành phố Hồ Chí Minh,79,Quận 4,773,Phường 13,27259,Phường,,Phường 13 Quận 4 Thành phố Hồ Chí Minh,,phường 13,"phường 13, Quận 4, Hồ Chí Minh, Vietnam",ChIJhRhbxmgvdTER2FSMhwfC6hs,CmRbAAAAzDoj5Hdz19e5XZtsLLu44Dw7Dx_rL-C5_7Ka4u2bPFoGtO37Yi13NjYQNpKgCryFuxLHIEbW6sHsmnlhZzsk6r69wDCW-iYBD7A-ySkaXsTdhpaXHP7qf3ZtxlGGTU20EhCbekybQXRk1ofuoL_rL4FrGhRKnAOp8WVAlrdX_klFbcVaFmjHHA,b8b3fd24fa51eab80cf4910f055af374acd45b65,106.7101958,10.762732,106.7059632,10.7588248,106.7143892,10.7664058,"sublocality_level_1,sublocality,political",10.7626153,106.7101762,623.6734948594412
Thành phố Hồ Chí Minh,79,Quận 4,773,Phường 09,27262,Phường,,Phường 09 Quận 4 Thành phố Hồ Chí Minh,,09 Đường Cao Thắng,"09 Đường Cao Thắng, phường 2, Quận 3, Hồ Chí Minh, Vietnam",ChIJt7-HCyIvdTERX59jyjlE9bY,CmRbAAAA3oNt6Rd8pERrDtkkaGWN6kNj3ExaOAgFXhMlHeC8_oq2KkkgMdQ87j5VvdmSm7q7yQr-T9gnQ3BIPwh9jYKjWiLWLjsdNfn7Z-luwu0MS3xmMMpDQp0ZuxTzD0BrglpmEhC3gQNxNrvzj8b90bhgzgg0GhT6UZz6K5UcBMzE8CVHPrPIHavFEg,103123371e826672a95d8e666023335644a66a04,106.683438,10.7686228,106.6821543197085,10.7673437197085,106.6848522802915,10.7700416802915,street_address,10.768692699999999,106.6835033,210.14033710726758
Thành phố Hồ Chí Minh,79,Quận 4,773,Phường 06,27265,Phường,,Phường 06 Quận 4 Thành phố Hồ Chí Minh,,"4 Khu V, Đường số 57, Phường 10, Quận 6, Tp.HCM","4 Khu V, Đường số 57, Phường 10, Quận 6, Tp.HCM, Khu V, phường 10, Quận 6, Hồ Chí Minh, Vietnam",EnU0IEtodSBWLCDEkMaw4budbmcgc-G7kSA1NywgUGjGsOG7nW5nIDEwLCBRdeG6rW4gNiwgVHAuSENNLCBLaHUgViwgcGjGsOG7nW5nIDEwLCBRdeG6rW4gNiwgSOG7kyBDaMOtIE1pbmgsIFZp4buHdCBOYW0,CtQB0AAAAFu_oYwEGiJ0LEr4Bt-xUVPvJhgQSyFexwRk4RGGnwnO7ZSgJ9WOBNmoLHQXMItg7dapTAwYKuG73DNlpsSHD1OF0NY8VpRlM93AUtTCmeewzIQqJaCguSfWCLWWN6YhsjtGs4mx1LAq8sLtB5Gpg-abB04lWyOQ_YWTRRed6GVHwU6xqPsQ8c_n1jYzEuiBPPAyar1JfXF6TaXCSgMTRjsYJDIdtVA06MX_jLllQWEhifkNMPSwoCtJzEioKyqTvbigg9orJ3hCLjXDYketVMQSEL7MBG_FoRMcP2i5l7aqQtwaFFrsjXMgsd6uX0nsLt4daoCS-LrP,4789b65401cd44a7daae76dd6760a6386e2a17da,106.624516,10.7371963,106.6231764197085,10.7358471697085,106.6258743802915,10.7385451302915,street_address,10.737196149999999,106.62452540000001,210.15111138786858
Thành phố Hồ Chí Minh,79,Quận 4,773,Phường 08,27268,Phường,,Phường 08 Quận 4 Thành phố Hồ Chí Minh,,phường 8,"phường 8, Quận 4, Hồ Chí Minh, Vietnam",ChIJlYVWRmwvdTERcbexBVwyKaI,CmRbAAAAoF3bI1voqA7sV0NXK637TE4lJv09EZtJPn-BUCM2ZbwL4hwocpBmwrUDDgOw40HxHaQPCaCOlvNTTBuHhLrlAtX37ka3atAnAS4en0b9aCfYkac8pa8OYYH0cpAFRYBbEhAXuiLwr80kFM3dSA3dv8ImGhREH4wsaDQPeb1XSQu3maTywKj8HQ,70d3ba064e65138804497b2749dbd62d0ba6d62f,106.7009979,10.763091,106.699825,10.7565783,106.7067625,10.7649425,"sublocality_level_1,sublocality,political",10.760760399999999,106.70329375,599.487840092117
Thành phố Hồ Chí Minh,79,Quận 4,773,Phường 10,27271,Phường,,Phường 10 Quận 4 Thành phố Hồ Chí Minh,,phường 10,"phường 10, Quận 4, Hồ Chí Minh, Vietnam",ChIJZ6_qAmwvdTER6iEzM6s7gJc,CmRbAAAA0RyRNyPFXgO5Vz-EwcThVWj9vIkfF_icVu1M3rr8vfnH-8cotbWoNBHxuEJaEzlncgv5r9nIyEkZSYvGslHXGTqHK_EjbFCkuY5irbW3Wu8wf5L2w9cqwL0GNyi9g-3-EhAYgswlG0dDrL68l9WiohbwGhQu2lePLs0gxlwYmA5AyluRS9VkHA,0bc9cfed1eeb1dde4d9a5a3496c31712a969c4a1,106.7054047,10.760614,106.7031556,10.758809,106.7074987,10.7625861,"sublocality_level_1,sublocality,political",10.76069755,106.70532715,316.6167578519465
Thành phố Hồ Chí Minh,79,Quận 4,773,Phường 05,27274,Phường,,Phường 05 Quận 4 Thành phố Hồ Chí Minh,,District 4 Committee,"5 Đoàn Như Hài, 12, Quận 4, Hồ Chí Minh, Vietnam",ChIJ27aA-2kvdTERCcGwdBXEhvA,CmRSAAAA1Bg5Je7GDycTJCsMTxXranxDmbU5h2aO2x5ocpFLEO5CdPipQNYtCh1T1r57an7lDv7CFGPHLoC6x8Su02yRqkr1YPpzqrESvF4L0Gs1xqW_V3JrW8BkVfPllvvqxnCDEhCqJePQNWmWZdXoauHSt2YMGhSU-oJKpPBURUDlHn_PnIOk2_IY_g,222f555d37bf27814b8c2225049ae3cd8c9d8f17,106.7051002,10.7662766,106.7035500197085,10.7647758697085,106.7062479802915,10.7674738302915,"local_government_office,point_of_interest,establishment",10.76612485,106.704899,210.14121665882178
Thành phố Hồ Chí Minh,79,Quận 4,773,Phường 18,27277,Phường,,Phường 18 Quận 4 Thành phố Hồ Chí Minh,,phường 18,"phường 18, Quận 4, Hồ Chí Minh, Vietnam",ChIJEb3UlGQvdTERQ3Ku_yEI69c,CmRbAAAAst-C0R5988jKvZfvLkoCB4TlT92CeKl50qdmcmF5KeyK4U7E3o1VoNfgDCuzVOMueasjY1MOFQoJwaGFvXZPI815SaK1gTFTHhrewqnHVUEKz2yXKvFm7FO_PxGKDik1EhC5s9YBzRqBZltnbXyzIW1BGhS_610ROfDjOBEHjF5btcAU56iEwg,4dd1aed7ced8ddc9afc2a5fd504cd4b876c94080,106.7160926,10.7596852,106.7111667,10.7524728,106.7220496,10.7623267,"sublocality_level_1,sublocality,political",10.75739975,106.71660815000001,807.8813555257863
Thành phố Hồ Chí Minh,79,Quận 4,773,Phường 14,27280,Phường,,Phường 14 Quận 4 Thành phố Hồ Chí Minh,,phường 14,"phường 14, Quận 4, Hồ Chí Minh, Vietnam",ChIJseHurG8vdTERBRw4IRhI0Ts,CmRbAAAA_eEKM0qWIWAoJVCwcY7UfjEeup4RrqTUJuPkkUz-WCmBNF_5cj-GvWRBDJFR3QKRd0MkMQ5jaJ9ONBOCp8rYVstk25MURNtopqX7wGZGknizTADLR0-Xdx7Oh9KGv0pHEhCcAPNLTgg_jSt6WMNNFbccGhQAYlh-ROZODf7MjoUAamd97TV83A,e4293f6a4fcb3f19259bb50ff96134068c66d1c7,106.7079845,10.7580903,106.7065479,10.7554859,106.7111574,10.7609696,"sublocality_level_1,sublocality,political",10.75822775,106.70885265000001,395.1521287964531
Thành phố Hồ Chí Minh,79,Quận 4,773,Phường 04,27283,Phường,,Phường 04 Quận 4 Thành phố Hồ Chí Minh,,4A Đường Cao Thắng,"4A Đường Cao Thắng, phường 5, Quận 3, Hồ Chí Minh, Vietnam",ChIJ5bKrcyIvdTERXw4WFpZvwyk,CmRbAAAA-5F8qqO-wceTWhKR5qoiDAPQKCH6oKw8GRPLGVvrpk9gBuUyUMkneWlAbWJ0rm7eyZF360evAr5sR6fMoGwNx-OcGg-pn5vn29NgaSMPlNkUrA8r6BWrkHSA6PUkiYAbEhD5lXsuKl8UzzXtv7WzRwsKGhTYV82D-ff-q6wxVSBV1FvNe69fVA,edff222e142b16b0a30da11659ebaad536460b29,106.6839393,10.7687584,106.6825108697085,10.7673201697085,106.6852088302915,10.7700181302915,street_address,10.768669150000001,106.68385985,210.14034517574248
Thành phố Hồ Chí Minh,79,Quận 4,773,Phường 03,27286,Phường,,Phường 03 Quận 4 Thành phố Hồ Chí Minh,,3a Nguyễn Tri Phương,"3a Nguyễn Tri Phương, phường 4, Quận 10, Hồ Chí Minh, Vietnam",ChIJudOeFeQudTER802CR-TsTKk,CmRbAAAARBA7pIEDJd1dRtsg84C7w-sr0PEJTBVb1qrIpxQSp5AUdqhl33AOtVJ0QQNF291y9lsOshDD_qgVo5GPEITDIsvwDONcgt_584AFBEvjiXPVZy8yGbVUNRqYBIaZG6fREhAyT5WelZ_yZsFhdcdp3WpGGhQHoLnHSAj2h2Y-LzRq9nUh4qBuGA,59d50339bb8df12433d817cd6701470d1a8aa4fe,106.669001,10.762466,106.6673142697085,10.7610417697085,106.6700122302915,10.7637397302915,street_address,10.76239075,106.66866325000001,210.1424953172734
Thành phố Hồ Chí Minh,79,Quận 4,773,Phường 16,27289,Phường,,Phường 16 Quận 4 Thành phố Hồ Chí Minh,,phường 16,"phường 16, Quận 4, Hồ Chí Minh, Vietnam",ChIJ4fXRTGUvdTERlGLhIHZAT3k,CmRbAAAAzUqg6gDJktyE-D359B193RasaG16xHL7gE86ZJYZkjSzOMgg1UCxWnCEfImJTGubXkG9rW3y-8_IHta0dXcOdXHNaJDOIrraQWQJ5NncvbA6mGupF8CUFQ3cPYyZacgIEhD4qd3cn269I2N_XYnWdTV9GhTZ9hiysfv7pjHOPJvqLIznVSBYsw,394c269f741be66b6b309e00a1af21f3621e77a9,106.7124071,10.755125,106.7091833,10.7524636,106.7159585,10.7588167,"sublocality_level_1,sublocality,political",10.755640150000001,106.7125709,511.25702284391804
Thành phố Hồ Chí Minh,79,Quận 4,773,Phường 02,27292,Phường,,Phường 02 Quận 4 Thành phố Hồ Chí Minh,,2a Nguyễn Tri Phương,"2a Nguyễn Tri Phương, phường 4, Quận 10, Hồ Chí Minh, Vietnam",ChIJYdCcFeQudTERF3BeM7dFTtM,CmRbAAAAZh3hyiVsfHNYZP7on-TMBKwMu77rd1DxXS5HKmVJTRbIdb4QLV9uCv8iixVS2mXK1tY1WwvDNfnleeVir990U1YQGV-aUjximWTtuzsDihZTA-MTtA_mIRJA9vK3S6swEhC9_MvtLTqGSiOC90icr9AYGhTZKCITauv8ix9GVnBAT5IIel2z4A,460f934333cade03c2f90310eba06e231e0bacea,106.668971,10.76246,106.6672991697085,10.7610390697085,106.6699971302915,10.7637370302915,street_address,10.76238805,106.66864815,210.14249624057177
Thành phố Hồ Chí Minh,79,Quận 4,773,Phường 15,27295,Phường,,Phường 15 Quận 4 Thành phố Hồ Chí Minh,,phường 15,"phường 15, Quận 4, Hồ Chí Minh, Vietnam",ChIJr8KtxXEvdTERiWQfIUNGnqc,CmRbAAAA4Vrzr1agEipLDHqjQMZDAGeLE7iTrxJveoWnY0hwx9r_1AikemDMiAN8UNk2ve41fXx2KcMsyU19utDEAFm18Y2p7QUPZGWwI61iKuI4JVsabcQNbDs3V3lJZSTxuMxWEhAieTNIx0Jcilp48BZEOSSVGhSt91FTSppLR8YGctV9i9IuNgt8Gg,b063a11869bf586798166bb623d00911d377bd4d,106.7079845,10.7540075,106.7050847,10.7524268,106.7102292,10.7579973,"sublocality_level_1,sublocality,political",10.75521205,106.70765695,417.92101494005567
Thành phố Hồ Chí Minh,79,Quận 4,773,Phường 01,27298,Phường,,Phường 01 Quận 4 Thành phố Hồ Chí Minh,,Ho Chi Minh City law office,"Chung cư Khánh Hội I, 360C Bến Vân Đồn, Phường 1, Quận 4, Hồ Chí Minh, Vietnam",ChIJoUrFqw8vdTERPrhZ9qXwQk4,CmRRAAAAQSt-ZfO1iMbhnfvjmWrdhk2RMIys1LUI9Hycqgj2CNF1Yk_bzMu_yDrJ9gn96q2RgzJsO9I8MNkhlxIRIyltxd2df5a2ZWcnedK2gvQtFyQQzxygtogTlUtCFx9srWYqEhBh4kKRdXwxmO3Yu5ZIT9hYGhQuArBmMW8PbcinMVEbRCmgJcI3Jw,d3a49df3b36ed4fe87e95aeced044ce2647a67e0,106.69071,10.754495,106.6893610197085,10.7531460197085,106.6920589802915,10.75584398029151,"lawyer,point_of_interest,establishment",10.754495000000006,106.69071,210.14519761946136
Thành phố Hồ Chí Minh,79,Quận 5,774,Phường 04,27301,Phường,,Phường 04 Quận 5 Thành phố Hồ Chí Minh,,4b Nguyễn Tri Phương,"4b Nguyễn Tri Phương, phường 6, Quận 5, Hồ Chí Minh, Vietnam",ChIJu6V1OfkudTERDAoO-s3hmjk,CmRbAAAAfVfnpuXSRygrzhak2JjRAAbUaJK-fLdPP6SeLw1z2LvHDHvI2eM6SaVo7rjuBqheuc7f5l-t5A012VBf3xm3y-ru0zlJMpomMAWaojiFKujHDuFVWfNl1DrJshhb-h8kEhBvcWt1IHYFVtrvMUAgnYgCGhQ5LmMfRbNLXPU6pZlGLDevMNenew,7968cbdf17b96483e0232dca5fd5ca560af04cf9,106.6694669,10.7510929,106.6681179197085,10.7497439197085,106.6708158802915,10.7524418802915,street_address,10.7510929,106.6694669,210.14636138792835
Thành phố Hồ Chí Minh,79,Quận 5,774,Phường 09,27304,Phường,,Phường 09 Quận 5 Thành phố Hồ Chí Minh,,149/9 Nguyễn Tri Phương,"149/9 Nguyễn Tri Phương, phường 8, Quận 5, Hồ Chí Minh, Vietnam",ChIJG0dvnvsudTERB3jhDfi8kYw,CmRbAAAAfPnu8jkIZQB9YpAOI3WxDLqeFYexnlcnqDN_TcAY10NrT816jleEiQun6cRIgzCnqmSVMsYcV3Lpeix0Fg0ykSayNStzjX0yQcih4T8qAO3Sc-pnNdVqm9Hv1nt-F8ikEhB-NNjccZ58MgVkygT_UwSfGhQ-Z1DmiXQ-EKyx_O7qVbFYe6Mzrw,d0d32cbb377b92debf7557643f29b2c571f1b5db,106.6692256,10.7553344,106.6680671697085,10.7539758697085,106.6707651302915,10.7566738302915,street_address,10.755324850000001,106.66941614999999,210.14491369623147
Thành phố Hồ Chí Minh,79,Quận 5,774,Phường 03,27307,Phường,,Phường 03 Quận 5 Thành phố Hồ Chí Minh,,180/3 Nguyễn Tri Phương,"180/3 Nguyễn Tri Phương, phường 9, Quận 5, Hồ Chí Minh, Vietnam",ChIJ72P_veQudTERINEthfq7THE,CmRbAAAA9rgL7JrcYrvERmxznij6vX9mfTgk5hWm2811Qrqq96nPa2RRA_58eb1xLoOmDZf9HJqH3tLZ1D3gUTBESV4rrR-mZbiJ56qOXBfG3kCx49JNKsKcaqR1rZnJITmYJaF-EhDpW-cK691QVK9RTRzJQVe2GhR8bSuz7O-igLhj3XReV1qWAYEZLg,3777a217a7ba8df39715ec948f5d56f4f52c0670,106.6693064,10.7595352,106.6678084197085,10.7581535697085,106.6705063802915,10.7608515302915,street_address,10.75950255,106.6691574,210.14348402056478
Thành phố Hồ Chí Minh,79,Quận 5,774,Phường 12,27310,Phường,,Phường 12 Quận 5 Thành phố Hồ Chí Minh,,phường 12,"phường 12, Quận 5, Hồ Chí Minh, Vietnam",ChIJ3fTYuvEudTERP3dX-dXd1I0,CmRbAAAArMmGEOKDOCcRUG8K82-jGcJhtUegaB7UtzCMeFgORCaG9gbzM_zpub7l_ZoTvwP_R9NC3GJddI2VHMnnJIDYDNbDiQS8ZyLDV4yWhAhGEbDt4YWFMGNfV9Jvr80vc1QiEhBGwzG2OXG7XHoiXAYQqoXZGhTSFylsGm_8NtjMYRM5Eo7VIF68Rg,9ac01e67677f5e93bce0899f80e3fd7e2df9b30e,106.6601602,10.7564453,106.6559815,10.7542423,106.6661841,10.7593034,"sublocality_level_1,sublocality,political",10.75677285,106.6610828,623.8925209046857
Thành phố Hồ Chí Minh,79,Quận 5,774,Phường 02,27313,Phường,,Phường 02 Quận 5 Thành phố Hồ Chí Minh,,175/2 Nguyễn Tri Phương,"175/2 Nguyễn Tri Phương, phường 8, Quận 5, Hồ Chí Minh, Vietnam",ChIJW3DsbfsudTERFHwrB3e0-wU,CmRbAAAATXtfCauLm6CBx0onYJciIgF0EApW_1k0Y2ohACycR-XXDF8jkJOZpN9a4a4Ywz8g-JVUf06wCG0Pe4Wy0Lx4qjT9IfkS-IrlUx_uuuYWWGox9w470OFHkwhZ4ozM8LxXEhBWv48KUwjwXcnXnmAniRMlGhS8_NBVhaUBEyjPgmNw6PfPn17uLQ,beef71785e53eaeed0ad6a0f2350fe4f241a4c35,106.6692136,10.7562001,106.6680734197085,10.7548521197085,106.6707713802915,10.7575500802915,street_address,10.7562011,106.6694224,210.1446138730005
Thành phố Hồ Chí Minh,79,Quận 5,774,Phường 08,27316,Phường,,Phường 08 Quận 5 Thành phố Hồ Chí Minh,,175/8 Nguyễn Tri Phương,"175/8 Nguyễn Tri Phương, phường 8, Quận 5, Hồ Chí Minh, Vietnam",ChIJI7A1cvsudTERHpjvfphGd_I,CmRbAAAAD7LSNvGtD5ndtT1ufzBCRUoACwcJ8kQ-KSIP3IpLPaBBWursTW2h9Xnene9mlxIyVax4xq_a_4BZ0GvOvURJDPP1LJJnIMBIP7WUjGmqcNdYVxH2hIRMAfO8bXrs-3m3EhCwvMhGQwcvH3Xo0ztaVE1HGhS-C4LrsBHBB4ciG5DSKqUrau8pSw,3a2c231cbd6b1ab47642aca2f9f3d3d179ecb133,106.6692078,10.755982,106.6680710697085,10.7546340197085,106.6707690302915,10.7573319802915,street_address,10.755983,106.66942005,210.14468850141458
Thành phố Hồ Chí Minh,79,Quận 5,774,Phường 15,27319,Phường,,Phường 15 Quận 5 Thành phố Hồ Chí Minh,,phường 15,"phường 15, Quận 5, Hồ Chí Minh, Vietnam",ChIJu3aaL_MudTERy6YWZgzev0g,CmRbAAAAhdIb1LkLGKZUeqsa0aArGGtPXeUgkWAqStfpSX9vinzujST7xMe6xJRCqGsRL3O0ASegXfTOixXos2lItvhoonrGnYU0MMeJzDlOxX-zrSaOTjTm0URNKucODSKjBUXuEhBPC1gEDJ3cwI0OhQ5L5SLrGhQ0FppKPff_llKvnPAUavwmxoJL9w,6e18937fdd76694a2c8a4ba136c6279508c79b09,106.6534468,10.7556424,106.6506816,10.7535466,106.6562175,10.7573834,"sublocality_level_1,sublocality,political",10.755465000000001,106.65344955,369.81513411732266
Thành phố Hồ Chí Minh,79,Quận 5,774,Phường 07,27322,Phường,,Phường 07 Quận 5 Thành phố Hồ Chí Minh,,129/7 Nguyễn Tri Phương,"129/7 Nguyễn Tri Phương, phường 8, Quận 5, Hồ Chí Minh, Vietnam",ChIJnTVKmPsudTERi_qq42iaT2E,CmRbAAAAM8jsVfNbIGPT2RlbtQsSE8OkbD_Mm2pAEYqiBjq8QuthcmZ_00tzl9YDloziaXLTnZ8MZaKS4GZkL1ajghs0O9f66w233l6fNyEquZRtIrLL42RhAQqB5EMyxDDhV4XBEhBOu3jAXE-TZOX0SsmFeDEiGhRM6p41gF3PgsP5nU6ZHBH9Bdghcw,c89eddf66319cd999d7cb0fa980eee834aa6f6a1,106.6690891,10.7548791,106.6679856197085,10.7534921697085,106.6706835802915,10.7561901302915,street_address,10.75484115,106.6693346,210.14507919144492
Thành phố Hồ Chí Minh,79,Quận 5,774,Phường 01,27325,Phường,,Phường 01 Quận 5 Thành phố Hồ Chí Minh,,129/1 Nguyễn Tri Phương,"129/1 Nguyễn Tri Phương, phường 8, Quận 5, Hồ Chí Minh, Vietnam",ChIJwfGXmfsudTERKxUMO3sscaE,CmRbAAAARpRjDKLv7acijqkW6x_sD7o3nxfqJ1fEdd3fyjhiREjMKtJOfOXWv4MBoCqrZHE7mI7vrzmkru2NtoM6MTcYIi4qLSViHMymUH-_izub4AkaQWcVN1kJXnCSAXdv4IBkEhB_WlWorinB4Fwy2_SZ9Zy8GhQKibkKKycz07q1y-MMtpFLeADUKg,6c3b41df1639ed3b3323d46acacd9b5301199ae3,106.6692026,10.7549031,106.6680441697085,10.7535388697085,106.6707421302915,10.7562368302915,street_address,10.75488785,106.66939314999999,210.14506321253225
Thành phố Hồ Chí Minh,79,Quận 5,774,Phường 11,27328,Phường,,Phường 11 Quận 5 Thành phố Hồ Chí Minh,,Phường 11,"Phường 11, Quận 5, Hồ Chí Minh, Vietnam",ChIJNRddxPAudTER1pEzW13CjA8,CmRbAAAAublBZYkA0mKULFPzP6vgtG6jX6b7FmO1Mw87bXGUNfBgiLaGnr69BMzFKg9xGHVkEirh1BIbYvwk8E4Oe-qjgpxcSjqd74XgchhokFMmb_Vv3lci4eJ178ZTVAMkYYAPEhDacIKt1uChAW-l9kDsfVitGhSGJ-LF3W9U30Rr096jbXxEE2R0Xg,d0f93d49ef0c34bf5daad84ff1264e302d628b0c,106.6622899,10.7537961,106.658275,10.7520399,106.666751,10.756023,"administrative_area_level_3,political",10.75403145,106.662513,512.8841615543162
Thành phố Hồ Chí Minh,79,Quận 5,774,Phường 14,27331,Phường,,Phường 14 Quận 5 Thành phố Hồ Chí Minh,,phường 14,"phường 14, Quận 5, Hồ Chí Minh, Vietnam",ChIJp9bxifQudTERofpDEnbx6Yk,CmRbAAAAY0BOTieLSYKSbnObpHk1k1C1oeCjQpjVpD-Ks5_eKJ7DRLyBSPCIaKx_8UtMWItwANEE0jjtmY84OQKD43lGmeqveu4I5Kp1IhXHhv_LRzXsYS_UxW-AHfubCnHV2bdWEhDyUOdXTBJ3sbyvqb2q0eNFGhTSbWISiVcPnQym_k7UpBWFyF6rCA,c0374c93bb90c342c11796ca4f98627d9829ad3f,106.6549206,10.7528392,106.6505313,10.7499234,106.6591145,10.7544912,"sublocality_level_1,sublocality,political",10.7522073,106.6548229,532.8576714412774
Thành phố Hồ Chí Minh,79,Quận 5,774,Phường 05,27334,Phường,,Phường 05 Quận 5 Thành phố Hồ Chí Minh,,175/5 Nguyễn Tri Phương,"175/5 Nguyễn Tri Phương, phường 8, Quận 5, Hồ Chí Minh, Vietnam",ChIJs4sScvsudTERVZswVVFfQWg,CmRbAAAAtfKS6BpxjV8g_TPRijloqPr8W7tAPGPMtJ6lwmykrM8WyXiz3HIH9Bvm-78sDQ4QSvrjZysGduc5GQPZoM86QlpxrNLmHRJqWRizSqWECRsmOleMb-uelB2AiWpwlnzCEhB_qsK1eTpx0QtGBNdmikOpGhShH6t0nIfOzByC0DeQyLrlc2DoPQ,4a818b945964380aee89694f81addd4c5a7c706f,106.6692095,10.7560917,106.6680716197085,10.7547437197085,106.6707695802915,10.7574416802915,street_address,10.7560927,106.6694206,210.14465096595052
Thành phố Hồ Chí Minh,79,Quận 5,774,Phường 06,27337,Phường,,Phường 06 Quận 5 Thành phố Hồ Chí Minh,,"5 Khu V, Đường số 57, Phường 10, Quận 6, Tp.HCM","5 Khu V, Đường số 57, Phường 10, Quận 6, Tp.HCM, Khu V, phường 10, Quận 6, Hồ Chí Minh, Vietnam",ChIJX3LnltktdTERBTuYCefcjMY,CmRbAAAAfTu4qLzPh2LwEYjb9k8x3NMXpHymRN9VdCMeWQaYhY6jmGeTJgSXLwTSkWN24TkE21zDUX52CY-AjaH_GOzblp9WNtuk_oGRBveIL8i-REuj-h321_X6Brn-mVpL-gxjEhDi52YEPfaO2Fo01rA-nio6GhQlwnDH54J4u1O_3vDu_dkOlED39g,ac9c11a8b55f91229cfa0534b431fc5934642dff,106.6244381,10.7370125,106.6230891197085,10.7356635197085,106.6257870802915,10.7383614802915,street_address,10.7370125,106.62443809999999,210.15117411987018
Thành phố Hồ Chí Minh,79,Quận 5,774,Phường 10,27340,Phường,,Phường 10 Quận 5 Thành phố Hồ Chí Minh,,phường 10,"phường 10, Quận 5, Hồ Chí Minh, Vietnam",ChIJ36NFBfcudTERp2Az7lv87I0,CmRbAAAA___l_ARxYwuDaNWBGYwy7KLpQliIsEtz5P09jdYmEYRBDKUbn29nI13dMvCfB2nAdjkWkhv4JoCIugIBNA-P1ALrwCyRL3AqTyyFfhQy5OP9piZOITmFQQ_VUO01zINdEhAqVREwfCleWhtr0OPo7JhgGhT8pRe4rGyXT0RaHPPkfTxBCuDigw,eed6dff85ff72e58faf2d191ea789194055a19fb,106.6622899,10.7510738,106.6589212,10.7487612,106.666968,10.7525348,"sublocality_level_1,sublocality,political",10.750648,106.6629446,486.73054633984464
Thành phố Hồ Chí Minh,79,Quận 5,774,Phường 13,27343,Phường,,Phường 13 Quận 5 Thành phố Hồ Chí Minh,,phường 13,"phường 13, Quận 5, Hồ Chí Minh, Vietnam",ChIJ70JKlPUudTER2GVufw4Q37M,CmRbAAAAR-uUVaGEDmYTsph8zxHBvtsPLvI4VNou5CRpVbdQ6oekbkUVfxbCsFmAZij9hAp9yu5wlj-2FbkbMrzDUS02jqnhP0yL3n843aHxRIVTzeLkRYgJOkcAvQUO7Jlnv3I0EhD2282g129MBPas74gUBiqlGhS5Sh3skomDAGW1FNdpqes4dUPWfQ,c545bf13f8bb5c5bc11c4706a6a4285b22fbf7bd,106.6563945,10.750036,106.6532994,10.7472434,106.6605306,10.7512699,"sublocality_level_1,sublocality,political",10.74925665,106.656915,453.7263676497473
Thành phố Hồ Chí Minh,79,Quận 6,775,Phường 14,27346,Phường,,Phường 14 Quận 6 Thành phố Hồ Chí Minh,,phường 14,"phường 14, Quận 6, Hồ Chí Minh, Vietnam",ChIJgT5f8IIudTERdxCVCMNZ35Y,CmRbAAAAVA0yl4r8mYC6g-banLnK_sHhVp2_s1BLuQMiO10Q9x7ZFTeKWLV5z2S8Ngx2FiA6rn42SUEaZF0Am6hS2XkGLDWG-xY474ubBDYCdYUoHv8EIazFHSp25IXl8qtsMI4CEhCcb4B_LfIZboxBEWsed-aeGhR9pltkGzK4Tfk-TqIuMHuAo06l2Q,390d2cca6adb4ef29a6f916489539bc21fb1d79f,106.6322597,10.7577874,106.6240812,10.7540136,106.6375004,10.7620513,"sublocality_level_1,sublocality,political",10.75803245,106.6307908,857.9110379870767
Thành phố Hồ Chí Minh,79,Quận 6,775,Phường 13,27349,Phường,,Phường 13 Quận 6 Thành phố Hồ Chí Minh,,phường 13,"phường 13, Quận 6, Hồ Chí Minh, Vietnam",ChIJJ3WFfyosdTERZU7Pdkn4wRw,CmRbAAAA7tutxltALND9QIS_HiUz1-3Ru7SGbynzJPQcnDg_cgAcEctOtSUqug2-T0B9fmxvtK7nUGPS_Dxaj4OsSJjKSU4O9MRLxG2jy09wPXXJi95IgiUwwzwdpfclzlDTDs8SEhAChMJ0XR_EJpl-BWzGoxvAGhTrAQ_zuUIiveiJB0u3LhPHisqdSQ,f27f0f24e2ad86701b71ebc07378f3661e02103e,106.6276567,10.7536523,106.6237547,10.7455068,106.6344878,10.7580158,"sublocality_level_1,sublocality,political",10.7517613,106.62912125,909.0339846199929
Thành phố Hồ Chí Minh,79,Quận 6,775,Phường 09,27352,Phường,,Phường 09 Quận 6 Thành phố Hồ Chí Minh,,"9 Khu V, Đường số 57, Phường 10, Quận 6, Tp.HCM","9 Khu V, Đường số 57, Phường 10, Quận 6, Tp.HCM, Khu V, phường 10, Quận 6, Hồ Chí Minh, Vietnam",EnU5IEtodSBWLCDEkMaw4budbmcgc-G7kSA1NywgUGjGsOG7nW5nIDEwLCBRdeG6rW4gNiwgVHAuSENNLCBLaHUgViwgcGjGsOG7nW5nIDEwLCBRdeG6rW4gNiwgSOG7kyBDaMOtIE1pbmgsIFZp4buHdCBOYW0,CtQB0AAAANAmWMruGhB61xLdYv6e3iMu2N56OoJjK4e0YhFtdYunGzmmJ4SWYQaVcI0X3HYccnPEdVLNlnIFb6gDfXCd5TLYz660Ihap9DJkDs3-QPCvtbz4ZjvG5hJzjLWMNsgUb1EYkL734ysdUfJL7DRoVjgj-Sk0dIaP_6F5BLGPOIiiwqsnLf66qOPKJVWNPFrXSHRveZdsbP00IcF-ixcgDFetIIK4O3qsvhnejZl3K9D0XvzyPgF-q-D4BZEfpHw54QqnWfgL3VA_QZsJ8tiUphESEOr4FQNYtRmPQC7SvPjKH_saFO03_MOWt2g6TEIpRwy0y7odqrQk,276a77122039c5c60f2565eb848365e309871b35,106.6245142,10.7370693,106.6231558697085,10.7357204197085,106.6258538302915,10.7384183802915,street_address,10.7370694,106.62450485,210.15115468355836
Thành phố Hồ Chí Minh,79,Quận 6,775,Phường 06,27355,Phường,,Phường 06 Quận 6 Thành phố Hồ Chí Minh,,"6 Khu V, Đường số 57, Phường 10, Quận 6, Tp.HCM","6 Khu V, Đường số 57, Phường 10, Quận 6, Tp.HCM, Khu V, phường 10, Quận 6, Hồ Chí Minh, Vietnam",EnU2IEtodSBWLCDEkMaw4budbmcgc-G7kSA1NywgUGjGsOG7nW5nIDEwLCBRdeG6rW4gNiwgVHAuSENNLCBLaHUgViwgcGjGsOG7nW5nIDEwLCBRdeG6rW4gNiwgSOG7kyBDaMOtIE1pbmgsIFZp4buHdCBOYW0,CtQB0AAAAPxSMSrNog2M1HN1J5fwLuJn4Bf9T_mjAqF5mIYAeIyCQBqm4VSDU0HRM5Kv1j5bDUrauYg1ch5KDtjG17R8AM8B1GFdr2BKaBEK-ha7CUWihNMObSMj9tusH_mnTtuRKL2U0S4q7knIG68Kxvvie84o1s2PYsokV3mBfs1UI2aIXBegE6lc0FM0osofu6g0kSw3l1x_nLASF0GBVO44XKKTc22CSqGz5YH-hjNBR-DRnyvG6GIXPXjEOZ-Jnk00QmbRADRwxPbuMX1mrJVKavwSEE8fHl_cuQE0zy1-7r-cZCIaFCQYoowQHj1qZU4JBfThfo15Vkyv,10881015a703d1fbbaae1765df2f222b411d87a2,106.6245167,10.7372491,106.6231771197085,10.7359000197085,106.6258750802915,10.7385979802915,street_address,10.737249,106.6245261,210.15109333371515
Thành phố Hồ Chí Minh,79,Quận 6,775,Phường 12,27358,Phường,,Phường 12 Quận 6 Thành phố Hồ Chí Minh,,phường 12,"phường 12, Quận 6, Hồ Chí Minh, Vietnam",ChIJ306jl4AudTERAZAFLmdodjg,CmRbAAAAKOE5HzoxPGBTpmnHGFVlEbAcMZZGjFh-LTNbNIEb4DdlUYP_dSSeAai3t30GlNDenNneo8ryr0LIC3_hBF69rwUOE68OqRow0kWPLDa_7DvjFdV_isLByUb_JpA7HQWZEhB_9EOMwpyjmFfb6Ez6O4_eGhSZ9TSVtBTGi5sf0K_UdWBoiX4lYA,e725e9b1b949eec97759fe97a4c3f0e08804406b,106.6335513,10.7506069,106.6237589,10.7453527,106.6398335,10.7546217,"sublocality_level_1,sublocality,political",10.7499872,106.6317962,1017.4491506642163
Thành phố Hồ Chí Minh,79,Quận 6,775,Phường 05,27361,Phường,,Phường 05 Quận 6 Thành phố Hồ Chí Minh,,"5 Khu V, Đường số 57, Phường 10, Quận 6, Tp.HCM","5 Khu V, Đường số 57, Phường 10, Quận 6, Tp.HCM, Khu V, phường 10, Quận 6, Hồ Chí Minh, Vietnam",EnU1IEtodSBWLCDEkMaw4budbmcgc-G7kSA1NywgUGjGsOG7nW5nIDEwLCBRdeG6rW4gNiwgVHAuSENNLCBLaHUgViwgcGjGsOG7nW5nIDEwLCBRdeG6rW4gNiwgSOG7kyBDaMOtIE1pbmgsIFZp4buHdCBOYW0,CtQB0AAAAANCGEKDSjF6Rz7eQIHlhNu5w9Iaz7DJqiqACv_CjBkzzHjLhJ9tycxZQxuYt6XdoEzBnGYhJ2LJUZ7P2h1CGTjIgOVl7TwmWP61ey8lhSSlkkYtf0xnUNxqyRTlhE_XtBA67ITKD0YMG3Wg9a9e__rmrOtc1RRew_HoAiv271A2bfDnpj0ck4LrsUhFC-SQhLAYSywGllpRGlbIYL-S3gKgTPMl-8EC4lXRZWCx2Zo-mAkdJBqCt4LxWr9LVXJuehdGiilToD8yyctAVco6JeESELEPMYgT4OOYQLhhgAHRd1waFJW-y4DlF_KFKaDBSmJeYE88JuiS,069fb0f2125f99fa6f8795a90d2d443965a24868,106.6245134,10.7370115,106.6231550697085,10.7356626197085,106.6258530302915,10.7383605802915,street_address,10.737011599999999,106.62450405,210.15117442717178
Thành phố Hồ Chí Minh,79,Quận 6,775,Phường 11,27364,Phường,,Phường 11 Quận 6 Thành phố Hồ Chí Minh,,phường 11,"phường 11, Quận 6, Hồ Chí Minh, Vietnam",ChIJTTxOPH8udTERWHevcgOQIPk,CmRbAAAAieOETMpthpimGWjQMDeI5taE73rbkEzPh7fzXX91dIlYU9r8f-w1_HnQOPKK3gAC_TClk-NTygGUbuYidj51qCB1vqqFXtXJA5rxlpj5zPsUhGbR_LIU6ulYoiXArXinEhBohCVB8VQg4w8kANpdGk_cGhSx0D9hqOifRe3c0FWVxjf8Ut-YdQ,b5dbdeb4536391207ac870e4ed521d97aab071e2,106.6335513,10.745162,106.6226416,10.741193,106.6400138,10.7492492,"sublocality_level_1,sublocality,political",10.7452211,106.6313277,1048.6599756165006
Thành phố Hồ Chí Minh,79,Quận 6,775,Phường 02,27367,Phường,,Phường 02 Quận 6 Thành phố Hồ Chí Minh,,"2 Khu V, Đường số 57, Phường 10, Quận 6, Tp.HCM","2 Khu V, Đường số 57, Phường 10, Quận 6, Tp.HCM, Khu V, phường 10, Quận 6, Hồ Chí Minh, Vietnam",EnUyIEtodSBWLCDEkMaw4budbmcgc-G7kSA1NywgUGjGsOG7nW5nIDEwLCBRdeG6rW4gNiwgVHAuSENNLCBLaHUgViwgcGjGsOG7nW5nIDEwLCBRdeG6rW4gNiwgSOG7kyBDaMOtIE1pbmgsIFZp4buHdCBOYW0,CtQB0AAAAK1_qR21s4A8pO-WM-NwikL8Pk9nKo2-1wwZOEVzbuaXvdJWsn8ZF4thACrTZdg43idIMf-YR1zIeA9TFr_yr71Bbqd4Dyt3JRqnP3Q_q6-glY-iMiHaUIpukZez98tn6joPXE_GcB6I1ECLn63ptDBW8yv5T0YYRlZDar5KZ0cTq069mBM665l6SVK60lV22m9J8_IIAKpOioZsmjN1Ot9xd0vjGjAbrwY0CT7WSc_iZ55IyRGVVG4l2iyjSqg_GumSQV69N_c5bybjqOXGvIQSEFmJR6-SCaKi9pwQwEbuF6kaFOND2QlmWe_0c14KHqRfppdcHSfy,3989c0b9b412d3ff755d28e7b5c0b4310eef874e,106.6245153,10.7371434,106.6231756697085,10.7357943197085,106.6258736302915,10.7384922802915,street_address,10.7371433,106.62452465,210.1511294391414
Thành phố Hồ Chí Minh,79,Quận 6,775,Phường 01,27370,Phường,,Phường 01 Quận 6 Thành phố Hồ Chí Minh,,Công Ty TNHH Thương Mại Sản Xuất Và Đầu Tư Sài Gòn Công Nghệ Xanh,"89/8, Phạm Văn Chí, Phường 01, Quận 6, Thành Phố Hồ Chí Minh, Hồ Chí Minh, Vietnam",ChIJq5dXqGEudTERq8M9oEXx8Fk,CmRRAAAAoF8Y1hBhsNcQjehVTkxZgWgvKocKdmTA4kQXM8ObBxuMQ9NFnjwpmepke5a54jPSky9YKcKU4Ulfv7pky3zn94GaqvolKHuvIWSb1RqgB5wKuK7CRBxMDdlNkBzEN9IMEhB1kRmyXP6Mw3tbLEfCElPaGhQJD6nallbOGC9qS4cGzvPKOim5ow,37361b930441ca99c1555d9f3783ff5b62b4db09,106.6491687,10.7458309,106.6478197197085,10.7444819197085,106.6505176802915,10.7471798802915,"point_of_interest,establishment",10.7458309,106.64916869999999,210.14816067486493
Thành phố Hồ Chí Minh,79,Quận 6,775,Phường 04,27373,Phường,,Phường 04 Quận 6 Thành phố Hồ Chí Minh,,"4 Khu V, Đường số 57, Phường 10, Quận 6, Tp.HCM","4 Khu V, Đường số 57, Phường 10, Quận 6, Tp.HCM, Khu V, phường 10, Quận 6, Hồ Chí Minh, Vietnam",EnU0IEtodSBWLCDEkMaw4budbmcgc-G7kSA1NywgUGjGsOG7nW5nIDEwLCBRdeG6rW4gNiwgVHAuSENNLCBLaHUgViwgcGjGsOG7nW5nIDEwLCBRdeG6rW4gNiwgSOG7kyBDaMOtIE1pbmgsIFZp4buHdCBOYW0,CtQB0AAAAJ4vaahqr6KvAgEE9u2ba5-Op-o0BFJX1vzDQRGU63mgpy0Q0b3mRfwMeqza8singiUqWJQRtBkXPSGRsUv0R3X3lMYPkrdV6smfBRnegvgfqwjt3uC3ReAB69kx0fV4snhRoZHJMINWayAT0Zu19HC5_6i0DX_hWKQSHx-MBwTDnwBKI_YKIeegDqhYWQKRaBJbhRvkTOuPxd_tgMYyoqRY9PvWQ9WoPcbNJulIdPvIrDdf3WNBdpghXzJC-d8snxM14ZbczPeuGyuQIaTvQcgSEMeH-aSTAXkAJTp6C_K7J54aFDL7X-ssXF3QRa19fD4kv7vtMp99,4789b65401cd44a7daae76dd6760a6386e2a17da,106.624516,10.7371963,106.6231764197085,10.7358471697085,106.6258743802915,10.7385451302915,street_address,10.737196149999999,106.62452540000001,210.15111138786858
Thành phố Hồ Chí Minh,79,Quận 6,775,Phường 08,27376,Phường,,Phường 08 Quận 6 Thành phố Hồ Chí Minh,,phường 8,"phường 8, Quận 6, Hồ Chí Minh, Vietnam",ChIJbzcLZXsudTERuJfVc-HzGgE,CmRbAAAAxA1hTld7bf-9gWdF6UMBzU_gEGd6pLp5Lvj7qpTu3Sbt_9I4GMM1MU-Cp6OXoiMHKP1uI4-ShWf_HA4vY0ymxzOZ1vE1lOIP3ARol0ZGkushAKPmTQPwx-6sngw0iQ7SEhAwFUOpK9oNr9nKHt-2D136GhQAtbNzmwODDjotFGqhJ-TFMV53Nw,edc38ac465ac99d57c5de813180d98b662822ab8,106.6387092,10.742838,106.6344136,10.7389162,106.6431713,10.7470247,"sublocality_level_1,sublocality,political",10.742970450000001,106.63879245000001,656.9109419181251
Thành phố Hồ Chí Minh,79,Quận 6,775,Phường 03,27379,Phường,,Phường 03 Quận 6 Thành phố Hồ Chí Minh,,"3 Khu V, Đường số 57, Phường 10, Quận 6, Tp.HCM","3 Khu V, Đường số 57, Phường 10, Quận 6, Tp.HCM, Khu V, phường 10, Quận 6, Hồ Chí Minh, Vietnam",EnUzIEtodSBWLCDEkMaw4budbmcgc-G7kSA1NywgUGjGsOG7nW5nIDEwLCBRdeG6rW4gNiwgVHAuSENNLCBLaHUgViwgcGjGsOG7nW5nIDEwLCBRdeG6rW4gNiwgSOG7kyBDaMOtIE1pbmgsIFZp4buHdCBOYW0,CtQB0AAAAOZL84nguPiFYtjQaVAt3zIgXsqFxU3lw7AXrWeo6_Jjdk9ZRXdZhlPPDjSTMp9bU21tmv2ztAe4GWA0uZ9ktnREszaXEtcH3hqDB48xGP1F2vf_EHzd9b5otQYvOuurCxGWnim8DXBshTRHV2QWFZaJK7c5TQ1RXK6w42dann7OLw9YX4JLU56AuhDxmeHXcSg92bsHLRdyb_WBoZz3doKPUfXnDI4DmuRGUT6QtarpCwEv3K-_yZ3qlkWJ-Pt2CHXSS7-PaOPv6y1RyH1d1acSEFkhfc5NNhleReF4u8iW74saFJVhJUM4SN1XO0IbaO-8WEnN1TnD,53cd87005b486dc77de91d32ee647b3d4c252619,106.624513,10.7369767,106.6231546197085,10.7356278197085,106.6258525802915,10.7383257802915,street_address,10.7369768,106.6245036,210.15118631448232
Thành phố Hồ Chí Minh,79,Quận 6,775,Phường 07,27382,Phường,,Phường 07 Quận 6 Thành phố Hồ Chí Minh,,phường 7,"phường 7, Quận 6, Hồ Chí Minh, Vietnam",ChIJ6wJsnHoudTERBzFLx_5Iq4I,CmRbAAAA9BVh-_P-5eIjQpz1mVw4vbAfFFK1rLBqTp4vYdPmkpvFZnz2OUZyh2sV5turJjBpJpLXV2OBPRKBKo1ZAePCacwYan8NTSiAFWqc71aYNkHLiSbr8YE0Kp080n-GE1j1EhAVycwEAVO-HTr1nrVifSfoGhR2XaIKIDnetlxlBj-FoLyvZ_WR7Q,57bfd811f0c8e4a3bd3d6085f7ce6619caae0e57,106.6387092,10.7387547,106.6337596,10.7337678,106.6440334,10.7428325,"sublocality_level_1,sublocality,political",10.73830015,106.6388965,753.8037754724705
Thành phố Hồ Chí Minh,79,Quận 6,775,Phường 10,27385,Phường,,Phường 10 Quận 6 Thành phố Hồ Chí Minh,,phường 10,"phường 10, Quận 6, Hồ Chí Minh, Vietnam",ChIJAaIRYdgtdTERX2SH2Ju-JlY,CmRbAAAAROYh-y7SWvj0m-HyS8a2UbN7r-zE19zQ0qY4r-2RatIkQTgSPIxu4P_T0_i684iGgka4SgtBQDiYRVQXOpV-cCxOCaETHNsqm1PsdMbWQhVze3VTlo-vlUENmc71ybB1EhD7LzoGbKMNcdW6Ec-o8Uo2GhRP6DvEbe5TIQp_M89vR-xDYYMlxQ,f65facdc40c1d24cee9df3da3dc8bdade3b144b7,106.6238525,10.7403696,106.6209809,10.7299034,106.6346934,10.7432219,"sublocality_level_1,sublocality,political",10.73656265,106.62783715,1052.6038079568905
Thành phố Hồ Chí Minh,79,Quận 8,776,Phường 08,27388,Phường,,Phường 08 Quận 8 Thành phố Hồ Chí Minh,,Công ty CP Sách Giáo dục tại TP Hồ Chí Minh,"363 Hưng Phú, phường 9, Quận 8, Hồ Chí Minh, Vietnam",ChIJI_hr7_8udTER9T6qa5Vd-jw,CmRRAAAAgkgHq6M9yifFku4OpG8yVWbLhqMCOZnNRdm6E60AoKrtd535OR-bWCgJsidVLBAGtpunBJoyVjn8Ua_w_rfNcyOBUK7gk2usk6njlmbG7kNOfQd6i42nmeYWDXPQ7KvEEhAUJ4RynkszirhjhgUQYVKtGhR8CsAScyuXzhJ2VvsF0rH4Vr_1AQ,6b2125c9cf7d0bc52ecb5fe1de7cc81002505ab6,106.6754832,10.7478622,106.6740702697085,10.7465948197085,106.6767682302915,10.7492927802915,"book_store,store,point_of_interest,establishment",10.7479438,106.67541925,210.14743829311098
Thành phố Hồ Chí Minh,79,Quận 8,776,Phường 02,27391,Phường,,Phường 02 Quận 8 Thành phố Hồ Chí Minh,,"2-4-6 Đường số 1 khu Hiệp Ân, Phường 5","2-4-6 Đường số 1 khu Hiệp Ân, Phường 5, phường 5, Quận 8, Hồ Chí Minh, Vietnam",ChIJr5lDP1AudTERJrLDvBMHt2w,CmRbAAAAOKZRcLfxyZFdrAvul1k3mV4Nqk2s4gnRFYEjbhevz5xNR31BeMUdP09uD-hfXrCUhsGzlBnCuMGf2WJr89e8QKsfYFRaCrOj5CYu7xWhXDvCyZW6_yQso1OHo43my2dzEhCAomigLza0katei21AoltOGhQmZPoAykW2L6JCjo_qTxAY5kxSVA,383e5ea035c419c2a8ef5308bf4bed12deeb1704,106.6662989,10.737862,106.6650022697085,10.7365330697085,106.6677002302915,10.7392310302915,street_address,10.73788205,106.66635124999999,210.1508770808385
Thành phố Hồ Chí Minh,79,Quận 8,776,Phường 01,27394,Phường,,Phường 01 Quận 8 Thành phố Hồ Chí Minh,,"Đường số 1 khu Hiệp Ân, Phường 5","Đường số 1 khu Hiệp Ân, Phường 5, phường 5, Quận 8, Hồ Chí Minh, Vietnam",ChIJYQZwL1AudTERrsNELnI6xOc,CmRbAAAAGlPFl3-Fx0Kjms4wc3qWEq8kz4b8d3WjrKKAs3vF03YAedzeHRX4cyLvlFDoO2SpUEwjK5gis3L26z6lXF1v_VOonLRYEb4jU1A479PtTljMnqrLhCjQGkoOKzRzS6bMEhAu0W_E2CC8xcDSt2x3Ang4GhQ2ffrKbw93ATkuGFa2agkGqtKmug,520d0227ef5d7156d86eeef1b3ed2e409141944a,106.6666189,10.7371756,106.6652699197085,10.7358266197085,106.6679678802915,10.7385245802915,route,10.7371756,106.6666189,210.1511184067301
Thành phố Hồ Chí Minh,79,Quận 8,776,Phường 03,27397,Phường,,Phường 03 Quận 8 Thành phố Hồ Chí Minh,,3a Nguyễn Tri Phương,"3a Nguyễn Tri Phương, phường 4, Quận 10, Hồ Chí Minh, Vietnam",ChIJudOeFeQudTER802CR-TsTKk,CmRbAAAA-qx1p3DGNC-WQ3BSZI7i1BoF3HH1x66fT4xRRvoKpKRXOcywzhnB-XW6mpVCK_POx5gf98pqNJ4icXLH_bPrbCiCZp6MXxX7fPeQDxIzmAA0wbiLSQdpyKk3MfkU8igiEhDFeRI230CpxZT6l1RWc3jQGhRUZy9VT-aUVcd1c3IMtcOAFcNf1A,59d50339bb8df12433d817cd6701470d1a8aa4fe,106.669001,10.762466,106.6673142697085,10.7610417697085,106.6700122302915,10.7637397302915,street_address,10.76239075,106.66866325000001,210.1424953172734
Thành phố Hồ Chí Minh,79,Quận 8,776,Phường 11,27400,Phường,,Phường 11 Quận 8 Thành phố Hồ Chí Minh,,phường 11,"phường 11, Quận 8, Hồ Chí Minh, Vietnam",ChIJNxIXAfgudTEReBT2-ouVu8c,CmRbAAAA17tPpHviMgcdsqTBwhXPNpbFdPHt4V820JrzwCH8KlLmTrN6Ir3QuYZ566FwIGCMSY0FnVYimzed-iNABVQTQngNQwFGqSu-5L4gGZ0TYuHkTh5mKXF6vaHnNe625TmlEhCDx0vJLnsQzg-B7sKDfnu_GhTzDjWz4xN-6zLBy-fmwN9S_en6kA,d49fdcd26d886117071aed4f0a1d526a00e1989a,106.6637637,10.7482708,106.6599298,10.7429638,106.6704655,10.7504056,"sublocality_level_1,sublocality,political",10.7466847,106.66519765000001,708.3369112331637
Thành phố Hồ Chí Minh,79,Quận 8,776,Phường 09,27403,Phường,,Phường 09 Quận 8 Thành phố Hồ Chí Minh,,09 Đường Cao Thắng,"09 Đường Cao Thắng, phường 2, Quận 3, Hồ Chí Minh, Vietnam",ChIJt7-HCyIvdTERX59jyjlE9bY,CmRbAAAAcAKiQ9rYCTYtQah-2VEu76-uui3gGUyXY6Gf_lSsMkSYXFU_MIJ_N_e4ubQE6jrGc9GU_YT2bcvB46eyqQbbY5YoGvE08ZLOaSwgmdRMSvHbMSpfCP0c4Vhmq-WJIPmbEhDpC4B5rVO_l0izeozQ_XFAGhT6aRnGPiWhUPHxzPv-bv3pQ-1qqQ,103123371e826672a95d8e666023335644a66a04,106.683438,10.7686228,106.6821543197085,10.7673437197085,106.6848522802915,10.7700416802915,street_address,10.768692699999999,106.6835033,210.14033710726758
Thành phố Hồ Chí Minh,79,Quận 8,776,Phường 10,27406,Phường,,Phường 10 Quận 8 Thành phố Hồ Chí Minh,,phường 10,"phường 10, Quận 8, Hồ Chí Minh, Vietnam",ChIJxYT5klcudTERC5NRmO20SGo,CmRbAAAAflmfKWSRpls7iKAS7FVWFCu-el8io-lkDZraWcazk0HZ4wrfXqikXe3D1938lZukuX3D8E-t-CPN81vP6Qn6ZOA_-zvI4uhR5f6ycp0tCbP6wxmRcOSgHmIAdHwyxLUxEhD7KBSVOFmomzM0ZSEkDCS6GhQpGl895iFAZMPrAnnqvClQMOcV4Q,9d517ab86f618f1ee3d9c4ec0381bfd1b9cf276a,106.6637637,10.7455487,106.6615606,10.7429744,106.6690279,10.7489087,"sublocality_level_1,sublocality,political",10.74594155,106.66529425,524.2894277271865
Thành phố Hồ Chí Minh,79,Quận 8,776,Phường 04,27409,Phường,,Phường 04 Quận 8 Thành phố Hồ Chí Minh,,"2-4-6 Đường số 1 khu Hiệp Ân, Phường 5","2-4-6 Đường số 1 khu Hiệp Ân, Phường 5, phường 5, Quận 8, Hồ Chí Minh, Vietnam",ChIJr5lDP1AudTERJrLDvBMHt2w,CmRbAAAAP9Qky8qc7sC8lUGoEt-8RyQo5xpaLM9xGaKBwaZ1zNXYv_EayQVtjJY5M8lQH7mEpZCmXbHahLq1Beq1vCVqQmPETATPvBKZw3j6Ms2rqE_H2X2Ob6cIUZKRGvSiKv5REhCOacyED-xOzoAi_nsC-Lo3GhR9bp2Q0GvKSsE8J_AqBDKsLZ5roQ,383e5ea035c419c2a8ef5308bf4bed12deeb1704,106.6662989,10.737862,106.6650022697085,10.7365330697085,106.6677002302915,10.7392310302915,street_address,10.73788205,106.66635124999999,210.1508770808385
Thành phố Hồ Chí Minh,79,Quận 8,776,Phường 13,27412,Phường,,Phường 13 Quận 8 Thành phố Hồ Chí Minh,,phường 13,"phường 13, Quận 8, Hồ Chí Minh, Vietnam",ChIJUXyNAF8udTERGCi5I9gl_DU,CmRbAAAAxYWvIjpwuyzGSeue3HeO8vvkKDRVSv04ghpKuZiwdmPvi3z-WLrGc-3wN3v-xgGAFwavkf6Q-OD33dp4QIDXdgBLoqjmqTX1GXjPEPLiMokvFJ_wJ7LiXO9IPJ2rumWfEhCvpgIsqcJBvwXiXz8tItfEGhR3QBsWnHrpYIg8K3MHVSYwuLQanQ,e859b9f0b8de7247d5f3ff129768371378651b21,106.6563945,10.7459527,106.6509818,10.7427953,106.6600585,10.7485293,"sublocality_level_1,sublocality,political",10.7456623,106.65552015,589.0730462533367
Thành phố Hồ Chí Minh,79,Quận 8,776,Phường 12,27415,Phường,,Phường 12 Quận 8 Thành phố Hồ Chí Minh,,phường 12,"phường 12, Quận 8, Hồ Chí Minh, Vietnam",ChIJhcshl14udTERxFZZdT6Yw-4,CmRbAAAAL05lNv_wFJOjYkfFYpEOLs03yCiYAZ3vSLPOnayDrV1fI4MDNSdmqqNP_Xnbjq8LfjMChYHm5FYS5jIquEMh_iSMnO8PjEdVcyuWH16VA3UdFnNKEKT8TCIjO2H2lv1EEhAx_iNbP3KfXR4qU2fagilvGhQiZ5TlfTQMidsMzYuiuh-y7sTXYA,87791180793d90de6f055840e326405c0ad577e3,106.6563945,10.7432306,106.6516471,10.7402865,106.6611529,10.7462947,"sublocality_level_1,sublocality,political",10.7432906,106.6564,617.0188852364242
Thành phố Hồ Chí Minh,79,Quận 8,776,Phường 05,27418,Phường,,Phường 05 Quận 8 Thành phố Hồ Chí Minh,,Quán Ăn Gia Đình 05,"23, Đường Số 13, Phường 4, Quận 8, Thành Phố Hồ Chí Minh, Thành Phố Hồ Chí Minh, Thành Phố Hồ Chí Minh, Vietnam",ChIJ27zE-lMudTERogz4zDbVMDk,CmRRAAAAKI0uSHR9zk2XlnPEpJDCv62pRYlE_e6FJCPMs9PfkhhQ61g1wGSbQuW-V6jYuBPc-3lAM9e-Zd7rvBVJnbqEOEwcvauOI04-gXexgwoB08jzuPxFPd1qjBCmXfqztAIhEhDZwj9Gx28oCzpfZFQZAS4IGhQfJBIsA8pyC7NRx1VMeT4XfGvS2Q,596ba38964c40303b298c9162554f8219728fba0,106.671,10.74113,106.6696510197085,10.7397810197085,106.6723489802915,10.7424789802915,"food,store,point_of_interest,establishment",10.74113,106.67099999999999,210.14976737554807
Thành phố Hồ Chí Minh,79,Quận 8,776,Phường 14,27421,Phường,,Phường 14 Quận 8 Thành phố Hồ Chí Minh,,phường 14,"phường 14, Quận 8, Hồ Chí Minh, Vietnam",ChIJUSczcmYudTERRSVWNAuNoug,CmRbAAAABai1ogftC9WUPjwjDZo2det3hhBPwQ4DSn1gYFHDbAF5ES_USad8h_9bAYRQfXZzomPVBPy-5h4xYm4dtjID4hy8lFEARcz1A1uErpQtwcjkzZxIPkoIsdJVikrlWIbsEhCsEobwS7hFo9_rEFKPa4VIGhTOSifvpJXFkjBaUQQJENw-7RuCGg,a0b3d6c56dbaedf0bf47f48da99b631af41aed80,106.6475517,10.7396318,106.641798,10.7348262,106.6529989,10.7438914,"sublocality_level_1,sublocality,political",10.739358800000002,106.64739845,792.1970780582031
Thành phố Hồ Chí Minh,79,Quận 8,776,Phường 06,27424,Phường,,Phường 06 Quận 8 Thành phố Hồ Chí Minh,,"8 Khu V, Đường số 57, Phường 10, Quận 6, Tp.HCM","8 Khu V, Đường số 57, Phường 10, Quận 6, Tp.HCM, Khu V, phường 10, Quận 6, Hồ Chí Minh, Vietnam",EnU4IEtodSBWLCDEkMaw4budbmcgc-G7kSA1NywgUGjGsOG7nW5nIDEwLCBRdeG6rW4gNiwgVHAuSENNLCBLaHUgViwgcGjGsOG7nW5nIDEwLCBRdeG6rW4gNiwgSOG7kyBDaMOtIE1pbmgsIFZp4buHdCBOYW0,CtQB0AAAAEksrNFYA4OjLwnNNr_H-8J0hJhXWnqwZUzDvJLdj-lEyUKjgsv6nHM2Aa4FJH7krThTH2TBVYR37MmKtmcOHL7ETcMxIjgyUxemM8LvBj55vDi24KptT0G3UZcKxcNZva77-1eZTY551Vj4JFQIK5NsSgAZlWXG3RSbUd7f4ydDAxzAfCkIwpuYeJRzRMlZVZoxQ4BFFn_cQFFARHYqOCjMxQOoD2kg7ZeTMHwgL03PNd4K1A3Jar8za8mXZ_zJCoXY61HZf-VlIWs7WGkxnVUSEKG3ldXphNqOarD1qIPg3IYaFFNjjp6h_7u7BLfCsDQnVDBez6C5,dc124d9e1af91a45138b13ca7f5bc30d4c08bcf3,106.6245172,10.7372791,106.6231775697085,10.7359299697085,106.6258755302915,10.7386279302915,street_address,10.73727895,106.62452655,210.15108310297225
Thành phố Hồ Chí Minh,79,Quận 8,776,Phường 15,27427,Phường,,Phường 15 Quận 8 Thành phố Hồ Chí Minh,,phường 15,"phường 15, Quận 8, Hồ Chí Minh, Vietnam",ChIJ8SROdgsudTERnmZemYhrMH4,CmRbAAAA3odNenz_4-qU2JzmTYLGRkTDV4d-7zLYLAwlIhto7kUUFKF-GuFoJI9NjqchC3tMqDHz962IZPyF-XoHU8dsQtnRk_caujg9i3AZPFTiwUFxU--1ElnSZpXhm8xuczoIEhC5QvlGUA5FXGoH-t4QCNoWGhTnc77MjHEzuvDpl_F3H7iX4w9NvA,24b62d7d8503368fac680f7e3cbb6ccab63f6c47,106.6332948,10.7257399,106.6241478,10.7114013,106.6439159,10.7382429,"sublocality_level_1,sublocality,political",10.7248221,106.63403185,1840.9018209388391
Thành phố Hồ Chí Minh,79,Quận 8,776,Phường 16,27430,Phường,,Phường 16 Quận 8 Thành phố Hồ Chí Minh,,phường 16,"phường 16, Quận 8, Hồ Chí Minh, Vietnam",ChIJwzm6oOUtdTERSWKp5YQx-BE,CmRbAAAAvQ8jYEy4JuUYvNLZL8GHqs4OOhP2g8TcEVS4Ln24y4FaZqPM5BLJ3MJHfop_MxowklDtmPw3AyYfWfKVfOEG4fl-JSeFHOBK6WYzTac8KNQ6EhXSLtLFF5kEeiJjASSBEhA4o5wZVj8c9whv8XI2hpj2GhRXvB_IQZ40V91wNN_8gdxkFzHNlw,d487558624b61b7ba4e60660ae58d8db75692e4b,106.6261831,10.7251488,106.6034628,10.7044371,106.634693,10.7358027,"sublocality_level_1,sublocality,political",10.7201199,106.61907790000001,2438.068551564057
Thành phố Hồ Chí Minh,79,Quận 8,776,Phường 07,27433,Phường,,Phường 07 Quận 8 Thành phố Hồ Chí Minh,,phường 7,"phường 7, Quận 8, Hồ Chí Minh, Vietnam",ChIJN2e8K_otdTERgLtibT4XbZM,CmRbAAAAOwNLmRwqDJ0OperoLCUGkd3r7I1d8xnx8d3cstXqsUIUEjXs6Nh2RKkoLvHRDM7z4raNhEFpd4DrrJGZRHFvUC4vFRPnXNcIy1LsPu2_pCUIAPOLTE3y2PHxTXICt5nnEhAMbgRun3KSiwg1E-ExtF5XGhQkCT39QoCAClbk7i2NO5VsR41C3Q,24cf2b9d23968857fc541a949f678e03b25e68a9,106.6210379,10.7046969,106.5977646,10.6922695,106.6422073,10.7319124,"sublocality_level_1,sublocality,political",10.71209095,106.61998595,3277.0596149292314
Thành phố Hồ Chí Minh,79,Quận Bình Tân,777,Phường Bình Hưng Hòa,27436,Phường,,Phường Bình Hưng Hòa Quận Bình Tân Thành phố Hồ Chí Minh,,Bình Hưng Hòa,"Bình Hưng Hòa, Bình Tân, Hồ Chí Minh, Vietnam",ChIJnek0Me0rdTERkuW1bISPItU,CmRbAAAAFKsWDrPrMAIw8-kiU1YBB7a6FELQmD4wjIQFpuew5gYnpO1KTywr_I1PNV_sLW6TwmzDgUOAXU_FoCBADnrpFfJ4Bp6iaUGv-3QgbFQ2ByyAFxHeR8eG6izbIbY-_ZDdEhAvvCT6L--EMx3pQXLzFnzxGhRu7D3UtfFSYTVg_FgWyhbRLL5D6A,c5cbe76297e3d725d1975b2496a0c0202b3f6173,106.6026064,10.8026884,106.5955728,10.7875772,106.6164859,10.8262904,"sublocality_level_1,sublocality,political",10.8069338,106.60602935,2435.086283409014
Thành phố Hồ Chí Minh,79,Quận Bình Tân,777,Phường Bình Hưng Hoà A,27439,Phường,,Phường Bình Hưng Hoà A Quận Bình Tân Thành phố Hồ Chí Minh,,Bình Hưng Hòa A,"Bình Hưng Hòa A, Bình Tân, Hồ Chí Minh, Vietnam",ChIJDxraFg0sdTERfOcMKws4C88,CmRbAAAAi7maZPsbs83YIAqkpVr_CpCFiwmJBPzgmwqYUGNegYNRFZP2cArXicW7szqwkCiCuqNVd3a7uGE3EDHF3apdlOWMb5fMb6Ym7EdVTz5XvkfSkgGM4VRFTvaxsrA0kB65EhDLRBVm-CqDuMC0W2XdWP60GhRjBVXL8nUTjeDuaOQ5OHThfAMrSw,7330d4798215cc03ec976d285ec0bc2ada344e4b,106.6069312,10.7850966,106.5931375,10.7736782,106.6215526,10.7967381,"sublocality_level_1,sublocality,political",10.78520815,106.60734504999999,2011.7433078755375
Thành phố Hồ Chí Minh,79,Quận Bình Tân,777,Phường Bình Hưng Hoà B,27442,Phường,,Phường Bình Hưng Hoà B Quận Bình Tân Thành phố Hồ Chí Minh,,Bình Hưng Hòa B,"Bình Hưng Hòa B, Bình Tân, Hồ Chí Minh, Vietnam",ChIJIfkx5oUrdTERkUZ8kh6aZ4w,CmRbAAAA9FsXmhdpx2_txdQw3aTDKr_l4G31R_mGvktsRRMv7abzdYgDrhiwpyCWXA2T2sXkFAIn2wIfAvkMWNawjIfCMFQs4s4dY30y-rV8tA3kPbMQ0ye0ief00QU08bf-O2HDEhCzwOeYJockZ2Ek2jHtXcjKGhQGiGGvAxDECJRbGtbbhj-AZ8kZBw,1090da86b21be7bb2dd405cacfab3a22980738c1,106.590819,10.8033353,106.5816844,10.7745267,106.6033164,10.8277842,"sublocality_level_1,sublocality,political",10.80115545,106.5925004,3185.974126469309
Thành phố Hồ Chí Minh,79,Quận Bình Tân,777,Phường Bình Trị Đông,27445,Phường,,Phường Bình Trị Đông Quận Bình Tân Thành phố Hồ Chí Minh,,Bình Trị Đông,"Bình Trị Đông, Bình Tân, Hồ Chí Minh, Vietnam",ChIJsSiDUzssdTERR2wR6cTcV50,CmRbAAAAoWN5c-p-8Ao93OcKLlZvjr4i4MBOFko0J7NNP2mR7LkwkfaGUj3exHNFw2tkXVmDL1pzVJ-vrI8XN7aT8ljkjFQZ2RAFDjS6PXlUIXJY31kck3MlABkZKhYa_h_S6sTFEhBBsouJxeYGlz5Z94a2wU5iGhRZrE1rif2mc7S0XheJ3u4NODg2HQ,b23080859895817648718cc078b4fff84ec80ad9,106.6143944,10.7639086,106.6050556,10.7519918,106.6252516,10.7762755,"sublocality_level_1,sublocality,political",10.764133650000002,106.6151536,1742.3667171172872
Thành phố Hồ Chí Minh,79,Quận Bình Tân,777,Phường Bình Trị Đông A,27448,Phường,,Phường Bình Trị Đông A Quận Bình Tân Thành phố Hồ Chí Minh,,Bình Trị Đông A,"Bình Trị Đông A, Bình Tân, Hồ Chí Minh, Vietnam",ChIJWbZrrFwsdTERy5ojf_NIQrs,CmRbAAAASykktQfD95NOk-SkdvD5cPSt4d2vLfLLhqrMFTYH19WZfSxgAkq_M_0TZZe9-CqUMvyTL7ukcHe73IM4MoTECFcDFos4pSwC_ZzoMyICQExiIrXRmiQv8vBHZqvimu-kEhBjAMBAIIwmCt6-KVNJublnGhQTTDUg4B44iwb7IdQ-JbI-_d9tSw,9d9ca16a872d90c7e05abe5dcebd083983dc05d4,106.5967126,10.7703231,106.576969,10.7572673,106.6100434,10.7784632,"sublocality_level_1,sublocality,political",10.76786525,106.59350620000001,2155.537528290148
Thành phố Hồ Chí Minh,79,Quận Bình Tân,777,Phường Bình Trị Đông B,27451,Phường,,Phường Bình Trị Đông B Quận Bình Tân Thành phố Hồ Chí Minh,,Bình Trị Đông B,"Bình Trị Đông B, Bình Tân, Hồ Chí Minh, Vietnam",ChIJCYhnA8ktdTER3E3SaYvMKOI,CmRbAAAAyDVnabCv7sXszLiZa-svJV5q3oPKhDsS4Phh3WlYV-0Lm1WhsMy1He12OxZgr17tcXE3b1qN3gs8fZQzbbP3SkrZxCVTyQc86PWJppVippGbDbcSsOmZ_itv2Qnh0JoWEhAQTxKcj0KjZDoApzKIp-BQGhRhPdTZ_AzwkLLWGODeZqUyjp3NPQ,cf4d456ca70c9f0da6f223fe8f18367583dfaf92,106.6085003,10.7478932,106.5976381,10.7271706,106.6206516,10.7582371,"sublocality_level_1,sublocality,political",10.74270385,106.60914485,2134.913740436462
Thành phố Hồ Chí Minh,79,Quận Bình Tân,777,Phường Tân Tạo,27454,Phường,,Phường Tân Tạo Quận Bình Tân Thành phố Hồ Chí Minh,,Tân Tạo,"Tân Tạo, Bình Tân, Hồ Chí Minh, Vietnam",ChIJacAsp1YsdTERQxLPrwqltlY,CmRbAAAAyT3Hx3ADcjKU-rJY5FU7O1VZxGx-YO7SxBvevUoVTVShQcMIb72_HY_q7nZflngTQfpFCJAzOPipo9DYY6yTcn2bmb6kDh9-OyJ6AGznGUuhOiHJEO106ymXftfZK2cTEhBY_vTz7fhLTcxTQ0KFYudNGhQWPSv-o2xbgL34N6DDZMuhmRegQA,45d1c09344e2d5b20de4b13542cd6f51e85d561f,106.590819,10.7597516,106.5675598,10.7435225,106.6059851,10.7712628,"sublocality_level_1,sublocality,political",10.75739265,106.58677245,2602.9467020223888
Thành phố Hồ Chí Minh,79,Quận Bình Tân,777,Phường Tân Tạo A,27457,Phường,,Phường Tân Tạo A Quận Bình Tân Thành phố Hồ Chí Minh,,Tân Tạo A,"Tân Tạo A, Bình Tân, Hồ Chí Minh, Vietnam",ChIJuf1x4ActdTERWMGKQ-26gQE,CmRbAAAACmNtb8bR1W1hL1v5i7wrGfnm-Atia5M1tuthSZa_-qMT85FoatyaM3vDqSGQ3m33rdKzNAAwMH4yCX9HST6oaJfC7tHXlfJzEmRYc_hAOJy6FhuULUb9JGS2ZnfdYBUfEhA2jeisz25FjOB1LLcp8ZdwGhSMNlHZilzFoEb1ZvNXX9HJ3HpUPw,041a3310116e2e5cab478fa16abbdc02c9409aa3,106.5906249,10.7360575,106.5583277,10.7222978,106.6027747,10.7604189,"sublocality_level_1,sublocality,political",10.741358349999999,106.5805512,3220.832646299406
Thành phố Hồ Chí Minh,79,Quận Bình Tân,777,Phường  An Lạc,27460,Phường,,Phường  An Lạc Quận Bình Tân Thành phố Hồ Chí Minh,,An Lạc,"An Lạc, Bình Tân, Ho Chi Minh, Vietnam",ChIJx8VtHuotdTERWmt2b5nQ9pE,CmRbAAAAA_HmvjQxLllGH81HjW_KbjzmKwfaiKNNXKpayRA-ta81IJ6Lp7S0pDMCaTr5sxMa7oSiGWXa6qtSa8TeobjjnGTVhjjejNaa84AEjcyMCfYfpWS7uGXyLD3SVEEQS7eyEhCa-az8FlWQ5v81pw2ovVl0GhSxEJhXolRMHx5lRPreopHUIG6lZg,67b4885f1496bd3e2d3f97abc4e2b15c72fc5cdc,106.6111242,10.7231349,106.600213,10.71105,106.6237574,10.7451721,"sublocality_level_1,sublocality,political",10.728111049999999,106.61198519999999,2290.5512049936565
Thành phố Hồ Chí Minh,79,Quận Bình Tân,777,Phường An Lạc A,27463,Phường,,Phường An Lạc A Quận Bình Tân Thành phố Hồ Chí Minh,,An Lạc A,"An Lạc A, Bình Tân, Hồ Chí Minh, Vietnam",ChIJWbMAZNItdTER7QuKLK-VTbQ,CmRbAAAA1ZzNx11kdYUHGpyv9AG_CXTXCCbrRiB6k5RzoRtPK9sQe4bNebANr5mEUqFQdZw8koRShVyKsYBeD_UY8_Qun_ws_1bZPtX5GiCH8tILlYmvtEZ_TDcTqJEljqUORMAYEhDZ_W0TFmUttU_wBd7FIP5tGhRkAJroSqTjSAa5buDmgKdLe4W-Yg,b6cd083fd4ad6abe6b84dfe4b90f6ac0d8a2be37,106.6217623,10.7539749,106.6124305,10.7367166,106.6244172,10.7572963,"sublocality_level_1,sublocality,political",10.74700645,106.61842385,1317.4463005204452
Thành phố Hồ Chí Minh,79,Quận 7,778,Phường Tân Thuận Đông,27466,Phường,,Phường Tân Thuận Đông Quận 7 Thành phố Hồ Chí Minh,,Tân Thuận Đông,"Tân Thuận Đông, Quận 7, Hồ Chí Minh, Vietnam",ChIJXS3ryZEldTERFWLZixkGS6k,CmRbAAAAizCVomeyQoHSgADz7rjOsE0kGbYQVK6kJz7YL7WJ81XXX6Hq66b07yTb2uw9BmhwOzg0VLAWbYmSoEkdgGMeC36jfoC0OKCtCoFN1RE4i1fQ69jNpwVZAUerTGIajv_7EhA-OxvUflO3FbwLkiahW52vGhQHQld53Ovlgj-7Hn8MEIyd6d7tcw,abbb3985d05e5370ac8caf9a4c4c6e3aa443a147,106.7382072,10.7571056,106.7207019,10.737386,106.752863,10.7776621,"sublocality_level_1,sublocality,political",10.75752405,106.73678244999999,2844.3099560034107
Thành phố Hồ Chí Minh,79,Quận 7,778,Phường Tân Thuận Tây,27469,Phường,,Phường Tân Thuận Tây Quận 7 Thành phố Hồ Chí Minh,,Tân Thuận Tây,"Tân Thuận Tây, Quận 7, Hồ Chí Minh, Vietnam",ChIJ33Uw6X0vdTERz8t9ZTPSdVo,CmRbAAAAWD0M6edc6GWz4bKiNukR-U53MLsDZ2yiCKMYMp79ZeEFWqXxDdWWyUSdLhzlciCl20PeJhnvpIPxshUbnmo_eV2l7vgQBZBbyROoviLJQ3jT7JuDn1H2NL7wTfG9qrsdEhDlqhu6Xo3HQMm4mm0XHBcZGhRIc3TjJP8xiFwTMjrZcR9v5I1LFA,04cdc778d74d7074c4edc501fe853b0c48cbe2e5,106.7219896,10.7511954,106.7158208,10.7453935,106.728698,10.7559539,"sublocality_level_1,sublocality,political",10.7506737,106.7222594,915.6487749854575
Thành phố Hồ Chí Minh,79,Quận 7,778,Phường Tân Kiểng,27472,Phường,,Phường Tân Kiểng Quận 7 Thành phố Hồ Chí Minh,,Tân Kiểng,"Tân Kiểng, Quận 7, Hồ Chí Minh, Vietnam",ChIJd9xlHHcvdTERoXW8nGjR_7U,CmRbAAAAn0pNsA_yFx2xFXZbgl0r4p47sz8WSiphj2QO7iAJaNHyHDHfDuNCAuCnaGuBt-F6zXod4ChR9UG4b_q1C6GUYXC5pQnQJ314gGHTS1_DzyP4RNuh0MF0cyIHWchsqNE8EhDRUC4o8CarOH56gLHfJ8wtGhRHHDl6fHO5_iaLzwmCRir67vyMMw,76ec548c5980505171ca4e4262b76f0f32020232,106.7101958,10.7491228,106.7030511,10.7449781,106.714995,10.752448,"administrative_area_level_3,political",10.74871305,106.70902305,772.8906016370846
Thành phố Hồ Chí Minh,79,Quận 7,778,Phường Tân Hưng,27475,Phường,,Phường Tân Hưng Quận 7 Thành phố Hồ Chí Minh,,Tân Hưng,"Tân Hưng, Quận 7, Hồ Chí Minh, Vietnam",ChIJcbItTaIvdTERWDippyDQVHg,CmRbAAAAxCNQLu_IUIq5aFiNJyCeGXbVXOTRv7-o_6Vs1m0XgkyEHqoO7wKM5FuzusiBfvwRxcRfSQ90XIMjc-A4-boVzPQEONBTBdFgmkdRrOEI9bGH5oMeET1UxotgZjFoLustEhBqWjWlKxF5FGQLxEqExB6bGhRsfLGtzvqwaQszAnnQAfqVlSL5Gw,d5b69f5977cbfe9e5a3005423fa0edf6c16a9417,106.6969285,10.7430482,106.6900969,10.724396,106.703789,10.752448,"administrative_area_level_3,political",10.738422,106.69694295,1728.6011892788945
Thành phố Hồ Chí Minh,79,Quận 7,778,Phường Bình Thuận,27478,Phường,,Phường Bình Thuận Quận 7 Thành phố Hồ Chí Minh,,Bình Thuận,"Bình Thuận, Quận 7, Hồ Chí Minh, Vietnam",ChIJG729HX8ldTERY6OFrrGMrWI,CmRbAAAA-i8dbnuopUujG7WE84C3HisSb188tPx8TbRVn-wOgwxrdv0zAjhJoHb5t3hrHA2nCuVO0ELtGsz_NibdTHFzU7QRhduwzVQULN-y-5BFAsspTwzaGgOhUV6eE3jCAJpHEhBOIhxR0Uiy_XsfDjyPeFhjGhT1dx7VoqfgP-CST3YX45vHwBP_Tw,c7f89766161724019d67e5537330ed4521070163,106.7205154,10.7417516,106.7158422,10.7373856,106.7305038,10.7500864,"sublocality_level_1,sublocality,political",10.743736,106.723173,1067.0427034556828
Thành phố Hồ Chí Minh,79,Quận 7,778,Phường Tân Quy,27481,Phường,,Phường Tân Quy Quận 7 Thành phố Hồ Chí Minh,,Tân Quy,"Tân Quy, Quận 7, Hồ Chí Minh, Vietnam",ChIJhy0Q5JwvdTERVrmHVoOhL18,CmRbAAAAWKt7dDe1gX63ZRDscf7Zw866m-FuItagWsVzqszZMJRaIGsc5c0CuEDkyF_Ry1Uye4GYD6TPAJ8fsGaRlmVetExrHSYADa34NVgg2etEwTzYZTT8ItTPSGzYyPLuCpEQEhDT1hMs6IvygwuLPTzs9htNGhTGk9fSC9N2MvR45c2VssJEcTeDFg,63596a4ea38200e9e8536fc41b57931d9663cbf9,106.7101958,10.7409584,106.703563,10.7383556,106.7159763,10.7454238,"sublocality_level_1,sublocality,political",10.7418897,106.70976965,783.2117794215737
Thành phố Hồ Chí Minh,79,Quận 7,778,Phường Phú Thuận,27484,Phường,,Phường Phú Thuận Quận 7 Thành phố Hồ Chí Minh,,Phú Thuận,"Phú Thuận, Quận 7, Hồ Chí Minh, Vietnam",ChIJzZidGxMldTERUVI8NyIArHE,CmRbAAAA226qh9PcnVG4Z5cdUwte6paMKEUspqOp9qumnxGJf_3h437FcfNKQPzzSpKKDcdLuziiO7590bwD9Th8MZEmFHhdLrpT2H6sC9fpWWhpcL4119bkhScmkC3SO0aUcOapEhD9Y_g60tQYadiTT153sKmTGhSZXkKMZt7RY2_qm7BKxT6a2ujUVw,da3d58e1e2abfa8b850f6c2707f2f4058159e0f7,106.7426687,10.7299898,106.7304822,10.7130915,106.7691708,10.7452406,"sublocality_level_1,sublocality,political",10.72916605,106.7498265,2766.1966624940833
Thành phố Hồ Chí Minh,79,Quận 7,778,Phường Tân Phú,27487,Phường,,Phường Tân Phú Quận 7 Thành phố Hồ Chí Minh,,Tân Phú,"Tân Phú, Quận 7, Hồ Chí Minh, Vietnam",ChIJ66sqM2AldTERrU1zPPuPtEE,CmRbAAAAQj389QkFCgvVxFyzNIB7I4qS5af8TQF_INVuo5h2OLPxPCfxPyoQAlM5iKh5qUbP7b38kbHKlPu0IYWuhXZPL5JeP91aLEofYMYqaX7w1Cm1SuKLh92m9eBWh0gj6hNdEhCPCUpHuT_4ZMG99mr3yBg-GhSsqqGHhJbZSSGJA9g_5SJd_-BHDQ,d0b0561db93790ab6602e9fce4ef6bd1d864148c,106.7264125,10.7251014,106.7121219,10.7119417,106.7338491,10.7384078,"sublocality_level_1,sublocality,political",10.72517475,106.7229855,1889.2875198120814
Thành phố Hồ Chí Minh,79,Quận 7,778,Phường Tân Phong,27490,Phường,,Phường Tân Phong Quận 7 Thành phố Hồ Chí Minh,,Tân Phong,"Tân Phong, Quận 7, Hồ Chí Minh, Vietnam",ChIJCXxrrpYvdTERxWOLfebFQDQ,CmRbAAAA5ErXSIN8I4yuepHnAJspj7r09MBQd_Jn3n0Lr9f73KNH0Un6FbKNPFDYJUQ_oW8coThQYYDnBJHrqZZOEoZc_GCWXSktepgGFvkpvQ_mfR-WjETdUVmXcGnUFKcwRrlwEhCemGn_QLL7Dv4baBYYuyWJGhTH2jQoyISBft6jiXn1UlhmefxSaQ,91e7e6f74cf6dacf4fb3d8a01731acaf83b0907f,106.702825,10.7318388,106.6901104,10.7192088,106.7206135,10.7398563,"sublocality_level_1,sublocality,political",10.72953255,106.70536195,2022.156196284246
Thành phố Hồ Chí Minh,79,Quận 7,778,Phường Phú Mỹ,27493,Phường,,Phường Phú Mỹ Quận 7 Thành phố Hồ Chí Minh,,Phú Mỹ,"Phú Mỹ, Quận 7, Hồ Chí Minh, Vietnam",ChIJbW6OLU4ldTERupIsa5lE_iE,CmRbAAAAKilTaR5Nz_U6wzFzWKbXRrYu5sM0L79Yi49ibk1ZTnxRk_xp321gd9ISw1-SXRvgmZXLBTtl3nyOtg06L_A9SkQAFV_E1CJSlq7xVszeKxoRhvQVRPFrvyyBbXdXTuijEhD1-5IQG0yqpE0WtWdncW9wGhTblgB4gKJREYo6vya7tuD7-x2wRQ,69775cbf008865b549bfa3c7bdbe780862125493,106.7382072,10.7081313,106.7247687,10.6980958,106.7514038,10.7307776,"sublocality_level_1,sublocality,political",10.7144367,106.73808625000001,2326.3696771610576
Thành phố Hồ Chí Minh,79,Huyện Củ Chi,783,Thị trấn Củ Chi,27496,Thị trấn,,Thị trấn Củ Chi Huyện Củ Chi Thành phố Hồ Chí Minh,,Củ Chi,"Củ Chi, Hồ Chí Minh, Vietnam",ChIJ5wxtMH4rCzER4wUEpIU3QgM,CmRbAAAAk3LiYMvsNgOa9ccdDKD1ftF6mWdc-A5ixxJmgwukeO5dj0od0SQtFQGOUiTf5ZiLPrAk_ZUhsT8x-9lpCQ8-cKFNSldZtsrVMzjLFx0ax7hYYyyJ81dIPEoDtAv--1_zEhD8mwmpVhqSiboHBEUOOJ3mGhTdULlPlgQH-PUEhjbbre1a5yS7sw,b645100781d55098cc92bf820d51ac1c7eab318a,106.4965434,10.972192,106.4802647,10.9622587,106.5076447,10.9860204,"sublocality_level_1,sublocality,political",10.97413955,106.4939547,1993.406599372125
Thành phố Hồ Chí Minh,79,Huyện Củ Chi,783,Xã Phú Mỹ Hưng,27499,Xã,,Xã Phú Mỹ Hưng Huyện Củ Chi Thành phố Hồ Chí Minh,,Phú Mỹ Hưng,"Phú Mỹ Hưng, Củ Chi, Hồ Chí Minh, Vietnam",ChIJmxgwmcczCzERYIyqM2NfrqE,CmRbAAAAwwHCCoeBC0n_0WlfdxEDmChryJNEtunkpANmDeX2pclLBW42QikDgLTlwnNYd1mIH42hUerdq5XFudIuYqSaQDPW7GWzuKMDNjfC2Et3L91IIpgnBu-ceo15Xv52qnEaEhD6Iyt_NBWIhdPoCvJ90XMnGhQt__lXwsYw96VKvNRLnYS6cv1eJA,c02f2e8b792415b2113b5155562f81026ac3be37,106.458256,11.1246502,106.4373923,11.0823954,106.4884187,11.1601547,"sublocality_level_1,sublocality,political",11.12127505,106.4629055,5138.760207451808
Thành phố Hồ Chí Minh,79,Huyện Củ Chi,783,Xã An Phú,27502,Xã,,Xã An Phú Huyện Củ Chi Thành phố Hồ Chí Minh,,An Phú,"An Phú, Củ Chi, Hồ Chí Minh, Vietnam",ChIJw7gJ7BozCzER2vqUhiaonBM,CmRbAAAAVjehPlh1I68nisgvS5PKxK8tr8XUXMpOLyzdEKNnwIJadlGgoXTStjm7j7tNnWSFmAHn6bvpEI8Op2rBlSzvkSLzbx2wmrCgtZn-Z4ST4eUGCJoDPwPSDsSAotLWoSa6EhCUNu18TM2ABVd59XqWiVeaGhRruzFbqvS6zWdtdpLJeQnmoAT9uQ,54ffbc4fafd5ca8318d1de5b38f89df94e1bbaf4,106.4994889,11.1168711,106.4749432,11.0852171,106.527729,11.1450137,"sublocality_level_1,sublocality,political",11.1151154,106.5013361,4395.660592754893
Thành phố Hồ Chí Minh,79,Huyện Củ Chi,783,Xã Trung Lập Thượng,27505,Xã,,Xã Trung Lập Thượng Huyện Củ Chi Thành phố Hồ Chí Minh,,Trung Lập Thượng,"Trung Lập Thượng, Củ Chi, Hồ Chí Minh, Vietnam",ChIJr3kwsP8xCzERZnVFI92OYo4,CmRbAAAAkh2-7pmt3ux8Y71Z8bywxt0-DWcOxIWU-tGNzJdpRMx0Xj-sE96IWqTezor7xePU9aKNaxEOElpKa7458PqJgNS4GXBq8G2LCB_4njoYGhNvaHOjsb_JtjgPCqgQmwdyEhApjZyFIAks86FCV025-yxoGhRIdrhJx5JKZxdAOV_D_Ey7k_S7zw,4b8b9132f09178381ee308f7cbf8431f477d8b68,106.4346979,11.0603258,106.4163314,11.0238316,106.460148,11.1113618,"sublocality_level_1,sublocality,political",11.0675967,106.4382397,5418.689920463917
Thành phố Hồ Chí Minh,79,Huyện Củ Chi,783,Xã An Nhơn Tây,27508,Xã,,Xã An Nhơn Tây Huyện Củ Chi Thành phố Hồ Chí Minh,,An Nhơn Tây,"An Nhơn Tây, Củ Chi, Hồ Chí Minh, Vietnam",ChIJ3UVcWY8yCzEREfZZRRjBM7I,CmRbAAAAiluN6iRL57Q-0TxFGo_l6T5FKHV2MZFDVO-d_FDkzSRPonaIzAvGOPi7lRVV5IfFy4crLfnpNFn38DexumP8upWuRRkDBn2-7YhsNfJWxERY1Qu1p-BhqkLg4gkPEk4ZEhDbtpReOH-UbpKDBVylIhYYGhS0WSrq5HilWO5cwmEREIRMVtpPZQ,2b8138f29859cf0f26807d02498d994079d9b40c,106.4759262,11.074436,106.4550412,11.0437375,106.5342093,11.1036752,"sublocality_level_1,sublocality,political",11.07370635,106.49462525,5452.358123742312
Thành phố Hồ Chí Minh,79,Huyện Củ Chi,783,Xã Nhuận Đức,27511,Xã,,Xã Nhuận Đức Huyện Củ Chi Thành phố Hồ Chí Minh,,Nhuận Đức,"Nhuận Đức, Củ Chi, Hồ Chí Minh, Vietnam",ChIJkT5cuWotCzERaasR0UK6BlM,CmRbAAAA01ZMAwGx0SqKBhys849X5R6g4sTWPWfh2I2gHLqArYB5pqv-lxApE9zmpmoH-qPZYLljgwVP5fyal6wa3dKIwgWL7B5JQ5m2c89k30pjEY2hY-sOHjxSA9phbxKe2ekdEhDq2LExIovh6qTp-GCkrTDIGhTLRSaE0CHYYzKlV0hRkbfAAYt8FA,efbd5d32b768d52c3d60f0011489a554d0a5ecfa,106.493598,11.0461163,106.4704369,11.0068239,106.5498412,11.074544,"sublocality_level_1,sublocality,political",11.04068395,106.51013904999999,5736.822526809483
Thành phố Hồ Chí Minh,79,Huyện Củ Chi,783,Xã Phạm Văn Cội,27514,Xã,,Xã Phạm Văn Cội Huyện Củ Chi Thành phố Hồ Chí Minh,,Phạm Văn Cội,"Phạm Văn Cội, Củ Chi, Hồ Chí Minh, Vietnam",ChIJbal0DUgtCzER5bb57ykLjVY,CmRbAAAAIu4uBMzHBvCo1Uz5m1bH8hBZThIzxgbo28VQ8NCQ77inPHG3_xeqtdP7dM4-IoMAZxT95qui4mgjgth-vxuNVnzSjUKmBasSzDl_pJ_6uxKhooFN-huxaCt8i9AgilJtEhASFAdx-GhCqysXMtYnoR_tGhTZQwJj0nL7Fx_-RDv0B_NfU9u5sw,f919c31030ad91b110ab950d87c897a7ff10372a,106.5171626,11.0338732,106.4931177,11.0118369,106.5542828,11.0685423,"sublocality_level_1,sublocality,political",11.040189600000001,106.52370024999999,4588.480269186463
Thành phố Hồ Chí Minh,79,Huyện Củ Chi,783,Xã Phú Hòa Đông,27517,Xã,,Xã Phú Hòa Đông Huyện Củ Chi Thành phố Hồ Chí Minh,,Phú Hòa Đông,"Phú Hòa Đông, Củ Chi, Hồ Chí Minh, Vietnam",ChIJ52OQ49rSdDER2ZgDOUZoP9U,CmRbAAAACgR3W0TtOZI-Qpuu8RUcxlKrhuhdFIhdoACYbJRAmTwo5g-qf9AOmk-yq6P4-M4OB4n13tq-TxZ7wwA6Yo32sIPAu2sy3n1wYMqecluHWK_FAAbT5FLOEAveX__lIOyrEhAgvLokXpJ9MTTyYZk52x4NGhQGgNWO11HOxfl1gOCDI7p4Kt1WFg,19ec0cd9bd69992505f82e74342ee585072789a7,106.5642998,11.0203175,106.5154982,10.9949651,106.5830148,11.0546118,"sublocality_level_1,sublocality,political",11.024788449999999,106.5492565,4954.099020273184
Thành phố Hồ Chí Minh,79,Huyện Củ Chi,783,Xã Trung Lập Hạ,27520,Xã,,Xã Trung Lập Hạ Huyện Củ Chi Thành phố Hồ Chí Minh,,Trung Lập Hạ,"Trung Lập Hạ, Củ Chi, Hồ Chí Minh, Vietnam",ChIJz-AaSrUtCzERlp-XK18pTiU,CmRbAAAANqgRLLDC-cTfK8uy3govNIx0lXini3cFOuECjZnYrloItxL5QSAWokC0N2ugfcfVX3IoON4fxL2jOYJuhpHmB5rLc0qQyNFvcKF-AgRV0KbQ1krxvxNUXtWBhVrVEW6nEhD-PTCjxHvbNN4ZzP3JdY5gGhTK9paA-Cc2kFDsrKiA7Gt_wW-yFQ,6b6f82bac7741e29cecad4e909e5cf84aff667be,106.458256,11.026217,106.439978,10.9864026,106.4911544,11.0549065,"sublocality_level_1,sublocality,political",11.02065455,106.4655662,4720.0037455298925
Thành phố Hồ Chí Minh,79,Huyện Củ Chi,783,Xã Trung An,27523,Xã,,Xã Trung An Huyện Củ Chi Thành phố Hồ Chí Minh,,Trung An,"Trung An, Củ Chi, Hồ Chí Minh, Vietnam",ChIJbZM4p1LSdDER_oC_eMpU9Jo,CmRbAAAAAf4Y_U7rwbnYPCDVj2fK2Fws09SsIYA1A3ACatZoiXlzt0cTFWl4fvW5RJlgLQdJUD-5SS9P1mrCO2pjTQbNY-Q-83YsmDI6Hovv-tqdBtZDk2QihPqMx-xvrdy0c0UlEhALee6xs-GBhxcNRbuXlHvUGhRS63oiBYKDLK1xKU-X8BKzUpzxew,7504d89da44b7ac26d15e119a04007fc2eb652fd,106.5893129,11.0048859,106.565945,10.9825664,106.6213918,11.0457979,"sublocality_level_1,sublocality,political",11.01418215,106.5936684,4635.619685047823
Thành phố Hồ Chí Minh,79,Huyện Củ Chi,783,Xã Phước Thạnh,27526,Xã,,Xã Phước Thạnh Huyện Củ Chi Thành phố Hồ Chí Minh,,Phước Thạnh,"Phước Thạnh, Củ Chi, Hồ Chí Minh, Vietnam",ChIJk_lCCIYuCzERdQjKdZBfFcA,CmRbAAAATXv9Ux3xS-SqIqQzApYcL66jliKlDzw0W30rcpF-zb9otbAOmaNQI5UTPeETix4ZJzoKK2rUoNXr1mTAWLRWrQI6nS9GMvXH9n6df_ggqkDtt17G4lR4l-saUpNUeahcEhBjTjQTc7jYDsB-kOXDWI89GhS_vbt7yjijR3Mkor9D7qrZCOwTBA,2c6e9bb967c95298b794fd704adddaf8144ef3f4,106.4288088,11.011451,106.4088428,10.9886566,106.4504492,11.0453212,"sublocality_level_1,sublocality,political",11.016988900000001,106.42964599999999,3881.0005121402633
Thành phố Hồ Chí Minh,79,Huyện Củ Chi,783,Xã Phước Hiệp,27529,Xã,,Xã Phước Hiệp Huyện Củ Chi Thành phố Hồ Chí Minh,,Phước Hiệp,"Phước Hiệp, Củ Chi, Hồ Chí Minh, Vietnam",ChIJC66rrwYsCzERjwWa4Xm-iWc,CmRbAAAAHOhd0SivHckDIGdPCzdSm1Qr0qDQiHFzz7w8Bzb0XeUYlKN-vKKRd_EGpseDX7WqvLvbdlMTgPdVy2W9k1miIADo3xdnch5ykc3ylzyj40y-7bK1XY4TjBAcJLwZH6qUEhCHfwKyf1cNRe8DNv5BABk_GhTG4ayNzPTTrRpLm3pQb3jArQlaEw,313d669ecc267e1a88060f4f286e2a37730a4693,106.4464766,10.9831531,106.4225005,10.9494923,106.471585,11.0157029,"sublocality_level_1,sublocality,political",10.9825976,106.44704275000001,4550.009650921085
Thành phố Hồ Chí Minh,79,Huyện Củ Chi,783,Xã Tân An Hội,27532,Xã,,Xã Tân An Hội Huyện Củ Chi Thành phố Hồ Chí Minh,,Tân An Hội,"Tân An Hội, Củ Chi, Hồ Chí Minh, Vietnam",ChIJsaiM5YQrCzERCRwrCb4G0tg,CmRbAAAA6GuMRc0_KIqN_XrFr4RuNSS5IcgN1IIGSeiUVQrfK7VS5KNaWEjK6w3eALceWrTkLDFwhPbJG93k0Jc6sITyewwYFjcDc6I_dDSkNYN51FaIEn7og9QpkxPMGi8gkq56EhDg_NEy9bLXpHBKD-n2nzBaGhT-9g1dvzZXRzRuJbR3dYyTu4nSBQ,5035b1069af8579ac56fd1af6c7a8a454937c33f,106.4818167,10.9593528,106.443615,10.9250183,106.5155518,11.0084458,"sublocality_level_1,sublocality,political",10.966732050000001,106.4795834,6073.490551604956
Thành phố Hồ Chí Minh,79,Huyện Củ Chi,783,Xã Phước Vĩnh An,27535,Xã,,Xã Phước Vĩnh An Huyện Củ Chi Thành phố Hồ Chí Minh,,Phước Vĩnh An,"Phước Vĩnh An, Củ Chi, Hồ Chí Minh, Vietnam",ChIJp8q9CKUsCzER9wYKsyHmD7I,CmRbAAAAeoz_BOVTJVI3ZkWFqSR-y0P8JSIwxnPSPLX82a1UvD0IgK7qbxdl2VipCmLP-RDv4hX65xzTdBEKf0AYSSSiOwWC64sE6HA3XZD7b6H0L92im2UWca7Lubdw3a2euYzMEhA4nAelHlUU8Yby4Wm5ectkGhR3X0qJBNiFsrGpMkn8dRrnWPsI0A,c5a7fdf6b4c6f51458faa37bf23c1996544145e0,106.5230542,10.984377,106.4968407,10.9569147,106.5449756,11.0071488,"sublocality_level_1,sublocality,political",10.98203175,106.52090815,3832.019804247552
Thành phố Hồ Chí Minh,79,Huyện Củ Chi,783,Xã Thái Mỹ,27538,Xã,,Xã Thái Mỹ Huyện Củ Chi Thành phố Hồ Chí Minh,,553 Provincial Highway 7 Cu Chi,Vietnam,ChIJAfZs9MUuCzERFrKA7OWqBZw,CmRSAAAAqrcgTqnNlS2S2xjhM40PIvx4wx52z5G1VBTz7o1GP4OlTGSA0g0Y8r-tl1SttN-NkIHr1oME2_A5Y4e0Cxqfd-eEP-4LV0ohTCA5GR6IpFYoz9MmdBEWQ0Aqe079PFirEhDLsYZL4vXSFPySe4g_iK3tGhSDObdE5eCFubdrcQmRt4fq8bY64g,2fd8d8eba557e51bf49b7ee24dc26389d7bf6d75,106.409935,10.990917,106.4085860197085,10.9895680197085,106.4112839802915,10.9922659802915,"bus_station,transit_station,point_of_interest,establishment",10.990917,106.40993499999999,210.06344956915785
Thành phố Hồ Chí Minh,79,Huyện Củ Chi,783,Xã Tân Thạnh Tây,27541,Xã,,Xã Tân Thạnh Tây Huyện Củ Chi Thành phố Hồ Chí Minh,,Tân Thạnh Tây,"Tân Thạnh Tây, Củ Chi, Hồ Chí Minh, Vietnam",ChIJB7_VBGrTdDERzCPVzH5csJ4,CmRbAAAAitpbFxnj20l55zoMOsbMuO5EdKwNO8_f8YyvspUFvZBQUD8UmfZv3njbb2P6aceu4WqxJ8L0M0FUoMVOzwZxcZs8SXjBH5J6zzSUrIuoZS77_BZwdhMoMS3ZlFoh8p2AEhBvwM7qz5WDc9KkotMsN7PbGhSVG_hFOvw7a5P7QhkBc8gSoGWsMw,61bab9ea91ede0f7e3ff54957bca528a01950793,106.5642998,10.9875463,106.537621,10.9706038,106.5806329,11.0060761,"sublocality_level_1,sublocality,political",10.98833995,106.55912695,3064.112484027711
Thành phố Hồ Chí Minh,79,Huyện Củ Chi,783,Xã Hòa Phú,27544,Xã,,Xã Hòa Phú Huyện Củ Chi Thành phố Hồ Chí Minh,,Hòa Phú,"Hòa Phú, Củ Chi, Hồ Chí Minh, Vietnam",ChIJ8_BpMfLTdDERVDlePdnx0Jc,CmRbAAAAYfUzx5XA_GJ49oxPGtW6-kyhmLIvZ9cmwN_dDeEcRDtazk5R0iHFPx3eiO_R-rTNUL7iPDHgNyvxkt98ZkugZzIihIeI4VvZP0I8Izsu19hvHVaomrtS_S_RxFW-ZPquEhBUpQdu18FC3HzK_NstENcJGhQdD1g4UrxG_4OqzNQ46OmODcB_8g,652dcf230961210d35eb81b80386c8639ec8a8d5,106.6143944,10.9765654,106.5930675,10.9574829,106.6278076,10.9968958,"sublocality_level_1,sublocality,political",10.97718935,106.61043755,2895.960018956625
Thành phố Hồ Chí Minh,79,Huyện Củ Chi,783,Xã Tân Thạnh Đông,27547,Xã,,Xã Tân Thạnh Đông Huyện Củ Chi Thành phố Hồ Chí Minh,,Tân Thạnh Đông,"Tân Thạnh Đông, Củ Chi, Hồ Chí Minh, Vietnam",ChIJ1WxXVG_UdDERWmS8vJHuajc,CmRbAAAAQz-H0wurdojmEh_E1okWKARSFyyu0A3-2QJ3WFTQqqR7WIHgEc6yQUgjyKcQxmK_K5IW0tyZGuYS8Kkb4VHCLvWeZiV5AeLce7cerbDlepIO1lgcbgFemX42GsiPT-1cEhAFE4GldLSXl9nG6xxE95s-GhQ1_KLppIdbmV4uhwA_XcM4IbqkTw,da186f1ee7edaccdc9e9b2188ec67d0f05eb32bb,106.5937658,10.9586085,106.562469,10.9229708,106.6255117,10.9836737,"sublocality_level_1,sublocality,political",10.95332225,106.59399035,4817.029291623814
Thành phố Hồ Chí Minh,79,Huyện Củ Chi,783,Xã Bình Mỹ,27550,Xã,,Xã Bình Mỹ Huyện Củ Chi Thành phố Hồ Chí Minh,,Bình Mỹ,"Bình Mỹ, Củ Chi, Hồ Chí Minh, Vietnam",ChIJXYTY1h_UdDERb4566yjTKlk,CmRbAAAAFvHpMLBTMH4PiBSgEDcdmlqe67EVdbEX-ywiEx3DYHFsJg5fE5AMMLifYPJD24Yt2y_rE0o0OkfL-wsst8m62GHxeUCGM_zX3dwBsjblt32LYjmYfkvZgcPO5PsFd1bAEhDrq66R2aWY4d6agOQ8c92SGhTi-erlOtSpy1T_8MxF_XsZWnjzhQ,707e951cbd8ad312622523512369ed72570a8962,106.635025,10.9399403,106.6004168,10.9145221,106.6572261,10.9813998,"sublocality_level_1,sublocality,political",10.947960949999999,106.62882145,4838.688501204162
Thành phố Hồ Chí Minh,79,Huyện Củ Chi,783,Xã Tân Phú Trung,27553,Xã,,Xã Tân Phú Trung Huyện Củ Chi Thành phố Hồ Chí Minh,,Tân Phú Trung,"Tân Phú Trung, Củ Chi, Ho Chi Minh, Vietnam",ChIJUUX-0cbUdDERrlP7fiDy_sM,CmRbAAAAExgm5uPQtrWzIOmQXuLRHoBLFo4O5-tZOnORhqyfLZvYQPyj06FmCEb_KPd2sh86p-PUl1rkjAHUfC0fL4t4WQbyskWD3WT5b98oSNJI7B5EARDt4WzxHnZEgkUJzsQIEhDw-2jAj55rSPCp9eMpiZCAGhQ62OQ4YpHvuIlcrVJRMkHLoZmPvg,d562b3faa712469f95615e37ae305f6b8415b0c6,106.5411065,10.9389375,106.5185774,10.915976,106.5856863,10.9772216,"sublocality_level_1,sublocality,political",10.9465988,106.55213185,4998.369292697536
Thành phố Hồ Chí Minh,79,Huyện Củ Chi,783,Xã Tân Thông Hội,27556,Xã,,Xã Tân Thông Hội Huyện Củ Chi Thành phố Hồ Chí Minh,,UBND xã Tân Thông Hội,"1 Đường số 28, Tân Thông Hội, Củ Chi, Hồ Chí Minh, Vietnam",ChIJfaNusEErCzERswMyDwF1prY,CmRSAAAAYttM1weMhqCGVqQWtIc9dqreYdR1CPDIRMc9o-HN5DJNUg0_6v-3GRwhw-AFdRUAAmnPdfdVEDhCyg-_UWDz0_ODT9HX4fJ5WvRblhWqV3vYX6wqKxhXKiAAyYcheb76EhBRVMa4O27uquTgo39rsibiGhTdIeEDlAi-v7uSI62xKFtfE2BhoQ,011315eaf355a1f85e21e7c84349b9719eb6c38b,106.5133215,10.9555622,106.5119930197085,10.9541983197085,106.5146909802915,10.9568962802915,"local_government_office,point_of_interest,establishment",10.9555473,106.513342,210.07578900842321
Thành phố Hồ Chí Minh,79,Huyện Hóc Môn,784,Thị trấn Hóc Môn,27559,Thị trấn,,Thị trấn Hóc Môn Huyện Hóc Môn Thành phố Hồ Chí Minh,,Cultural Center Hoc Mon district,"3 Thị Trấn Hóc Môn, TP, 48 Bà Triệu, Hóc Môn, Hồ Chí Minh, Vietnam",ChIJ0SDA54jVdDERR5hQQ6WT73U,CmRRAAAALz7VgP85mnbEJWQhF_bovk_kj1OpNA4pXJdRmkUo5CteTuqf-hb_-le454rkwjmCGyVIEB-KD2Rg9Y3sM3kiS2xDe8h0fT4qFm8Yf8dah-CgtmM1ITVTWV_fAzgGUdKpEhCaBhD55w2VrwA0QGh60tLiGhSSP-_y5HSkkTRqD2mFPisfp6EcWA,d19040093676eba1961cc4d75898c9608dc752ca,106.596061,10.8860993,106.5945790697085,10.8848282697085,106.5972770302915,10.8875262302915,"point_of_interest,establishment",10.88617725,106.59592805,210.09987822514714
Thành phố Hồ Chí Minh,79,Huyện Hóc Môn,784,Xã Tân Hiệp,27562,Xã,,Xã Tân Hiệp Huyện Hóc Môn Thành phố Hồ Chí Minh,,Tân Hiệp,"Tân Hiệp, Hóc Môn, Hồ Chí Minh, Vietnam",ChIJdxjxeKPVdDERdrqmvHGHTQw,CmRbAAAAqvGtFItxq7PgFtMlMVIemkCxmewcLgV26NhH6JmuzqSwT74AJt3sn6D6nrxeSN_mFPt3QmcWDLKctXK1GItSB5SLaBOUYkC7iFUzafyJ5f-Swn66cRczuoAzRVvK3z8wEhBfgHYjGbl3WLzF7fWfCdf8GhQ3F2VIYs2wI5e4tWQmSKhr7VWb7Q,9ff9f1856bc1f8e06f42c0db984a1a73bf5d586c,106.5912473,10.9084099,106.5630709,10.8910084,106.6190703,10.9284543,"sublocality_level_1,sublocality,political",10.909731350000001,106.5910706,3696.471651067839
Thành phố Hồ Chí Minh,79,Huyện Hóc Môn,784,Xã Nhị Bình,27565,Xã,,Xã Nhị Bình Huyện Hóc Môn Thành phố Hồ Chí Minh,,Nhị Bình,"Nhị Bình, Hóc Môn, Hồ Chí Minh, Vietnam",ChIJtdW0RVLWdDERCwgpReN50KE,CmRbAAAAIBCEm3gfph85FlZrjESQqr1EjaElA_lMvtrOXt7JCACOWgbPj5WcQojSGp60T9ChwVZoppoUO5WujquyIBq9cpK986W1VML-ehJ--vONfauR900ZYXG12saD81zrk_lDEhCvlfR_VSDih4FW_Z6xWysJGhTQhZL70a8QZMu-cSenuZ1_cSVWug,4a79983b8e79a4a99e579886dedea31018c6509f,106.6733441,10.9132585,106.652178,10.8983939,106.6925079,10.926532,"administrative_area_level_3,political",10.91246295,106.67234295,2699.240971692933
Thành phố Hồ Chí Minh,79,Huyện Hóc Môn,784,Xã Đông Thạnh,27568,Xã,,Xã Đông Thạnh Huyện Hóc Môn Thành phố Hồ Chí Minh,,Đông Thạnh,"Đông Thạnh, Hóc Môn, Hồ Chí Minh, Vietnam",ChIJv3wX4GzWdDERy-cWP3b-6qk,CmRbAAAAczHNDm57zD6PiymULpzDQCkhVAHhAkPzAJ82FFSFmpquzFdh-Yib_fpFtywcQaTv4FgE3FyE5ecxUg-mo8MY8kLAy0rsIgBWYz1xwnuQRQY5THZQCv-viXs_Lrv2swDNEhCaFvaWmYdf8Wy39LZ2d0y5GhRLjXwGg5WIiBMpKztsFxweAsYThQ,4ee1eda4c26884570c92b42544b8476211245579,106.6468148,10.9065528,106.617199,10.8852959,106.6706301,10.920095,"administrative_area_level_3,political",10.90269545,106.64391455,3498.186351728031
Thành phố Hồ Chí Minh,79,Huyện Hóc Môn,784,Xã Tân Thới Nhì,27571,Xã,,Xã Tân Thới Nhì Huyện Hóc Môn Thành phố Hồ Chí Minh,,Tân Thới Nhì,"Tân Thới Nhì, Hóc Môn, Hồ Chí Minh, Vietnam",ChIJ32ItQUnVdDERCzlT8DN0HfY,CmRbAAAA7FkvJ1QWsa0S9bi6qepS7Ji2OC3VKi8bN3UO_Pamlr1Xk8Tmp8qWsSvEswjwrVZb3ac7ocGk7cHIfaVo3U4eBrFLpdCjlroOGC8jfy8tTtWAfkZpAqYF39OWuCh3Y-tHEhDvJ5BX0kL1hnpk7bNZchPWGhSKf-Ik04ILAoxDgyPoB6zJbtFOCQ,257f3ecd1a2a624bed049dd788dfae9567fbaafa,106.5407299,10.9015143,106.495165,10.883822,106.5887821,10.921131,"administrative_area_level_3,political",10.9024765,106.54197355,5512.503185767646
Thành phố Hồ Chí Minh,79,Huyện Hóc Môn,784,Xã Thới Tam Thôn,27574,Xã,,Xã Thới Tam Thôn Huyện Hóc Môn Thành phố Hồ Chí Minh,,Thới Tam Thôn,"Thới Tam Thôn, Hóc Môn, Hồ Chí Minh, Vietnam",ChIJH54ZKO7VdDER5656N66moBo,CmRbAAAAvKTX65v3A3oPPLWxgXvo7_KGXKcDBSBktGzIlWfytrg7kG3Wpl98FMgNHisaGX_jZHZ5vC_qTUuzAZ492cfuRCSH2pVt4FEC-PfbwMfdZxSRD9Xmz3DiVbXWvYlm9dBCEhA-XqF2f0DcWiSZsd7Khj0CGhSclJayZCmqHx-dN6te-Ccl8HsOyA,9863a3d49b981d6b5bf10d69c2b770b14962907a,106.6114474,10.8976059,106.5979838,10.8703645,106.6278183,10.9125795,"sublocality_level_1,sublocality,political",10.891472,106.61290105,2855.118788119856
Thành phố Hồ Chí Minh,79,Huyện Hóc Môn,784,Xã Xuân Thới Sơn,27577,Xã,,Xã Xuân Thới Sơn Huyện Hóc Môn Thành phố Hồ Chí Minh,,Xuân Thới Sơn,"Xuân Thới Sơn, Hóc Môn, Hồ Chí Minh, Vietnam",ChIJB4TB_6EqdTERBO_Wd2BE9Iw,CmRbAAAA_pIpv9e_VKVTCMH_ZlwQ_stIo4K6Y0GElyc0V0ZnkDXnM0h-wPPKWWgUFG4rDttTbMKYNfbwdry5M1Ee35eITkiBwPn0tSO-vYRa-r2K8xWo0-nY6Spa5FdaP0OYY_jYEhAqiy-Ug4Cp7EZkPMaolkm0GhSlFtkTxCmytN--nxelY7QWyOEWrQ,cb85f67f236043d1be95e4b93ddf77d4c3315381,106.5525145,10.8790427,106.5255089,10.857653,106.5911641,10.89998,"administrative_area_level_3,political",10.8788165,106.5583365,4285.5021274448345
Thành phố Hồ Chí Minh,79,Huyện Hóc Môn,784,Xã Tân Xuân,27580,Xã,,Xã Tân Xuân Huyện Hóc Môn Thành phố Hồ Chí Minh,,Tân Xuân,"Tân Xuân, Hóc Môn, Hồ Chí Minh, Vietnam",ChIJc7fdCm4qdTERX-JuiD8FdOo,CmRbAAAAMmbz9rVxOLtG3tmi7FaXvHjhOkHSaVULgePP5dcGB2mAZlxXYDVIMTR5kFW5oyArf1MqKW9GzY4-0SbgbeJAk_eE_31FB2p8XHMaxJ2HgWXyMoIdv4b6-2x5R7HMfppwEhB3Ygvs015SVfyV_C-7iJKmGhRP5VEpnQtGInS0WmFMrpJcRe_ndQ,3f34ed86ffde4509d1ecf5c993e431d3a4eefdc6,106.5967126,10.8684249,106.5834293,10.8553552,106.6155339,10.8840958,"sublocality_level_1,sublocality,political",10.869725500000001,106.5994816,2370.4592881757117
Thành phố Hồ Chí Minh,79,Huyện Hóc Môn,784,Xã Xuân Thới Đông,27583,Xã,,Xã Xuân Thới Đông Huyện Hóc Môn Thành phố Hồ Chí Minh,,Xuan Thoi Dong Commune People's Committee,"54 Đường số 7, Linh Trung, Thủ Đức, Hồ Chí Minh, Vietnam",ChIJZSW-YWQqdTERGDDCyRRnIz0,CmRRAAAAyFbXYlWBk46HJVtcKcvyjIOrwRCCAZKdCgacwWE4r3955uxBiY0RDoOKYwYdxvTTkWNSxglFLzy4CwAOPIPHz0JgIJZIiafEhxI3M8-mgezEIUVeExMJm3NhTus_HwuCEhAO6unRop6K6iOMKnsz2iPnGhSP-x54VM92ukvqIFe-D19T__xKTA,d2049de9bead5f7515e023f40953c99673ce6777,106.5890718,10.8687479,106.5877228197085,10.8673989197085,106.5904207802915,10.8700968802915,"local_government_office,point_of_interest,establishment",10.868747899999999,106.5890718,210.10590736892902
Thành phố Hồ Chí Minh,79,Huyện Hóc Môn,784,Xã Trung Chánh,27586,Xã,,Xã Trung Chánh Huyện Hóc Môn Thành phố Hồ Chí Minh,,Cơ Sơ Bột Năng Trung Chánh,"39/3 Đường Hồ Ngọc Cẩn, Xã Trung Chánh, Huyện Hóc Môn, Thành Phố Hồ Chí Minh, Vietnam",ChIJP31szxUqdTERUiZROzYSOjI,CmRRAAAAdNeQOPIc5X5sWHoPBCwEb9LqlLgy7XqwX4W_Vk2nHcQ-vHkg_Sw5D06ysduZr92HBhk_S7tGjjjgtXCCfAjVIvJjAQQc346298WH9UKMG_BXgCX67VLqTCGoN7RTSA0xEhBQJlArPizuZ3S52CVQl_SXGhTSjanmFJoMAxMjvDQWhlFecmyJLA,c42a55639ee43c7157b9fd04a6b1ce4aa4aef974,106.6104599,10.861606,106.6091109197085,10.8602570197085,106.6118088802915,10.8629549802915,"point_of_interest,establishment",10.861606,106.6104599,210.10837518292593
Thành phố Hồ Chí Minh,79,Huyện Hóc Môn,784,Xã Xuân Thới Thượng,27589,Xã,,Xã Xuân Thới Thượng Huyện Hóc Môn Thành phố Hồ Chí Minh,,Xuân Thới Thượng,"Xuân Thới Thượng, Hóc Môn, Hồ Chí Minh, Vietnam",ChIJXY9A1ugqdTERVV3_gvM8Sis,CmRbAAAAx-oUA8iUKrsBfJD_smjO2PG2ugsUvO2AG2HMqjFagj_Eq3zl4dpdfwfu2q2_wXsI90zNbO2lMJLbR_Wv6GUAzL9UFgQnvhEs8hGGOVkSvjiRdN-HVNSjdSRIQg8ealbLEhDXB3G5NwQ2DX5JgdUers_XGhTkG437qRRvXd992UTnucfdl8pBwQ,14315c4e34e3e9224c4d72fc6eade9bca17d1376,106.5642998,10.8565784,106.5288795,10.8356558,106.5989178,10.8718688,"sublocality_level_1,sublocality,political",10.8537623,106.56389865,4319.286422050158
Thành phố Hồ Chí Minh,79,Huyện Hóc Môn,784,Xã Bà Điểm,27592,Xã,,Xã Bà Điểm Huyện Hóc Môn Thành phố Hồ Chí Minh,,Bà Điểm,"Bà Điểm, Hóc Môn, Hồ Chí Minh, Vietnam",ChIJGZO9SUwqdTER9j4eLNlgvs4,CmRbAAAAioJ_LhNNxFOsTwx1NqpiqCyi9tuhkuq8ItQns0J1BLG56Rj5fhjqToMyCVekWjilUQdVxAq8iLJcxQarzF7JA58N-ff2gDNROQYDbLvDB7bytpsf3jEdmGar_W3XDORXEhAMbzG6qaFi5QUNNtLS5tpIGhT4tRZRZzb06e1WhViZnuqdL9bh7A,0b57c5381de85130512de1f2c222f210c244937e,106.5967126,10.8411638,106.5789531,10.8261365,106.6153484,10.8586353,"sublocality_level_1,sublocality,political",10.8423859,106.59715075,2684.303062087872
Thành phố Hồ Chí Minh,79,Huyện Bình Chánh,785,Thị trấn Tân Túc,27595,Thị trấn,,Thị trấn Tân Túc Huyện Bình Chánh Thành phố Hồ Chí Minh,,tt. Tân Túc,"tt. Tân Túc, Bình Chánh, Hồ Chí Minh, Vietnam",ChIJnY_M2fIydTEReQSyzAz-S4o,CmRbAAAAAdDGxr-4C6yCjwZbvDaSnXRZaA0jnNDKeqglHdxl7Ks9C5sBkm1KA4SPUBpvQTBqM4sROFxL0BPqoqxmzGaSjZMtEKZU3S8x_mrxLr4d0_vnfkkG1ZtsIHlLrmCHKu75EhCL5vK_Skk0bXhIiJznAY4YGhThDALW_y7Y1fY3JMv2ei1XXxZqVQ,c8f1c2ec9db792ce7c8a1e305ae4c145ced98520,106.5731392,10.6844901,106.5485816,10.6713797,106.597387,10.7015404,"sublocality_level_1,sublocality,political",10.68646005,106.5729843,3147.9230971816555
Thành phố Hồ Chí Minh,79,Huyện Bình Chánh,785,Xã Phạm Văn Hai,27598,Xã,,Xã Phạm Văn Hai Huyện Bình Chánh Thành phố Hồ Chí Minh,,Phạm Văn Hai,"Phạm Văn Hai, Bình Chánh, Hồ Chí Minh, Vietnam",ChIJl6-a7UordTERxOD6C7rlfvY,CmRbAAAAQeb9YvS8AQ-mm9BFExpWME0rMOy62GLktUz4ZKPbwb-RzBE8kKOQJQHAZmMDnch9_BcnNJid2RXdGjw0AEPbs3sKn220AKt0_6vmlyYgw47tZOP4q6FvGASzhbnmexOdEhBpN-bfIL8y643jA4_xlSJCGhSYkameyDZP8sHtuGPrhbZ1uRDhLQ,fb30d3587fe7c266a96f51963501467175624b5c,106.528946,10.8148999,106.5061557,10.7629572,106.5682155,10.8734161,"sublocality_level_1,sublocality,political",10.818186650000001,106.53718559999999,7010.046214444867
Thành phố Hồ Chí Minh,79,Huyện Bình Chánh,785,Xã Vĩnh Lộc A,27601,Xã,,Xã Vĩnh Lộc A Huyện Bình Chánh Thành phố Hồ Chí Minh,,xã Vĩnh Lộc A,"xã Vĩnh Lộc A, Bình Chánh, Hồ Chí Minh, Vietnam",ChIJM3zF4BMrdTERZzeoZeixzHI,CmRbAAAAvJuAKkeXJwa5qOPtyYFGMLQfIJzeFO8jDzdThw79dFkjoJM3-36hPgHPrpD2esJULsQQgSUCJ0NQ_IIRjJ9c86b5Kwf7foqmbOn3cJ8bHuNY2k7RN5Lhqf7IsmpJH3l2EhBT628VmLV8nqCqooKaNMIOGhQHU-drkncRjCsE4qw5dWn8jXrq-g,ba5a9a14402096047ae3ec1440200949d89c8f43,106.5642998,10.8238657,106.5360675,10.8019287,106.5951544,10.844727,"sublocality_level_1,sublocality,political",10.82332785,106.56561095,4006.707013453051
Thành phố Hồ Chí Minh,79,Huyện Bình Chánh,785,Xã Vĩnh Lộc B,27604,Xã,,Xã Vĩnh Lộc B Huyện Bình Chánh Thành phố Hồ Chí Minh,,Vĩnh Lộc B,"Vĩnh Lộc B, Bình Chánh, Hồ Chí Minh, Vietnam",ChIJ6dt2YJksdTERmSHpe8sbDxg,CmRbAAAArZaKZxlSFUIRloeUoVetPJUH7eHyS35fJGN2nUUyFHixyTrLk3uXcrk_ZVUcnly40Z32tvKD_sQbWX6h7FIn65sxjXbgNQQh8Y5gbhJyhVCsh_VNU0nvyRFN9i0cLl_EEhD8a9VltIdWRARXOwvlrU7hGhR6jYxWmORI2bG-2201-hpxxc_qlg,c76f2343b215a8823537764703d0f6849ef95a4c,106.5642998,10.7911649,106.5391755,10.76418,106.5891574,10.8155138,"sublocality_level_1,sublocality,political",10.7898469,106.56416645,3946.8982660569727
Thành phố Hồ Chí Minh,79,Huyện Bình Chánh,785,Xã Bình Lợi,27607,Xã,,Xã Bình Lợi Huyện Bình Chánh Thành phố Hồ Chí Minh,,Bình Lợi,"Bình Lợi, Bình Chánh, Hồ Chí Minh, Vietnam",ChIJZah7SePSCjERY_KaXc1nupk,CmRbAAAAEAecISBvWNqoTj_spteWFpeMYJVQIBQ05QAhzsBssFhNou63MR4ARG5UuSgBv52QbjO_ghsmTpm90X3brxPx8-BSl8Bais9lAPoQ4Igm5DOAsngoYAZ9RF0ycgBFyWKVEhBF8xUuf-t9XI23pKAV1YeAGhQvPdT4BTwLhMvnHEcwBIMizhYLLw,b22b711a1aaf13499a7fe68a96ccbfdd21b50928,106.4965434,10.7376475,106.463764,10.7105569,106.5360141,10.7939349,"administrative_area_level_3,political",10.7522459,106.49988905000001,6084.283968835737
Thành phố Hồ Chí Minh,79,Huyện Bình Chánh,785,Xã Lê Minh Xuân,27610,Xã,,Xã Lê Minh Xuân Huyện Bình Chánh Thành phố Hồ Chí Minh,,Lê Minh Xuân,"Lê Minh Xuân, Bình Chánh, Hồ Chí Minh, Vietnam",ChIJuYYv3ynTCjERznkx77c5Gd4,CmRbAAAAMKHLm1goiHAllijlMpU6sImLi9HA7JwZIlmej3304mraTkc4Dz0QjKOSI6p0-CUoC9FxKonQEXuZbgJJY5ox8n8HZaEc7oeK1gvh5kSLEzZaErff4Kqna6udjUQKbTJFEhD81sp8xnNnk7Z1MSF9lJR1GhT91oG63iFjwdIb2_ois6qM83UEGw,229b2a2a9b6ac208d79a4b4d424c020ef525ded0,106.5230542,10.7661714,106.4808485,10.7207429,106.5733946,10.7897999,"sublocality_level_1,sublocality,political",10.7552714,106.52712155,6343.951395258403
Thành phố Hồ Chí Minh,79,Huyện Bình Chánh,785,Xã Tân Nhựt,27613,Xã,,Xã Tân Nhựt Huyện Bình Chánh Thành phố Hồ Chí Minh,,Tân Nhựt,"Tân Nhựt, Bình Chánh, Hồ Chí Minh, Vietnam",ChIJpdqEpl4tdTERUlm6uH_wsec,CmRbAAAA3MvIBWD4AotQVz3mtdbCa-QAmvuiGUA4usl3Tfe3b-kJ1oMzYF0PVyabzJNmaRsi1Ik-2Fkrg1zGv6TJbnAw0q87hqNPLZr5ykMkkjgrN9NgknCtNOFC3H1Bw42hhPmuEhB_rSUgJuerIzTsDR2CgzkmGhTIAgcScQ6KgB_WB_yXACoReS3G3w,6191e9feed44bb9f8e7205fc0265759d9e9179fd,106.5525145,10.7155493,106.5271282,10.6856587,106.5797834,10.7446806,"sublocality_level_1,sublocality,political",10.71516965,106.5534558,4361.066496227464
Thành phố Hồ Chí Minh,79,Huyện Bình Chánh,785,Xã Tân Kiên,27616,Xã,,Xã Tân Kiên Huyện Bình Chánh Thành phố Hồ Chí Minh,,Tân Kiên,"Tân Kiên, Bình Chánh, Hồ Chí Minh, Vietnam",ChIJZYuj04MtdTERAmOzptivl0I,CmRbAAAAhPx2IGYL_BRrNliIbNjPLwwkgkswfh1LWzscLV_bN1BHgoyLTr4ZcIl7QZ0L-bdTObffPEmLvfadhFvZ-431ZA840CCGdlSAHt3CC2XAoOxrRXbSSATMh7x8FXXmyybSEhANrcdRviiiWutT0oYfNUpyGhQL24w4ggJOHPBnNHOk7BOp2boVzA,627781b3b63c2327f3c0740c086ee6ca15d59c34,106.5878723,10.7136274,106.5659799,10.694125,106.604298,10.7343179,"administrative_area_level_3,political",10.71422145,106.58513895,3060.0254662106786
Thành phố Hồ Chí Minh,79,Huyện Bình Chánh,785,Xã Bình Hưng,27619,Xã,,Xã Bình Hưng Huyện Bình Chánh Thành phố Hồ Chí Minh,,Bình Hưng,"Bình Hưng, Bình Chánh, Hồ Chí Minh, Vietnam",ChIJGwhvKTIudTERzGp5GMu22Ag,CmRbAAAAyeWdwVEA8zOPqCgyNrHUmwtnlLUXf-kHUOzs80Cr3vge6oJrqXwydfhqOMLe0dNyUiUbRaEbH8DTr_v5_jCu-qWUE_hTOO0zgsatG5wCwfidE65FuUj8enq8XvWgOyFZEhDRmaC5CPcif7BTyfGWa9BHGhSifQPlWcHnbanx0aLTBq55DtdZgQ,3405a2e664ab2f7c8a84ac504f69e9cae320724b,106.6703963,10.7200104,106.6462638,10.692197,106.6950125,10.7415742,"sublocality_level_1,sublocality,political",10.716885600000001,106.67063815,3822.346177672882
Thành phố Hồ Chí Minh,79,Huyện Bình Chánh,785,Xã Phong Phú,27622,Xã,,Xã Phong Phú Huyện Bình Chánh Thành phố Hồ Chí Minh,,Phong Phú,"Phong Phú, Bình Chánh, Hồ Chí Minh, Vietnam",ChIJQxqJ_90xdTERAorNvk-q1FY,CmRbAAAARXqLRXOcxr5FrCc6CGNeFIA0ZGoeUtbScl_ZE2TT3HNMkvQuehmL0Z_UORYTeKRXyqaovRtQCL2oXJ3S_ZEurkb796CL-rLbfw3qKDqZ4In-MQ9qyim0UFAElUuAuX9HEhCq3hpFCzy3qtMrz5McXtV-GhTDixdEqSCYksL_SZtPLVTUs_Kt6g,55adcbac3bceb57a95d636b0e5d57c17cd3b47a7,106.6468148,10.6995307,106.6242241,10.6688681,106.6811051,10.729258,"sublocality_level_1,sublocality,political",10.69906305,106.65266460000001,4572.087992675834
Thành phố Hồ Chí Minh,79,Huyện Bình Chánh,785,Xã An Phú Tây,27625,Xã,,Xã An Phú Tây Huyện Bình Chánh Thành phố Hồ Chí Minh,,An Phú Tây,"An Phú Tây, Bình Chánh, Hồ Chí Minh, Vietnam",ChIJeSdEDhUydTEREI4nv-QwxYk,CmRbAAAA8SRhMB-jj7dQQuRXuMZMpDDB2PwHoj12orixUuZF0UOop8sj88j-Ng5-KgfC5Rcb3SnmNotVZwr0crVYBOkuOG9bNJCuNztk7ADWmziqRCPnRPvSy2c7AB9WrSXoLmMvEhB54Ao40v-SOYpuhLkBBZr6GhTOnrlnvFqsCggWZdhgmfdT7FUc6g,63bfb8fdc316321220ffa190c114e369dea0f5a1,106.6085003,10.6880126,106.5920006,10.6724554,106.6236547,10.7017726,"sublocality_level_1,sublocality,political",10.687114000000001,106.60782765,2374.9783906925913
Thành phố Hồ Chí Minh,79,Huyện Bình Chánh,785,Xã Hưng Long,27628,Xã,,Xã Hưng Long Huyện Bình Chánh Thành phố Hồ Chí Minh,,Hưng Long,"Hưng Long, Bình Chánh, Hồ Chí Minh, Vietnam",ChIJlWvGsSsydTERmZDHRRcmsD4,CmRbAAAABtWLjmb5kRpskSPPaLG65mS0sqdRV5NetejQpm9s2o50mu87CCr8BDWd_bW7ntiErO4izXIaPhhBd866FjdJofSi_RL-b2U3YMWBa5-QwHumF754-fds0qI0_pGGwHXiEhBi7fD1Bugl7-0ioAiybQRQGhQVSZw9Ndh8Zy-mC4PDyZsIWIlnVg,d016ba5527d823680de52f4a5c96efe95127bf8e,106.6232359,10.6681681,106.6055579,10.6391953,106.6457054,10.692901,"sublocality_level_1,sublocality,political",10.666048150000002,106.62563165,3702.7541313455213
Thành phố Hồ Chí Minh,79,Huyện Bình Chánh,785,Xã Đa Phước,27631,Xã,,Xã Đa Phước Huyện Bình Chánh Thành phố Hồ Chí Minh,,Đa Phước,"Đa Phước, Bình Chánh, Hồ Chí Minh, Vietnam",ChIJ73QhIacxdTERbrQI1QVcpYE,CmRbAAAA_ewWIuZy8ZKC-WkQwUQSjo6GqZsDrpPEn37TPhzmdExqE_RLspsY353S0_2F-_X8nShhKGKVO3YtchPP67slimHE4567DHCEysXTmv6-vvPVEGiFZUaaMAepB-xJ9U7sEhDQMRv36LGwS6e90CiJRlzHGhQ-GmFaS3F5a_3vgqxx-n3KoLFtwA,559763cbb30b09bb59d5ee43a6029f1958159944,106.6586052,10.666245,106.6335683,10.6391701,106.6858715,10.6873244,"sublocality_level_1,sublocality,political",10.66324725,106.6597199,3913.5161521662494
Thành phố Hồ Chí Minh,79,Huyện Bình Chánh,785,Xã Tân Quý Tây,27634,Xã,,Xã Tân Quý Tây Huyện Bình Chánh Thành phố Hồ Chí Minh,,Tân Quý Tây,"Tân Quý Tây, Bình Chánh, Hồ Chí Minh, Vietnam",ChIJSYDXUUwydTERP255x2PrPyk,CmRbAAAA66ck8OnZExIlJC48_Tl5VrBLr_dFGeOkdtk7iROIejtgdyEqMHpZJo-THesKH6jCirKqXQWpptfSS5Tr02bjm9eUUmRSxGpW9rcfyGhVOcm7Na9caukgyIiElHL1Xn4zEhCS-2tqYvQFjv9yaTL1wcnwGhQ2IhmOs6lZOF2PNzeUJYPM0sxH6A,922f0cce63fac92ea1c832203574c3dbe8d4c421,106.5967126,10.666887,106.5795593,10.650801,106.6147893,10.6842064,"sublocality_level_1,sublocality,political",10.667503700000001,106.5971743,2673.1369382552834
Thành phố Hồ Chí Minh,79,Huyện Bình Chánh,785,Xã Bình Chánh,27637,Xã,,Xã Bình Chánh Huyện Bình Chánh Thành phố Hồ Chí Minh,,Bình Chánh,"Bình Chánh, Hồ Chí Minh, Vietnam",ChIJX_EPox0zdTERoW_iSCGcCtE,CmRbAAAAXS04tzmRB3VIoB3io4bM7DaIWybWqiGb9jqDLQzaJQj07UwffZ2GtU8cI75g5vpm8ORC4_PIgsUCuopfNG98lOIRMRWDOwnLq6qMU3sJUElkV1n8wT9scnlCN59N1zYnEhBH8nyVvMOcQhyJTufupO7jGhSLDjAfFULT6DSogkWSOt72yGlG0Q,bb0d3e08d399027d6809a86dd0aa3aa158bbf2f3,106.5672462,10.6630417,106.549061,10.648877,106.584243,10.679563,"administrative_area_level_3,political",10.66422,106.566652,2568.575285410868
Thành phố Hồ Chí Minh,79,Huyện Bình Chánh,785,Xã Quy Đức,27640,Xã,,Xã Quy Đức Huyện Bình Chánh Thành phố Hồ Chí Minh,,Qui Đức,"Qui Đức, Bình Chánh, Hồ Chí Minh, Vietnam",ChIJO_riDGoxdTERikv1u4wfwaU,CmRbAAAA7QkzX9dNuaK3XSTd_w7r54sCsWdd3psm_OMo-HJZ6eLkx-e-ZePVAoDVI3iIcbsJB4cdUCaTCvY8yv87wyL1wO98tY8Ji2loNanJSu929oh9-g-qAZELzeNGx27V8K0BEhCAJSHsQcrDTCuNhAxxJrjfGhRRwNJoXkqsfNm7h2seeqFmnJzlPA,01e5b81d1471ef061b9e5f9c59d7c02f41520dec,106.6438673,10.6425712,106.6296194,10.6254648,106.666566,10.6547245,"sublocality_level_1,sublocality,political",10.64009465,106.6480927,2591.091021063278
Thành phố Hồ Chí Minh,79,Huyện Nhà Bè,786,Thị trấn Nhà Bè,27643,Thị trấn,,Thị trấn Nhà Bè Huyện Nhà Bè Thành phố Hồ Chí Minh,,tt. Nhà Bè,"tt. Nhà Bè, Nhà Bè, Hồ Chí Minh, Vietnam",ChIJL9qenLg6dTERxKKEq4yNYZ4,CmRbAAAAHbaSgTnpYlJ3JjhlcADE5_jQhG3V2fay00azz2_4oycaewWNkrBPWiSZxZQ8EjCd2ntfAuICu00T8s16FJ-qwTeZ1MXV33eH3v4XzNXx11gEdi5XYYznPHzrR_5HLB2tEhBGEJvwvMctXBlNvqEXD_HJGhRkoGeZAMu9x77jfJUwfgwIk23lEw,a8e0286c477041e746bb08d23f0123fcca459594,106.7411559,10.6943704,106.7228505,10.6821292,106.7600727,10.7052255,"sublocality_level_1,sublocality,political",10.69367735,106.74146160000001,2403.5395537618515
Thành phố Hồ Chí Minh,79,Huyện Nhà Bè,786,Xã Phước Kiển,27646,Xã,,Xã Phước Kiển Huyện Nhà Bè Thành phố Hồ Chí Minh,,Phước Kiển,"Phước Kiển, Nhà Bè, Hồ Chí Minh, Vietnam",ChIJp_joX-IvdTERqV7TNKjjbdQ,CmRbAAAAp7JLHdam04a40AwAwgUGATa2s4DjjeAImZNWPOhi4LJ9yX8TC_jjeGnByjFBPBRgOAvrARheLam8hj_G3HTRVvDlX5bT_QBJc4BJDz5p2fD-3i8m07mJDYCab1DOz_EOEhAfJGB2BPYC9t77AhioIO_TGhQgnx4MfckOXWLLo-Pb4siAHyuogQ,c80fd2323bb2e48ace66863d5c5ff388714f0fcf,106.7057733,10.70719,106.688372,10.680444,106.72891,10.725564,"administrative_area_level_3,political",10.703004,106.708641,3344.1927264102956
Thành phố Hồ Chí Minh,79,Huyện Nhà Bè,786,Xã Phước Lộc,27649,Xã,,Xã Phước Lộc Huyện Nhà Bè Thành phố Hồ Chí Minh,,Phước Lộc,"Phước Lộc, Nhà Bè, Hồ Chí Minh, Vietnam",ChIJy8WdwygwdTERbES_JakLE1g,CmRbAAAA3S74RgYAtn_9mEPpK-lJ-9uE56CejAls-_1TRPmEnKZi1MCd7naZ2XcNSoquHCdsBLsHBH6K5fH2F90vg6XGcPCI0cOPleeY0Rs6-CRcuNh5u4MLc44yzIrWmZziYQjREhAwVtnB76nxB5zdqD_iZqsoGhQVYI9tiFFWtmspfNahxeqIAuziDw,07cb2f90a90ec11777194e9de95ca8164fcd3de9,106.685136,10.7001584,106.6733189,10.682364,106.6986847,10.7145042,"sublocality_level_1,sublocality,political",10.6984341,106.6860018,2259.8839104632602
Thành phố Hồ Chí Minh,79,Huyện Nhà Bè,786,Xã Nhơn Đức,27652,Xã,,Xã Nhơn Đức Huyện Nhà Bè Thành phố Hồ Chí Minh,,Nhơn Đức,"Nhơn Đức, Nhà Bè, Hồ Chí Minh, Vietnam",ChIJcSlp-2gwdTERJ-QCmxK45bc,CmRbAAAAWr8zPwIc2tz-wwMa_wZ1PlL6vUUyr-XngZ8TUMitp12YDyrHPJ8BLkEsuExCAh_HbEScXQpgW9_q3CJMJvobP8zZv8ebPiK1ZxzzmVBZb8HHmdVX8ot1uejAYiOpmnJIEhD-xEZ3hvY4uYRRD_tlib5jGhTNGiazvhDSbxRJXzhKpTQhC28UOg,c20fb19390ab0abe1577728318bc11d016f140f1,106.6939803,10.6751953,106.6784579,10.648258,106.728439,10.694872,"administrative_area_level_3,political",10.671565000000001,106.70344845,3762.490579054423
Thành phố Hồ Chí Minh,79,Huyện Nhà Bè,786,Xã Phú Xuân,27655,Xã,,Xã Phú Xuân Huyện Nhà Bè Thành phố Hồ Chí Minh,,Phú Xuân,"Phú Xuân, Nhà Bè, Hồ Chí Minh, Vietnam",ChIJIcxTvOo6dTER4gKKWKKI0Ew,CmRbAAAAIxlVPEqqW0BQTVhjJcb7oIrGkp0979JOUuJpBRMMYDrMjgMFEW0a5_9aebO9lJv93vGfPAC1SE3IiZRU_8A6hnwZ-wGAacjxdfN8J1HLl7ZpK3Yge7j6F1lFJEjDpM_kEhAkTX5fZ-N0D0ClvdYtmF7EGhS77VGtAqUP17zDol1JhThDMN0TXQ,898feda8f250b633895492adbe5f295501357021,106.7500025,10.6748507,106.7266535,10.664994,106.7754364,10.6902975,"sublocality_level_1,sublocality,political",10.67764575,106.75104495,3011.898979210144
Thành phố Hồ Chí Minh,79,Huyện Nhà Bè,786,Xã Long Thới,27658,Xã,,Xã Long Thới Huyện Nhà Bè Thành phố Hồ Chí Minh,,Long Thới,"Long Thới, Nhà Bè, Hồ Chí Minh, Vietnam",ChIJsf7wyXg6dTERYIXsKM22f1o,CmRbAAAAxWTgchPWGVdtJW2NmcwTqjoja8PBVJR22u6sdSkQWzb6w7K-b9TLpS-3BPsk_I43ZtF0ex91TY-1pbw8bFeannM618XVMRbbG9mZMt9-9aPLkuSf4YnS6Eb8gWfGtFldEhDHmzwNKJRV3jQ7NNUSKbRhGhQIaX0p9pHuT5SNQw566xVm5wNIPw,f3db501d100d382b6a6f1b993c06c1e96328c2ac,106.7293611,10.6515117,106.700607,10.633837,106.749382,10.668922,"administrative_area_level_3,political",10.651379500000001,106.72499450000001,3300.629121312689
Thành phố Hồ Chí Minh,79,Huyện Nhà Bè,786,Xã Hiệp Phước,27661,Xã,,Xã Hiệp Phước Huyện Nhà Bè Thành phố Hồ Chí Minh,,Hiệp Phước,"Hiệp Phước, Nhà Bè, Hồ Chí Minh, Vietnam",ChIJkWtMHfE5dTERUSD3v4MFbDY,CmRbAAAAJGn3OOF5aOLRwO0xaQ-kuGhv-CLrYxifsAupkRAcjjleSBJrHsKoyeVxO-iTLy7vTSe0F2-_RYv3ccDPONKmY4G9v0cYqvSnvNqa_PD9v3BHNf0Ya9ef8A30BNGI7X6HEhA34pLrTrLkC_flX5AFFcBwGhTG52-AK3x9MX4l5z6bqcAi0wrQFA,2f68491a4bcc44989a658a3a157ba7efb32856b3,106.7588494,10.6009892,106.7187623,10.5767533,106.7835045,10.6494737,"sublocality_level_1,sublocality,political",10.6131135,106.7511334,5369.226003042632
Thành phố Hồ Chí Minh,79,Huyện Cần Giờ,787,Thị trấn Cần Thạnh,27664,Thị trấn,,Thị trấn Cần Thạnh Huyện Cần Giờ Thành phố Hồ Chí Minh,,tt. Cần Thạnh,"tt. Cần Thạnh, Cần Giờ, Hồ Chí Minh, Vietnam",ChIJAbCNoXZpdTERMWQCuo7gqNE,CmRbAAAAlCSWP09GKRje_qWMeVpmuQ8ATVBoZlLBPzs5q7ceFs9_ptMTgPKZTHMUXHRukeZF0DxDwVeG3FsPqP5WigBYwprwrJsy3-De8aGkgN92Y_R4zJC7vYFttSFb7B5gXPq7EhDL6cbSQ_j43B_hITto9H_cGhSvFlS4gOeAdl-z0y2f7PeF5ZLHwQ,389548d2570acd867b2bc0df575463586aef84fd,106.9731189,10.4155124,106.9176365,10.3920912,106.9907856,10.4433316,"sublocality_level_1,sublocality,political",10.4177114,106.95421105,4907.73079254439
Thành phố Hồ Chí Minh,79,Huyện Cần Giờ,787,Xã Bình Khánh,27667,Xã,,Xã Bình Khánh Huyện Cần Giờ Thành phố Hồ Chí Minh,,Bình Khánh,"Bình Khánh, Cần Giờ, Hồ Chí Minh, Vietnam",ChIJE3lBgL47dTERFkoeEWorB0A,CmRbAAAAOrw7VJgGn9bp7b2kYI2JfDALqZeogOcc0HK2HvjQNZDdpgOBxYKmPDRqp4IEcl53amFG13lkFcjQyfVC7iAtIDNZQzpMnOYWCmpwJkRDhPSm2cfATk6hdrOorJjq09tEEhAIKlQMyFKfzkm7O5UdTeJPGhTArzj4cMz7I_WI5Kh4Kp-XUmJBQQ,db588188fb4cc34576264c8a30b3d014313cc7a6,106.7824429,10.6431737,106.7371558,10.6018952,106.8452168,10.6724166,"sublocality_level_1,sublocality,political",10.6371559,106.79118629999999,7083.708094272739
Thành phố Hồ Chí Minh,79,Huyện Cần Giờ,787,Xã Tam Thôn Hiệp,27670,Xã,,Xã Tam Thôn Hiệp Huyện Cần Giờ Thành phố Hồ Chí Minh,,Tam Thôn Hiệp,"Tam Thôn Hiệp, Cần Giờ, Ho Chi Minh, Vietnam",ChIJ6d6yxkE-dTERRYBWo7wNPjM,CmRbAAAAuaxKVV9eXDgWhG8-DqHqYFg8e6IVoIDfJlrD3i9KIoA_op0nmHP2wA8GLOFx2fII4SwbTwyN9U7z24gKkRIIIXILgGvFx4PdUM0AD9mXmgfH6qNb8SQUPL3wgV7PXrIrEhB3VaGPaT0UNsrWLDs7xk7rGhQByDmuxijb9fZTo1RGHOQDPHe4Vg,a59a00ed6cb6414b4b899eab5a687315b8a60e33,106.8595671,10.6037491,106.8318701,10.515999,106.9373131,10.648377,"sublocality_level_1,sublocality,political",10.582188,106.8845916,9342.031296508323
Thành phố Hồ Chí Minh,79,Huyện Cần Giờ,787,Xã An Thới Đông,27673,Xã,,Xã An Thới Đông Huyện Cần Giờ Thành phố Hồ Chí Minh,,An Thới Đông,"An Thới Đông, Cần Giờ, Hồ Chí Minh, Vietnam",ChIJC6dkw884dTERLByfHGeL1KU,CmRbAAAAsBVIXV7-lj3RXRCL3mVWIsrDaav-rFsjK0Qy2v44oI7jRxZpCVhsM7TfEOGP24OuW2ySr5_y71iXFFOzl8H91QfTbQvA9Lx2yszHaw9jP36S2xGS1Qwwzvf8CQLPSgi2EhBmpVGIHkE2AWnYS-LTWQT1GhSkNEiq7jx7KVBkaA0v3eWTy93qEg,3ca37e181f17b5f0f36498b8905039fa16bddc6c,106.8060388,10.5549722,106.742134,10.4899217,106.8728971,10.6182195,"sublocality_level_1,sublocality,political",10.5540706,106.80751555,10091.77308977206
Thành phố Hồ Chí Minh,79,Huyện Cần Giờ,787,Xã Thạnh An,27676,Xã,,Xã Thạnh An Huyện Cần Giờ Thành phố Hồ Chí Minh,,Thanh An,"Thanh An, Cần Giờ, Ho Chi Minh, Vietnam",ChIJtQACV9cUdTERP2ObP1HZR0g,CmRbAAAATh9QWYNglSlgqVXxui9EiVtu71gW_N5A-sGcz0GzEWyVVZN5s8-8VpUDHsw8D7DchG17TjYmruCjnZQ0tkWCzoH5ZGFiKBIFx_OH35ebpl9mSsQC-NApxPbsn6DFtRMBEhDL4YN2dSLlCRPrcJ4xyZrzGhTuLfYRRrLFA7oGKPRdLN5MlFq7Wg,2aa72cfe5b478ef1243e495c364ede1267f63bb1,106.9712791,10.5459417,106.9182586,10.448164,107.0266629,10.612947,"sublocality_level_1,sublocality,political",10.5305555,106.97246075000001,10904.347367887614
Thành phố Hồ Chí Minh,79,Huyện Cần Giờ,787,Xã Long Hòa,27679,Xã,,Xã Long Hòa Huyện Cần Giờ Thành phố Hồ Chí Minh,,Long Hòa,"Long Hòa, Cần Giờ, Hồ Chí Minh, Vietnam",ChIJBaeW691BdTERbD4X1VF1jxs,CmRbAAAArvemrT0OtVJkupc2VvUUSwBpNw43Vgv_9xKBpMIzBOBMK39eSaCdG5JN-RoMnghOGrmPO6639MUY32XVP4HQUZH9I57NPhXeLU9Nkbkuhdg0eVgniklFUmpQ6msWjheyEhCnl8VrpWyThJuknzDqIu3GGhTx-yLuHdYPipSMKssI5PDFvJKyvg,9d5e92e5395a8e31ade6cd60b80b3226c6ec63bc,106.9004472,10.4630405,106.8583488,10.3736865,106.9519042,10.5323701,"sublocality_level_1,sublocality,political",10.4530283,106.9051265,10191.928158563138
Thành phố Hồ Chí Minh,79,Huyện Cần Giờ,787,Xã Lý Nhơn,27682,Xã,,Xã Lý Nhơn Huyện Cần Giờ Thành phố Hồ Chí Minh,,Lý Nhơn,"Lý Nhơn, Cần Giờ, Hồ Chí Minh, Vietnam",ChIJ4X2NHNBGdTERrk_itElUzSg,CmRbAAAAlR8_Rqq4qnA1s3HdWFsezB1_E8eqx_5HmaHIOs65WPuAvmHmuUuyhl0-Nha-XhW092pl_cXdpDspSFouS8Ejc4H7YnX1VAhxih9-m-4mTUOAOzQSdycmc4OsN8hvwrBrEhCfLloZnLp7_QPpeWD82PUiGhSJ579Ybn-MqYDAy9tzcLASQhJkHQ,3f862120a0f2ec7d053ba029f29a17c4cbe14c1d,106.8060388,10.468149,106.7397308,10.3760505,106.8740988,10.5606799,"sublocality_level_1,sublocality,political",10.468365200000001,106.8069148,12615.50629350961
